<?xml version="1.0"?>
<gpx xmlns="http://www.topografix.com/GPX/1/1" xmlns:gpxx="http://www.garmin.com/xmlschemas/GpxExtensions/v3" creator="CALTOPO" version="1.1"><metadata><name><![CDATA[2022 Broken Arrow 11km]]></name></metadata><wpt lat="39.19043320648328" lon="-120.21339363811268"><name>Juniper Mountain Road Aid Station #1</name><desc>4.1 miles</desc></wpt><wpt lat="39.195953376967616" lon="-120.23564554100041"><name>FINISH</name></wpt><wpt lat="39.19696637077921" lon="-120.2333887754631"><name>START</name></wpt><wpt lat="39.18819" lon="-120.22704"><name>Snow king Aid Station #2</name></wpt><trk><name>Broken Arrow 11k</name><extensions><gpxx:TrackExtension><gpxx:DisplayColor>Green</gpxx:DisplayColor></gpxx:TrackExtension></extensions><trkseg><trkpt lat="39.196959237265325" lon="-120.23338722053845"/><trkpt lat="39.19693221477035" lon="-120.23281054560024"/><trkpt lat="39.19697378783522" lon="-120.23230092588742"/><trkpt lat="39.196925978808515" lon="-120.23122536007244"/><trkpt lat="39.19594485931404" lon="-120.230785477794"/><trkpt lat="39.19565384308163" lon="-120.2307667023309"/><trkpt lat="39.19541479313185" lon="-120.23085521522839"/><trkpt lat="39.1950177684432" lon="-120.23131119076092"/><trkpt lat="39.19501883909829" lon="-120.23131368636112"/><trkpt lat="39.19501" lon="-120.23132"/><trkpt lat="39.19498" lon="-120.23143"/><trkpt lat="39.19494" lon="-120.23213"/><trkpt lat="39.1945" lon="-120.2336"/><trkpt lat="39.19439" lon="-120.23412"/><trkpt lat="39.19436993512754" lon="-120.23415210379594"/><trkpt lat="39.19436921926215" lon="-120.23415969673474"/><trkpt lat="39.194353988352816" lon="-120.23416983891136"/><trkpt lat="39.194347" lon="-120.23419000000001"/><trkpt lat="39.194256" lon="-120.23397"/><trkpt lat="39.194103" lon="-120.23343999999997"/><trkpt lat="39.194077" lon="-120.23307"/><trkpt lat="39.194016" lon="-120.23289"/><trkpt lat="39.19402" lon="-120.23277999999999"/><trkpt lat="39.19396" lon="-120.23254400000002"/><trkpt lat="39.19393" lon="-120.23248000000001"/><trkpt lat="39.193882" lon="-120.23244499999998"/><trkpt lat="39.193733" lon="-120.23219"/><trkpt lat="39.193752" lon="-120.23201"/><trkpt lat="39.193848" lon="-120.23180400000001"/><trkpt lat="39.193798" lon="-120.23158999999998"/><trkpt lat="39.19377" lon="-120.23138"/><trkpt lat="39.19371" lon="-120.23133999999999"/><trkpt lat="39.193623" lon="-120.23157000000003"/><trkpt lat="39.193615" lon="-120.23163599999998"/><trkpt lat="39.19358" lon="-120.23169999999999"/><trkpt lat="39.193428" lon="-120.23184000000003"/><trkpt lat="39.1933" lon="-120.23193000000003"/><trkpt lat="39.19328" lon="-120.23201"/><trkpt lat="39.19331" lon="-120.23219"/><trkpt lat="39.193314" lon="-120.23235"/><trkpt lat="39.193233" lon="-120.23262999999997"/><trkpt lat="39.193153" lon="-120.23273"/><trkpt lat="39.19308" lon="-120.23289499999998"/><trkpt lat="39.193024" lon="-120.23298"/><trkpt lat="39.1927" lon="-120.23366499999997"/><trkpt lat="39.1926" lon="-120.23390999999998"/><trkpt lat="39.192467" lon="-120.23403000000002"/><trkpt lat="39.192413" lon="-120.23392999999999"/><trkpt lat="39.19248" lon="-120.23374999999999"/><trkpt lat="39.192482" lon="-120.23360400000001"/><trkpt lat="39.192528" lon="-120.23343"/><trkpt lat="39.192524" lon="-120.23289999999997"/><trkpt lat="39.192562" lon="-120.23271"/><trkpt lat="39.192547" lon="-120.23259999999999"/><trkpt lat="39.192577" lon="-120.23243000000002"/><trkpt lat="39.19259" lon="-120.23225000000002"/><trkpt lat="39.19264" lon="-120.23207000000002"/><trkpt lat="39.192677" lon="-120.231514"/><trkpt lat="39.19276" lon="-120.23131999999998"/><trkpt lat="39.19267" lon="-120.23136"/><trkpt lat="39.192585" lon="-120.23151000000001"/><trkpt lat="39.192482" lon="-120.23184000000003"/><trkpt lat="39.19213" lon="-120.23207000000002"/><trkpt lat="39.192245" lon="-120.23180400000001"/><trkpt lat="39.19238" lon="-120.23163999999997"/><trkpt lat="39.19245" lon="-120.23134600000003"/><trkpt lat="39.1926" lon="-120.23112000000003"/><trkpt lat="39.19255" lon="-120.23088000000001"/><trkpt lat="39.192562" lon="-120.23052000000001"/><trkpt lat="39.192547" lon="-120.23031600000002"/><trkpt lat="39.192593" lon="-120.23019399999998"/><trkpt lat="39.19258" lon="-120.23003399999999"/><trkpt lat="39.192604" lon="-120.22991999999999"/><trkpt lat="39.192604" lon="-120.22982000000002"/><trkpt lat="39.192574" lon="-120.22971000000001"/><trkpt lat="39.192547" lon="-120.22948500000001"/><trkpt lat="39.192406" lon="-120.22928000000002"/><trkpt lat="39.192356" lon="-120.22899999999998"/><trkpt lat="39.192303" lon="-120.22887400000002"/><trkpt lat="39.192215" lon="-120.22879999999998"/><trkpt lat="39.192112" lon="-120.22874999999999"/><trkpt lat="39.191975" lon="-120.22865000000002"/><trkpt lat="39.191734" lon="-120.22852999999998"/><trkpt lat="39.191746" lon="-120.22839999999997"/><trkpt lat="39.191795" lon="-120.22827999999998"/><trkpt lat="39.19174" lon="-120.22818000000001"/><trkpt lat="39.191742" lon="-120.22811999999999"/><trkpt lat="39.19184" lon="-120.22806500000002"/><trkpt lat="39.191986" lon="-120.22789"/><trkpt lat="39.19225" lon="-120.22766999999999"/><trkpt lat="39.192287" lon="-120.22761000000003"/><trkpt lat="39.192318" lon="-120.227486"/><trkpt lat="39.192455" lon="-120.22723000000002"/><trkpt lat="39.19262" lon="-120.22685999999999"/><trkpt lat="39.192726" lon="-120.22667000000001"/><trkpt lat="39.192818" lon="-120.22627"/><trkpt lat="39.192802" lon="-120.22616"/><trkpt lat="39.1927" lon="-120.22597000000002"/><trkpt lat="39.19257" lon="-120.22581000000002"/><trkpt lat="39.1925" lon="-120.22565500000002"/><trkpt lat="39.192547" lon="-120.22546"/><trkpt lat="39.192562" lon="-120.22529600000001"/><trkpt lat="39.19267820585599" lon="-120.22515510185241"/><trkpt lat="39.19308304126091" lon="-120.22505749206545"/><trkpt lat="39.19321598622644" lon="-120.22461427116396"/><trkpt lat="39.19337461598201" lon="-120.22395291534423"/><trkpt lat="39.193650915980164" lon="-120.22305177909853"/><trkpt lat="39.193314" lon="-120.22276999999997"/><trkpt lat="39.193295" lon="-120.22243000000003"/><trkpt lat="39.19331" lon="-120.22214500000001"/><trkpt lat="39.193417" lon="-120.22181999999998"/><trkpt lat="39.193672" lon="-120.22166400000003"/><trkpt lat="39.19379" lon="-120.22143"/><trkpt lat="39.193645" lon="-120.22140000000002"/><trkpt lat="39.193436" lon="-120.22143"/><trkpt lat="39.19342838903735" lon="-120.22143019941387"/><trkpt lat="39.19383180430746" lon="-120.22068500518799"/><trkpt lat="39.19378770383251" lon="-120.22067140592605"/><trkpt lat="39.1938" lon="-120.22053"/><trkpt lat="39.19374" lon="-120.22028999999998"/><trkpt lat="39.19371" lon="-120.21999"/><trkpt lat="39.19377" lon="-120.21962000000002"/><trkpt lat="39.19374" lon="-120.21951999999999"/><trkpt lat="39.1938" lon="-120.21938"/><trkpt lat="39.19379" lon="-120.21927"/><trkpt lat="39.19398" lon="-120.21861999999999"/><trkpt lat="39.19395" lon="-120.21839"/><trkpt lat="39.1938" lon="-120.21816000000001"/><trkpt lat="39.19368" lon="-120.21782999999999"/><trkpt lat="39.19356" lon="-120.21776"/><trkpt lat="39.19348" lon="-120.21776"/><trkpt lat="39.19339" lon="-120.21771000000001"/><trkpt lat="39.19334" lon="-120.21746999999999"/><trkpt lat="39.19335" lon="-120.21726000000001"/><trkpt lat="39.19342" lon="-120.21692000000002"/><trkpt lat="39.19346" lon="-120.21685000000002"/><trkpt lat="39.19384" lon="-120.21654000000001"/><trkpt lat="39.19389" lon="-120.21644000000003"/><trkpt lat="39.19405" lon="-120.21634"/><trkpt lat="39.19409" lon="-120.21629000000001"/><trkpt lat="39.19414" lon="-120.21614"/><trkpt lat="39.19419" lon="-120.21593999999999"/><trkpt lat="39.19415" lon="-120.2156"/><trkpt lat="39.19417" lon="-120.21528999999998"/><trkpt lat="39.19417" lon="-120.21528999999998"/><trkpt lat="39.19416" lon="-120.21515"/><trkpt lat="39.19449" lon="-120.21499"/><trkpt lat="39.19468" lon="-120.21500000000003"/><trkpt lat="39.1948" lon="-120.21503999999999"/><trkpt lat="39.19501" lon="-120.21499"/><trkpt lat="39.19517" lon="-120.2149"/><trkpt lat="39.19536" lon="-120.21473000000003"/><trkpt lat="39.19559" lon="-120.21443999999997"/><trkpt lat="39.19584" lon="-120.21429999999998"/><trkpt lat="39.19589" lon="-120.21424000000002"/><trkpt lat="39.19589" lon="-120.21424000000002"/><trkpt lat="39.19595" lon="-120.21406999999999"/><trkpt lat="39.19618" lon="-120.21395000000001"/><trkpt lat="39.19618" lon="-120.21395000000001"/><trkpt lat="39.19662" lon="-120.21337"/><trkpt lat="39.19668" lon="-120.21323000000001"/><trkpt lat="39.19673" lon="-120.21305000000001"/><trkpt lat="39.19673" lon="-120.21289000000002"/><trkpt lat="39.19678" lon="-120.21260000000001"/><trkpt lat="39.19676" lon="-120.2124"/><trkpt lat="39.19676" lon="-120.2124"/><trkpt lat="39.19672" lon="-120.21213999999998"/><trkpt lat="39.19659" lon="-120.21190000000001"/><trkpt lat="39.19656" lon="-120.21179000000001"/><trkpt lat="39.19657" lon="-120.21132"/><trkpt lat="39.19664" lon="-120.21102000000002"/><trkpt lat="39.19672" lon="-120.21089"/><trkpt lat="39.197" lon="-120.21060999999997"/><trkpt lat="39.19716" lon="-120.21032000000002"/><trkpt lat="39.19737" lon="-120.21001000000001"/><trkpt lat="39.19763" lon="-120.20940000000002"/><trkpt lat="39.19778" lon="-120.20913999999999"/><trkpt lat="39.19799" lon="-120.20865000000003"/><trkpt lat="39.19821" lon="-120.20837"/><trkpt lat="39.19821" lon="-120.20837"/><trkpt lat="39.1984" lon="-120.20814000000001"/><trkpt lat="39.19869" lon="-120.20794999999998"/><trkpt lat="39.19905" lon="-120.20762000000002"/><trkpt lat="39.19948" lon="-120.20731"/><trkpt lat="39.19973" lon="-120.20704"/><trkpt lat="39.19973" lon="-120.20704"/><trkpt lat="39.19976" lon="-120.20688000000001"/><trkpt lat="39.19975" lon="-120.20663000000002"/><trkpt lat="39.19969" lon="-120.20643000000001"/><trkpt lat="39.19971" lon="-120.20637999999997"/><trkpt lat="39.19977" lon="-120.20641"/><trkpt lat="39.20009" lon="-120.20676000000003"/><trkpt lat="39.20031" lon="-120.20690000000002"/><trkpt lat="39.20047" lon="-120.20704999999998"/><trkpt lat="39.20053" lon="-120.20713"/><trkpt lat="39.20056" lon="-120.20713"/><trkpt lat="39.20058" lon="-120.20706999999999"/><trkpt lat="39.20056" lon="-120.20699000000002"/><trkpt lat="39.20046" lon="-120.20664"/><trkpt lat="39.20054" lon="-120.20591999999999"/><trkpt lat="39.2007" lon="-120.20550000000003"/><trkpt lat="39.20087" lon="-120.20523000000003"/><trkpt lat="39.20092" lon="-120.20506"/><trkpt lat="39.200936744568054" lon="-120.20490372213612"/><trkpt lat="39.20093851105694" lon="-120.2048872354099"/><trkpt lat="39.20095" lon="-120.20478000000003"/><trkpt lat="39.20095" lon="-120.20478000000003"/><trkpt lat="39.20077" lon="-120.20481999999998"/><trkpt lat="39.20063" lon="-120.20488999999998"/><trkpt lat="39.20037" lon="-120.20496000000003"/><trkpt lat="39.20022" lon="-120.20505000000003"/><trkpt lat="39.20003" lon="-120.20510999999999"/><trkpt lat="39.19985" lon="-120.20514000000003"/><trkpt lat="39.19942" lon="-120.20515999999998"/><trkpt lat="39.19877265077038" lon="-120.20537380341528"/><trkpt lat="39.19876571056685" lon="-120.20537609559261"/><trkpt lat="39.19833" lon="-120.20551999999998"/><trkpt lat="39.19821" lon="-120.20553999999998"/><trkpt lat="39.19821" lon="-120.20553999999998"/><trkpt lat="39.1981" lon="-120.20555999999999"/><trkpt lat="39.19795" lon="-120.20551999999998"/><trkpt lat="39.19783" lon="-120.2054"/><trkpt lat="39.19765" lon="-120.20501000000002"/><trkpt lat="39.19741" lon="-120.20481000000001"/><trkpt lat="39.19723" lon="-120.20475999999996"/><trkpt lat="39.19697" lon="-120.20477"/><trkpt lat="39.19685" lon="-120.20472999999998"/><trkpt lat="39.19685" lon="-120.20472999999998"/><trkpt lat="39.19659" lon="-120.20472999999998"/><trkpt lat="39.19644" lon="-120.20475999999996"/><trkpt lat="39.19574" lon="-120.20537000000002"/><trkpt lat="39.19524" lon="-120.20569"/><trkpt lat="39.19511" lon="-120.20583999999997"/><trkpt lat="39.19491" lon="-120.20614999999998"/><trkpt lat="39.1948" lon="-120.20625999999999"/><trkpt lat="39.19472" lon="-120.20631000000003"/><trkpt lat="39.19447" lon="-120.20637999999997"/><trkpt lat="39.19429" lon="-120.20646999999997"/><trkpt lat="39.19413" lon="-120.20658000000003"/><trkpt lat="39.19383" lon="-120.20684"/><trkpt lat="39.1933" lon="-120.20711"/><trkpt lat="39.19311" lon="-120.20727999999997"/><trkpt lat="39.19298" lon="-120.20744000000002"/><trkpt lat="39.19256" lon="-120.20763999999997"/><trkpt lat="39.19242" lon="-120.20774"/><trkpt lat="39.19229" lon="-120.20787000000001"/><trkpt lat="39.19218" lon="-120.20803000000001"/><trkpt lat="39.1919" lon="-120.20864"/><trkpt lat="39.1919" lon="-120.20864"/><trkpt lat="39.19178" lon="-120.20920000000001"/><trkpt lat="39.19146" lon="-120.21021000000002"/><trkpt lat="39.19133" lon="-120.21071"/><trkpt lat="39.19092" lon="-120.21159"/><trkpt lat="39.19076" lon="-120.21203000000003"/><trkpt lat="39.19069" lon="-120.2124"/><trkpt lat="39.19069" lon="-120.2124"/><trkpt lat="39.1907" lon="-120.21253000000002"/><trkpt lat="39.19077" lon="-120.21276"/><trkpt lat="39.19077" lon="-120.21296000000001"/><trkpt lat="39.19077" lon="-120.21296000000001"/><trkpt lat="39.19046871328792" lon="-120.2133055935815"/><trkpt lat="39.19046871328792" lon="-120.2133055935815"/><trkpt lat="39.19043" lon="-120.21334999999999"/><trkpt lat="39.19043" lon="-120.21334999999999"/><trkpt lat="39.19035" lon="-120.21371999999997"/><trkpt lat="39.1903" lon="-120.21415999999999"/><trkpt lat="39.1903" lon="-120.21438999999998"/><trkpt lat="39.19037" lon="-120.21467000000001"/><trkpt lat="39.19038" lon="-120.21501999999998"/><trkpt lat="39.19053" lon="-120.21542999999997"/><trkpt lat="39.19064" lon="-120.21557999999999"/><trkpt lat="39.19088" lon="-120.21578"/><trkpt lat="39.19098" lon="-120.21589"/><trkpt lat="39.19137" lon="-120.21668999999997"/><trkpt lat="39.19162" lon="-120.21701999999999"/><trkpt lat="39.19172" lon="-120.21721000000002"/><trkpt lat="39.19183" lon="-120.21733999999998"/><trkpt lat="39.191885320153595" lon="-120.21735106403071"/><trkpt lat="39.191935962761484" lon="-120.21738052368164"/><trkpt lat="39.192020574916654" lon="-120.2174979596179"/><trkpt lat="39.192005" lon="-120.21749999999997"/><trkpt lat="39.191967" lon="-120.21773000000002"/><trkpt lat="39.191727" lon="-120.21802500000001"/><trkpt lat="39.19137" lon="-120.21829000000002"/><trkpt lat="39.190662" lon="-120.21866999999997"/><trkpt lat="39.18975" lon="-120.21906999999999"/><trkpt lat="39.189617" lon="-120.21918499999998"/><trkpt lat="39.189278" lon="-120.21958999999998"/><trkpt lat="39.18918" lon="-120.21989000000002"/><trkpt lat="39.189137" lon="-120.22033999999996"/><trkpt lat="39.18908" lon="-120.22066999999998"/><trkpt lat="39.18909" lon="-120.22134399999999"/><trkpt lat="39.18904" lon="-120.22153500000002"/><trkpt lat="39.18889" lon="-120.22194000000002"/><trkpt lat="39.18876" lon="-120.222374"/><trkpt lat="39.18869" lon="-120.222755"/><trkpt lat="39.188644" lon="-120.22288000000003"/><trkpt lat="39.188602" lon="-120.22294999999997"/><trkpt lat="39.188484" lon="-120.22300000000001"/><trkpt lat="39.188404" lon="-120.22296"/><trkpt lat="39.1883" lon="-120.22307599999999"/><trkpt lat="39.188313" lon="-120.22312"/><trkpt lat="39.1883" lon="-120.223206"/><trkpt lat="39.188232" lon="-120.22342000000003"/><trkpt lat="39.188015" lon="-120.22378000000003"/><trkpt lat="39.187798" lon="-120.22420999999997"/><trkpt lat="39.18774" lon="-120.22451999999998"/><trkpt lat="39.187763" lon="-120.22489000000002"/><trkpt lat="39.188084" lon="-120.22631000000001"/><trkpt lat="39.18833" lon="-120.22685999999999"/><trkpt lat="39.188335" lon="-120.22705000000002"/><trkpt lat="39.188297" lon="-120.22766999999999"/><trkpt lat="39.188236" lon="-120.22797000000003"/><trkpt lat="39.18819" lon="-120.22809000000001"/><trkpt lat="39.188137" lon="-120.22829999999999"/><trkpt lat="39.1881" lon="-120.22854999999998"/><trkpt lat="39.188076" lon="-120.22928999999999"/><trkpt lat="39.188087" lon="-120.22970599999996"/><trkpt lat="39.188118" lon="-120.22983999999997"/><trkpt lat="39.188267" lon="-120.23012499999999"/><trkpt lat="39.18829661830537" lon="-120.23016392149101"/><trkpt lat="39.18829661830537" lon="-120.23016392149101"/><trkpt lat="39.188423" lon="-120.23032999999998"/><trkpt lat="39.18865" lon="-120.23055"/><trkpt lat="39.188736" lon="-120.23077"/><trkpt lat="39.18872" lon="-120.23109999999997"/><trkpt lat="39.188656" lon="-120.23142999999999"/><trkpt lat="39.188698" lon="-120.23162000000002"/><trkpt lat="39.18887" lon="-120.23171000000002"/><trkpt lat="39.18919" lon="-120.23147"/><trkpt lat="39.18933" lon="-120.23130000000003"/><trkpt lat="39.18953" lon="-120.23118599999998"/><trkpt lat="39.189674" lon="-120.23113000000001"/><trkpt lat="39.18977" lon="-120.23118599999998"/><trkpt lat="39.189842" lon="-120.23135000000002"/><trkpt lat="39.189857" lon="-120.23154399999999"/><trkpt lat="39.18981" lon="-120.23172"/><trkpt lat="39.189728" lon="-120.23189500000001"/><trkpt lat="39.189507" lon="-120.23230000000001"/><trkpt lat="39.189285" lon="-120.23262"/><trkpt lat="39.188976" lon="-120.23284999999998"/><trkpt lat="39.188103" lon="-120.23336999999998"/><trkpt lat="39.187855" lon="-120.23360000000002"/><trkpt lat="39.18753" lon="-120.23402399999998"/><trkpt lat="39.18736" lon="-120.23417999999998"/><trkpt lat="39.187176" lon="-120.23439000000002"/><trkpt lat="39.18706" lon="-120.23448000000002"/><trkpt lat="39.186867" lon="-120.23471"/><trkpt lat="39.18634" lon="-120.23511500000001"/><trkpt lat="39.186275" lon="-120.23522000000003"/><trkpt lat="39.1862" lon="-120.23552000000001"/><trkpt lat="39.186253" lon="-120.23570000000001"/><trkpt lat="39.18633" lon="-120.23579999999998"/><trkpt lat="39.186443" lon="-120.23590000000002"/><trkpt lat="39.18672" lon="-120.23595999999998"/><trkpt lat="39.187004" lon="-120.23590999999999"/><trkpt lat="39.1872" lon="-120.23583000000002"/><trkpt lat="39.187454" lon="-120.23569500000002"/><trkpt lat="39.18788" lon="-120.23540000000003"/><trkpt lat="39.188374" lon="-120.23500999999999"/><trkpt lat="39.18844849096781" lon="-120.23497435838861"/><trkpt lat="39.18855188649448" lon="-120.23507438654869"/><trkpt lat="39.18855752830557" lon="-120.23508007837435"/><trkpt lat="39.1884" lon="-120.23534"/><trkpt lat="39.18836" lon="-120.23548"/><trkpt lat="39.18836" lon="-120.23575"/><trkpt lat="39.18839" lon="-120.23588"/><trkpt lat="39.18846" lon="-120.23594"/><trkpt lat="39.18853" lon="-120.23598"/><trkpt lat="39.18887" lon="-120.23595"/><trkpt lat="39.18908" lon="-120.23601"/><trkpt lat="39.18908" lon="-120.23601"/><trkpt lat="39.18908" lon="-120.23601"/><trkpt lat="39.18977" lon="-120.23598"/><trkpt lat="39.19048" lon="-120.23604"/><trkpt lat="39.19078" lon="-120.23613"/><trkpt lat="39.191060088398594" lon="-120.23616890116648"/><trkpt lat="39.191060088398594" lon="-120.23616890116648"/><trkpt lat="39.19114" lon="-120.23618"/><trkpt lat="39.19127" lon="-120.23626"/><trkpt lat="39.19139" lon="-120.23642"/><trkpt lat="39.19145" lon="-120.23661"/><trkpt lat="39.19146" lon="-120.23682"/><trkpt lat="39.19139" lon="-120.23718"/><trkpt lat="39.19136239889511" lon="-120.23728833433668"/><trkpt lat="39.19136162887794" lon="-120.23729135694866"/><trkpt lat="39.19099" lon="-120.23875"/><trkpt lat="39.19094" lon="-120.23909"/><trkpt lat="39.19094" lon="-120.23933"/><trkpt lat="39.19096" lon="-120.23951"/><trkpt lat="39.19103" lon="-120.23961"/><trkpt lat="39.19115" lon="-120.23962"/><trkpt lat="39.19127" lon="-120.23954"/><trkpt lat="39.19207" lon="-120.23859"/><trkpt lat="39.19286" lon="-120.23796"/><trkpt lat="39.19285220344848" lon="-120.23796621690335"/><trkpt lat="39.19295" lon="-120.23783"/><trkpt lat="39.19307" lon="-120.23774"/><trkpt lat="39.19318" lon="-120.23782"/><trkpt lat="39.19322" lon="-120.23794"/><trkpt lat="39.19321" lon="-120.23852"/><trkpt lat="39.19317449463406" lon="-120.23869160926871"/><trkpt lat="39.19317449463406" lon="-120.23869160926871"/><trkpt lat="39.19309" lon="-120.2391"/><trkpt lat="39.19309" lon="-120.23926"/><trkpt lat="39.19312" lon="-120.23931"/><trkpt lat="39.19312" lon="-120.23931"/><trkpt lat="39.19319" lon="-120.23945"/><trkpt lat="39.19328" lon="-120.23948"/><trkpt lat="39.19342" lon="-120.23946"/><trkpt lat="39.19349" lon="-120.2394"/><trkpt lat="39.19357" lon="-120.23919"/><trkpt lat="39.19372" lon="-120.23896"/><trkpt lat="39.19386" lon="-120.23881"/><trkpt lat="39.19421" lon="-120.23854"/><trkpt lat="39.19432" lon="-120.23839"/><trkpt lat="39.19436" lon="-120.23825"/><trkpt lat="39.19434" lon="-120.23779"/><trkpt lat="39.19431" lon="-120.23768"/><trkpt lat="39.19433" lon="-120.23739"/><trkpt lat="39.19467" lon="-120.23677"/><trkpt lat="39.19479" lon="-120.23646"/><trkpt lat="39.19491" lon="-120.23633"/><trkpt lat="39.19498" lon="-120.23631"/><trkpt lat="39.19498" lon="-120.23631"/><trkpt lat="39.19519" lon="-120.23624"/><trkpt lat="39.1953" lon="-120.23617"/><trkpt lat="39.195347050564685" lon="-120.23608262037988"/><trkpt lat="39.19590243582256" lon="-120.23566447253197"/></trkseg></trk></gpx>