<?xml version="1.0" encoding="UTF-8"?>
<gpx creator="Wikiloc - https://www.wikiloc.com" version="1.1" xmlns="http://www.topografix.com/GPX/1/1" xmlns:xsi="http://www.w3.org/2001/XMLSchema-instance" xsi:schemaLocation="http://www.topografix.com/GPX/1/1 http://www.topografix.com/GPX/1/1/gpx.xsd">
  <metadata>
    <name>Wikiloc - UTLAC LAGO COMO ULTRA TRAIL 30km</name>
    <link href="https://www.wikiloc.com/trail-running-trails/bellagio-madonna-del-ghisallo-rifugio-sev-bocchetta-di-morregge-lecco-170577186">
      <text>UTLAC LAGO COMO ULTRA TRAIL 30km - Wikiloc on Wikiloc</text>
    </link>
    <time>2024-05-12T14:52:13.078Z</time>
  </metadata>
  <trk>
    <name>UTLAC LAGO COMO ULTRA TRAIL 30km - Wikiloc</name>
    <cmt></cmt>
    <desc></desc>
    <trkseg>
      <trkpt lat="45.987870" lon="9.260506">
        <ele>192.464</ele>
        <time>2024-05-12T07:14:36.999Z</time>
      </trkpt>
      <trkpt lat="45.987099" lon="9.260549">
        <ele>192.006</ele>
        <time>2024-05-12T07:16:14.999Z</time>
      </trkpt>
      <trkpt lat="45.986597" lon="9.260781">
        <ele>192.616</ele>
        <time>2024-05-12T07:16:41.999Z</time>
      </trkpt>
      <trkpt lat="45.986653" lon="9.262298">
        <ele>210.909</ele>
        <time>2024-05-12T07:18:43.999Z</time>
      </trkpt>
      <trkpt lat="45.986313" lon="9.262443">
        <ele>216.037</ele>
        <time>2024-05-12T07:19:04.999Z</time>
      </trkpt>
      <trkpt lat="45.985488" lon="9.262467">
        <ele>217.813</ele>
        <time>2024-05-12T07:19:43.999Z</time>
      </trkpt>
      <trkpt lat="45.984879" lon="9.262215">
        <ele>218.616</ele>
        <time>2024-05-12T07:20:14.999Z</time>
      </trkpt>
      <trkpt lat="45.984129" lon="9.261646">
        <ele>222.571</ele>
        <time>2024-05-12T07:21:13.999Z</time>
      </trkpt>
      <trkpt lat="45.983506" lon="9.261847">
        <ele>226.843</ele>
        <time>2024-05-12T07:21:51.999Z</time>
      </trkpt>
      <trkpt lat="45.982864" lon="9.261621">
        <ele>226.213</ele>
        <time>2024-05-12T07:22:18.999Z</time>
      </trkpt>
      <trkpt lat="45.982005" lon="9.261584">
        <ele>225.777</ele>
        <time>2024-05-12T07:22:59.999Z</time>
      </trkpt>
      <trkpt lat="45.981563" lon="9.261352">
        <ele>225.054</ele>
        <time>2024-05-12T07:23:20.999Z</time>
      </trkpt>
      <trkpt lat="45.979305" lon="9.262158">
        <ele>245.272</ele>
        <time>2024-05-12T07:26:03.999Z</time>
      </trkpt>
      <trkpt lat="45.978249" lon="9.261124">
        <ele>243.813</ele>
        <time>2024-05-12T07:27:14.999Z</time>
      </trkpt>
      <trkpt lat="45.977666" lon="9.260260">
        <ele>238.843</ele>
        <time>2024-05-12T07:27:53.999Z</time>
      </trkpt>
      <trkpt lat="45.976722" lon="9.259990">
        <ele>234.007</ele>
        <time>2024-05-12T07:28:34.999Z</time>
      </trkpt>
      <trkpt lat="45.976821" lon="9.258153">
        <ele>229.809</ele>
        <time>2024-05-12T07:29:31Z</time>
      </trkpt>
      <trkpt lat="45.976658" lon="9.257688">
        <ele>228.322</ele>
        <time>2024-05-12T07:29:49Z</time>
      </trkpt>
      <trkpt lat="45.975713" lon="9.256881">
        <ele>235.918</ele>
        <time>2024-05-12T07:31:10.001Z</time>
      </trkpt>
      <trkpt lat="45.975511" lon="9.256024">
        <ele>241.641</ele>
        <time>2024-05-12T07:31:57.001Z</time>
      </trkpt>
      <trkpt lat="45.975570" lon="9.255754">
        <ele>244.676</ele>
        <time>2024-05-12T07:32:16.001Z</time>
      </trkpt>
      <trkpt lat="45.975395" lon="9.255688">
        <ele>249.068</ele>
        <time>2024-05-12T07:32:48.001Z</time>
      </trkpt>
      <trkpt lat="45.975385" lon="9.255421">
        <ele>254.998</ele>
        <time>2024-05-12T07:33:16.002Z</time>
      </trkpt>
      <trkpt lat="45.975014" lon="9.255276">
        <ele>265.132</ele>
        <time>2024-05-12T07:34:08.002Z</time>
      </trkpt>
      <trkpt lat="45.974382" lon="9.254202">
        <ele>278.659</ele>
        <time>2024-05-12T07:35:52.003Z</time>
      </trkpt>
      <trkpt lat="45.974091" lon="9.254178">
        <ele>280.827</ele>
        <time>2024-05-12T07:36:16.003Z</time>
      </trkpt>
      <trkpt lat="45.973562" lon="9.254594">
        <ele>282.322</ele>
        <time>2024-05-12T07:36:52.003Z</time>
      </trkpt>
      <trkpt lat="45.972673" lon="9.254317">
        <ele>288.362</ele>
        <time>2024-05-12T07:37:54.004Z</time>
      </trkpt>
      <trkpt lat="45.972468" lon="9.254420">
        <ele>290.808</ele>
        <time>2024-05-12T07:38:10.004Z</time>
      </trkpt>
      <trkpt lat="45.972020" lon="9.256301">
        <ele>297.309</ele>
        <time>2024-05-12T07:39:43.005Z</time>
      </trkpt>
      <trkpt lat="45.971504" lon="9.256928">
        <ele>299.863</ele>
        <time>2024-05-12T07:40:27.005Z</time>
      </trkpt>
      <trkpt lat="45.971002" lon="9.257029">
        <ele>301.899</ele>
        <time>2024-05-12T07:41:00.005Z</time>
      </trkpt>
      <trkpt lat="45.970286" lon="9.258239">
        <ele>304.382</ele>
        <time>2024-05-12T07:41:58.006Z</time>
      </trkpt>
      <trkpt lat="45.970051" lon="9.258063">
        <ele>305.617</ele>
        <time>2024-05-12T07:42:14.006Z</time>
      </trkpt>
      <trkpt lat="45.970097" lon="9.257482">
        <ele>308.939</ele>
        <time>2024-05-12T07:42:47.006Z</time>
      </trkpt>
      <trkpt lat="45.969332" lon="9.257369">
        <ele>332.269</ele>
        <time>2024-05-12T07:45:07.007Z</time>
      </trkpt>
      <trkpt lat="45.969203" lon="9.257173">
        <ele>338.573</ele>
        <time>2024-05-12T07:45:36.007Z</time>
      </trkpt>
      <trkpt lat="45.968859" lon="9.257252">
        <ele>345.170</ele>
        <time>2024-05-12T07:46:18.008Z</time>
      </trkpt>
      <trkpt lat="45.968575" lon="9.257766">
        <ele>357.058</ele>
        <time>2024-05-12T07:47:47.009Z</time>
      </trkpt>
      <trkpt lat="45.968359" lon="9.257671">
        <ele>367.651</ele>
        <time>2024-05-12T07:49:05.009Z</time>
      </trkpt>
      <trkpt lat="45.968149" lon="9.257827">
        <ele>379.101</ele>
        <time>2024-05-12T07:50:16.010Z</time>
      </trkpt>
      <trkpt lat="45.967710" lon="9.258279">
        <ele>398.011</ele>
        <time>2024-05-12T07:52:15.011Z</time>
      </trkpt>
      <trkpt lat="45.967787" lon="9.259249">
        <ele>424.409</ele>
        <time>2024-05-12T07:54:54.012Z</time>
      </trkpt>
      <trkpt lat="45.967602" lon="9.260144">
        <ele>438.716</ele>
        <time>2024-05-12T07:56:53.013Z</time>
      </trkpt>
      <trkpt lat="45.967614" lon="9.260889">
        <ele>443.052</ele>
        <time>2024-05-12T07:57:51.013Z</time>
      </trkpt>
      <trkpt lat="45.967268" lon="9.261677">
        <ele>453.835</ele>
        <time>2024-05-12T07:59:09.014Z</time>
      </trkpt>
      <trkpt lat="45.967021" lon="9.261590">
        <ele>465.020</ele>
        <time>2024-05-12T08:00:30.015Z</time>
      </trkpt>
      <trkpt lat="45.966993" lon="9.261409">
        <ele>469.722</ele>
        <time>2024-05-12T08:01:02.015Z</time>
      </trkpt>
      <trkpt lat="45.966801" lon="9.261406">
        <ele>476.082</ele>
        <time>2024-05-12T08:01:40.015Z</time>
      </trkpt>
      <trkpt lat="45.966343" lon="9.261800">
        <ele>485.436</ele>
        <time>2024-05-12T08:02:39.016Z</time>
      </trkpt>
      <trkpt lat="45.965756" lon="9.262629">
        <ele>494.523</ele>
        <time>2024-05-12T08:04:12.016Z</time>
      </trkpt>
      <trkpt lat="45.965285" lon="9.262914">
        <ele>502.821</ele>
        <time>2024-05-12T08:05:27.017Z</time>
      </trkpt>
      <trkpt lat="45.961855" lon="9.260488">
        <ele>535.681</ele>
        <time>2024-05-12T08:11:42.020Z</time>
      </trkpt>
      <trkpt lat="45.961022" lon="9.259502">
        <ele>551.161</ele>
        <time>2024-05-12T08:13:33.021Z</time>
      </trkpt>
      <trkpt lat="45.960405" lon="9.259159">
        <ele>550.017</ele>
        <time>2024-05-12T08:14:22.021Z</time>
      </trkpt>
      <trkpt lat="45.959478" lon="9.259008">
        <ele>533.609</ele>
        <time>2024-05-12T08:15:44.022Z</time>
      </trkpt>
      <trkpt lat="45.959080" lon="9.258746">
        <ele>530.799</ele>
        <time>2024-05-12T08:16:27.022Z</time>
      </trkpt>
      <trkpt lat="45.957877" lon="9.258963">
        <ele>545.055</ele>
        <time>2024-05-12T08:18:17.023Z</time>
      </trkpt>
      <trkpt lat="45.956878" lon="9.258749">
        <ele>549.378</ele>
        <time>2024-05-12T08:20:04.024Z</time>
      </trkpt>
      <trkpt lat="45.956408" lon="9.259055">
        <ele>544.053</ele>
        <time>2024-05-12T08:20:38.024Z</time>
      </trkpt>
      <trkpt lat="45.956241" lon="9.258875">
        <ele>540.115</ele>
        <time>2024-05-12T08:20:54.024Z</time>
      </trkpt>
      <trkpt lat="45.955774" lon="9.259319">
        <ele>543.515</ele>
        <time>2024-05-12T08:21:48.025Z</time>
      </trkpt>
      <trkpt lat="45.954674" lon="9.260952">
        <ele>557.519</ele>
        <time>2024-05-12T08:24:33.026Z</time>
      </trkpt>
      <trkpt lat="45.953952" lon="9.261561">
        <ele>572.636</ele>
        <time>2024-05-12T08:26:10.027Z</time>
      </trkpt>
      <trkpt lat="45.953480" lon="9.262187">
        <ele>576.834</ele>
        <time>2024-05-12T08:27:06.027Z</time>
      </trkpt>
      <trkpt lat="45.952764" lon="9.263618">
        <ele>600.451</ele>
        <time>2024-05-12T08:29:55.029Z</time>
      </trkpt>
      <trkpt lat="45.952273" lon="9.264263">
        <ele>608.901</ele>
        <time>2024-05-12T08:31:09.029Z</time>
      </trkpt>
      <trkpt lat="45.951812" lon="9.264431">
        <ele>612.111</ele>
        <time>2024-05-12T08:31:53.030Z</time>
      </trkpt>
      <trkpt lat="45.950883" lon="9.265569">
        <ele>610.709</ele>
        <time>2024-05-12T08:33:19.030Z</time>
      </trkpt>
      <trkpt lat="45.950532" lon="9.265495">
        <ele>606.846</ele>
        <time>2024-05-12T08:33:39.030Z</time>
      </trkpt>
      <trkpt lat="45.950428" lon="9.264883">
        <ele>608.042</ele>
        <time>2024-05-12T08:34:07.031Z</time>
      </trkpt>
      <trkpt lat="45.949955" lon="9.264953">
        <ele>609.445</ele>
        <time>2024-05-12T08:34:40.031Z</time>
      </trkpt>
      <trkpt lat="45.949784" lon="9.264820">
        <ele>610.620</ele>
        <time>2024-05-12T08:34:53.031Z</time>
      </trkpt>
      <trkpt lat="45.949353" lon="9.264101">
        <ele>599.362</ele>
        <time>2024-05-12T08:35:44.031Z</time>
      </trkpt>
      <trkpt lat="45.949322" lon="9.264628">
        <ele>591.852</ele>
        <time>2024-05-12T08:36:06.031Z</time>
      </trkpt>
      <trkpt lat="45.948611" lon="9.266214">
        <ele>577.466</ele>
        <time>2024-05-12T08:37:03.031Z</time>
      </trkpt>
      <trkpt lat="45.948300" lon="9.267864">
        <ele>570.083</ele>
        <time>2024-05-12T08:38:14.031Z</time>
      </trkpt>
      <trkpt lat="45.948093" lon="9.268237">
        <ele>582.481</ele>
        <time>2024-05-12T08:39:27.031Z</time>
      </trkpt>
      <trkpt lat="45.947792" lon="9.268439">
        <ele>589.813</ele>
        <time>2024-05-12T08:40:09.031Z</time>
      </trkpt>
      <trkpt lat="45.948099" lon="9.268642">
        <ele>592.343</ele>
        <time>2024-05-12T08:40:37.032Z</time>
      </trkpt>
      <trkpt lat="45.948096" lon="9.269566">
        <ele>593.707</ele>
        <time>2024-05-12T08:41:25.032Z</time>
      </trkpt>
      <trkpt lat="45.946974" lon="9.271285">
        <ele>585.409</ele>
        <time>2024-05-12T08:42:57.032Z</time>
      </trkpt>
      <trkpt lat="45.946947" lon="9.271558">
        <ele>583.562</ele>
        <time>2024-05-12T08:43:09.032Z</time>
      </trkpt>
      <trkpt lat="45.946764" lon="9.271522">
        <ele>578.758</ele>
        <time>2024-05-12T08:43:18.032Z</time>
      </trkpt>
      <trkpt lat="45.946196" lon="9.271800">
        <ele>579.641</ele>
        <time>2024-05-12T08:44:20.032Z</time>
      </trkpt>
      <trkpt lat="45.945945" lon="9.271626">
        <ele>587.546</ele>
        <time>2024-05-12T08:45:09.032Z</time>
      </trkpt>
      <trkpt lat="45.945640" lon="9.272008">
        <ele>583.798</ele>
        <time>2024-05-12T08:45:44.032Z</time>
      </trkpt>
      <trkpt lat="45.945335" lon="9.271768">
        <ele>578.448</ele>
        <time>2024-05-12T08:46:14.032Z</time>
      </trkpt>
      <trkpt lat="45.944991" lon="9.271814">
        <ele>586.572</ele>
        <time>2024-05-12T08:46:54.032Z</time>
      </trkpt>
      <trkpt lat="45.944679" lon="9.271977">
        <ele>585.469</ele>
        <time>2024-05-12T08:47:29.032Z</time>
      </trkpt>
      <trkpt lat="45.943973" lon="9.272882">
        <ele>588.677</ele>
        <time>2024-05-12T08:48:50.032Z</time>
      </trkpt>
      <trkpt lat="45.943745" lon="9.272997">
        <ele>590.144</ele>
        <time>2024-05-12T08:49:13.032Z</time>
      </trkpt>
      <trkpt lat="45.943270" lon="9.272687">
        <ele>592.205</ele>
        <time>2024-05-12T08:50:01.032Z</time>
      </trkpt>
      <trkpt lat="45.943110" lon="9.272125">
        <ele>596.615</ele>
        <time>2024-05-12T08:50:49.033Z</time>
      </trkpt>
      <trkpt lat="45.942922" lon="9.272444">
        <ele>602.309</ele>
        <time>2024-05-12T08:51:25.033Z</time>
      </trkpt>
      <trkpt lat="45.942506" lon="9.272617">
        <ele>612.095</ele>
        <time>2024-05-12T08:52:34.033Z</time>
      </trkpt>
      <trkpt lat="45.942068" lon="9.272442">
        <ele>617.921</ele>
        <time>2024-05-12T08:53:20.034Z</time>
      </trkpt>
      <trkpt lat="45.941450" lon="9.272796">
        <ele>617.374</ele>
        <time>2024-05-12T08:54:09.034Z</time>
      </trkpt>
      <trkpt lat="45.940977" lon="9.273297">
        <ele>619.279</ele>
        <time>2024-05-12T08:54:36.034Z</time>
      </trkpt>
      <trkpt lat="45.940218" lon="9.273550">
        <ele>627.181</ele>
        <time>2024-05-12T08:55:39.035Z</time>
      </trkpt>
      <trkpt lat="45.939957" lon="9.273856">
        <ele>628.181</ele>
        <time>2024-05-12T08:56:05.035Z</time>
      </trkpt>
      <trkpt lat="45.939597" lon="9.273711">
        <ele>627.825</ele>
        <time>2024-05-12T08:56:28.035Z</time>
      </trkpt>
      <trkpt lat="45.939394" lon="9.273227">
        <ele>625.882</ele>
        <time>2024-05-12T08:56:55.035Z</time>
      </trkpt>
      <trkpt lat="45.938812" lon="9.272969">
        <ele>623.330</ele>
        <time>2024-05-12T08:57:33.035Z</time>
      </trkpt>
      <trkpt lat="45.938565" lon="9.273180">
        <ele>622.795</ele>
        <time>2024-05-12T08:57:48.035Z</time>
      </trkpt>
      <trkpt lat="45.937777" lon="9.272942">
        <ele>612.849</ele>
        <time>2024-05-12T08:58:26.035Z</time>
      </trkpt>
      <trkpt lat="45.937299" lon="9.273637">
        <ele>610.823</ele>
        <time>2024-05-12T08:59:00.035Z</time>
      </trkpt>
      <trkpt lat="45.936693" lon="9.273294">
        <ele>614.209</ele>
        <time>2024-05-12T08:59:52.035Z</time>
      </trkpt>
      <trkpt lat="45.936198" lon="9.272378">
        <ele>610.170</ele>
        <time>2024-05-12T09:00:38.035Z</time>
      </trkpt>
      <trkpt lat="45.936425" lon="9.271599">
        <ele>615.976</ele>
        <time>2024-05-12T09:01:21.035Z</time>
      </trkpt>
      <trkpt lat="45.936449" lon="9.270887">
        <ele>623.429</ele>
        <time>2024-05-12T09:02:09.035Z</time>
      </trkpt>
      <trkpt lat="45.936082" lon="9.270059">
        <ele>627.164</ele>
        <time>2024-05-12T09:03:07.035Z</time>
      </trkpt>
      <trkpt lat="45.935714" lon="9.269708">
        <ele>623.736</ele>
        <time>2024-05-12T09:03:31.035Z</time>
      </trkpt>
      <trkpt lat="45.935502" lon="9.269779">
        <ele>621.846</ele>
        <time>2024-05-12T09:03:41.035Z</time>
      </trkpt>
      <trkpt lat="45.935420" lon="9.268806">
        <ele>632.440</ele>
        <time>2024-05-12T09:05:00.035Z</time>
      </trkpt>
      <trkpt lat="45.935192" lon="9.268667">
        <ele>637.157</ele>
        <time>2024-05-12T09:05:23.035Z</time>
      </trkpt>
      <trkpt lat="45.934827" lon="9.267698">
        <ele>642.665</ele>
        <time>2024-05-12T09:06:21.034Z</time>
      </trkpt>
      <trkpt lat="45.934267" lon="9.267542">
        <ele>648.719</ele>
        <time>2024-05-12T09:07:03.034Z</time>
      </trkpt>
      <trkpt lat="45.933540" lon="9.266873">
        <ele>655.709</ele>
        <time>2024-05-12T09:08:39.034Z</time>
      </trkpt>
      <trkpt lat="45.933083" lon="9.267089">
        <ele>663.819</ele>
        <time>2024-05-12T09:09:34.034Z</time>
      </trkpt>
      <trkpt lat="45.932342" lon="9.266733">
        <ele>671.909</ele>
        <time>2024-05-12T09:11:21.034Z</time>
      </trkpt>
      <trkpt lat="45.931979" lon="9.267207">
        <ele>681.822</ele>
        <time>2024-05-12T09:12:41.034Z</time>
      </trkpt>
      <trkpt lat="45.931574" lon="9.266986">
        <ele>685.858</ele>
        <time>2024-05-12T09:13:25.034Z</time>
      </trkpt>
      <trkpt lat="45.931067" lon="9.267823">
        <ele>684.821</ele>
        <time>2024-05-12T09:14:20.034Z</time>
      </trkpt>
      <trkpt lat="45.930230" lon="9.268170">
        <ele>689.476</ele>
        <time>2024-05-12T09:15:24.034Z</time>
      </trkpt>
      <trkpt lat="45.929754" lon="9.267632">
        <ele>694.448</ele>
        <time>2024-05-12T09:16:12.034Z</time>
      </trkpt>
      <trkpt lat="45.929783" lon="9.267030">
        <ele>699.628</ele>
        <time>2024-05-12T09:16:50.034Z</time>
      </trkpt>
      <trkpt lat="45.929465" lon="9.267132">
        <ele>698.682</ele>
        <time>2024-05-12T09:17:15.034Z</time>
      </trkpt>
      <trkpt lat="45.928983" lon="9.266907">
        <ele>706.989</ele>
        <time>2024-05-12T09:18:06.034Z</time>
      </trkpt>
      <trkpt lat="45.928258" lon="9.266807">
        <ele>711.757</ele>
        <time>2024-05-12T09:19:09.034Z</time>
      </trkpt>
      <trkpt lat="45.928091" lon="9.267400">
        <ele>712.569</ele>
        <time>2024-05-12T09:19:43.034Z</time>
      </trkpt>
      <trkpt lat="45.927796" lon="9.267654">
        <ele>712.604</ele>
        <time>2024-05-12T09:20:04.034Z</time>
      </trkpt>
      <trkpt lat="45.926917" lon="9.267593">
        <ele>715.524</ele>
        <time>2024-05-12T09:21:01.034Z</time>
      </trkpt>
      <trkpt lat="45.926508" lon="9.267820">
        <ele>720.809</ele>
        <time>2024-05-12T09:21:40.034Z</time>
      </trkpt>
      <trkpt lat="45.925377" lon="9.268070">
        <ele>734.647</ele>
        <time>2024-05-12T09:23:21.034Z</time>
      </trkpt>
      <trkpt lat="45.924127" lon="9.267594">
        <ele>747.973</ele>
        <time>2024-05-12T09:25:03.034Z</time>
      </trkpt>
      <trkpt lat="45.924010" lon="9.267683">
        <ele>749.356</ele>
        <time>2024-05-12T09:25:15.034Z</time>
      </trkpt>
      <trkpt lat="45.923631" lon="9.267516">
        <ele>751.651</ele>
        <time>2024-05-12T09:29:10.034Z</time>
      </trkpt>
      <trkpt lat="45.923539" lon="9.267759">
        <ele>751.133</ele>
        <time>2024-05-12T09:29:23.034Z</time>
      </trkpt>
      <trkpt lat="45.923236" lon="9.267718">
        <ele>752.063</ele>
        <time>2024-05-12T09:29:42.034Z</time>
      </trkpt>
      <trkpt lat="45.922628" lon="9.267242">
        <ele>756.187</ele>
        <time>2024-05-12T09:30:28.034Z</time>
      </trkpt>
      <trkpt lat="45.921789" lon="9.266914">
        <ele>758.624</ele>
        <time>2024-05-12T09:31:24.034Z</time>
      </trkpt>
      <trkpt lat="45.920771" lon="9.266787">
        <ele>756.492</ele>
        <time>2024-05-12T09:32:24.034Z</time>
      </trkpt>
      <trkpt lat="45.920084" lon="9.266393">
        <ele>754.229</ele>
        <time>2024-05-12T09:33:02.034Z</time>
      </trkpt>
      <trkpt lat="45.918819" lon="9.265348">
        <ele>746.600</ele>
        <time>2024-05-12T09:34:21.034Z</time>
      </trkpt>
      <trkpt lat="45.918423" lon="9.268989">
        <ele>755.420</ele>
        <time>2024-05-12T09:37:30.034Z</time>
      </trkpt>
      <trkpt lat="45.917778" lon="9.269783">
        <ele>764.109</ele>
        <time>2024-05-12T09:38:42.034Z</time>
      </trkpt>
      <trkpt lat="45.917669" lon="9.271011">
        <ele>771.463</ele>
        <time>2024-05-12T09:39:56.034Z</time>
      </trkpt>
      <trkpt lat="45.917073" lon="9.271623">
        <ele>778.719</ele>
        <time>2024-05-12T09:41:13.035Z</time>
      </trkpt>
      <trkpt lat="45.916986" lon="9.272155">
        <ele>786.792</ele>
        <time>2024-05-12T09:42:21.035Z</time>
      </trkpt>
      <trkpt lat="45.916390" lon="9.272305">
        <ele>797.477</ele>
        <time>2024-05-12T09:43:59.035Z</time>
      </trkpt>
      <trkpt lat="45.916120" lon="9.272990">
        <ele>801.059</ele>
        <time>2024-05-12T09:44:50.035Z</time>
      </trkpt>
      <trkpt lat="45.916134" lon="9.273315">
        <ele>802.689</ele>
        <time>2024-05-12T09:45:06.035Z</time>
      </trkpt>
      <trkpt lat="45.916392" lon="9.273570">
        <ele>801.643</ele>
        <time>2024-05-12T09:45:28.036Z</time>
      </trkpt>
      <trkpt lat="45.916311" lon="9.273987">
        <ele>801.530</ele>
        <time>2024-05-12T09:45:50.036Z</time>
      </trkpt>
      <trkpt lat="45.916925" lon="9.274956">
        <ele>803.098</ele>
        <time>2024-05-12T09:46:52.036Z</time>
      </trkpt>
      <trkpt lat="45.917181" lon="9.276480">
        <ele>803.459</ele>
        <time>2024-05-12T09:48:10.037Z</time>
      </trkpt>
      <trkpt lat="45.917510" lon="9.277391">
        <ele>804.303</ele>
        <time>2024-05-12T09:48:59.037Z</time>
      </trkpt>
      <trkpt lat="45.917900" lon="9.277987">
        <ele>803.923</ele>
        <time>2024-05-12T09:49:37.038Z</time>
      </trkpt>
      <trkpt lat="45.917854" lon="9.278865">
        <ele>802.409</ele>
        <time>2024-05-12T09:50:19.038Z</time>
      </trkpt>
      <trkpt lat="45.917565" lon="9.278859">
        <ele>808.246</ele>
        <time>2024-05-12T09:51:06.038Z</time>
      </trkpt>
      <trkpt lat="45.917091" lon="9.279199">
        <ele>823.442</ele>
        <time>2024-05-12T09:53:23.038Z</time>
      </trkpt>
      <trkpt lat="45.916655" lon="9.279160">
        <ele>833.325</ele>
        <time>2024-05-12T09:54:20.038Z</time>
      </trkpt>
      <trkpt lat="45.916424" lon="9.278832">
        <ele>837.350</ele>
        <time>2024-05-12T09:55:04.038Z</time>
      </trkpt>
      <trkpt lat="45.915890" lon="9.278757">
        <ele>847.462</ele>
        <time>2024-05-12T09:56:18.038Z</time>
      </trkpt>
      <trkpt lat="45.915784" lon="9.278886">
        <ele>850.992</ele>
        <time>2024-05-12T09:56:34.038Z</time>
      </trkpt>
      <trkpt lat="45.915522" lon="9.278749">
        <ele>855.036</ele>
        <time>2024-05-12T09:57:06.038Z</time>
      </trkpt>
      <trkpt lat="45.914930" lon="9.279657">
        <ele>850.843</ele>
        <time>2024-05-12T09:58:09.038Z</time>
      </trkpt>
      <trkpt lat="45.914688" lon="9.279610">
        <ele>853.281</ele>
        <time>2024-05-12T09:58:29.038Z</time>
      </trkpt>
      <trkpt lat="45.914123" lon="9.279857">
        <ele>861.662</ele>
        <time>2024-05-12T09:59:31.038Z</time>
      </trkpt>
      <trkpt lat="45.913596" lon="9.279739">
        <ele>870.883</ele>
        <time>2024-05-12T10:00:42.038Z</time>
      </trkpt>
      <trkpt lat="45.913204" lon="9.279934">
        <ele>879.211</ele>
        <time>2024-05-12T10:01:40.038Z</time>
      </trkpt>
      <trkpt lat="45.912872" lon="9.279852">
        <ele>882.509</ele>
        <time>2024-05-12T10:02:15.039Z</time>
      </trkpt>
      <trkpt lat="45.913176" lon="9.280433">
        <ele>896.117</ele>
        <time>2024-05-12T10:04:06.039Z</time>
      </trkpt>
      <trkpt lat="45.912701" lon="9.280432">
        <ele>914.213</ele>
        <time>2024-05-12T10:05:56.039Z</time>
      </trkpt>
      <trkpt lat="45.912832" lon="9.280985">
        <ele>927.186</ele>
        <time>2024-05-12T10:07:15.040Z</time>
      </trkpt>
      <trkpt lat="45.912301" lon="9.281247">
        <ele>947.471</ele>
        <time>2024-05-12T10:09:31.041Z</time>
      </trkpt>
      <trkpt lat="45.912121" lon="9.281190">
        <ele>950.973</ele>
        <time>2024-05-12T10:09:50.041Z</time>
      </trkpt>
      <trkpt lat="45.911756" lon="9.281509">
        <ele>947.653</ele>
        <time>2024-05-12T10:10:36.042Z</time>
      </trkpt>
      <trkpt lat="45.911152" lon="9.281144">
        <ele>943.447</ele>
        <time>2024-05-12T10:11:21.042Z</time>
      </trkpt>
      <trkpt lat="45.910982" lon="9.281191">
        <ele>942.344</ele>
        <time>2024-05-12T10:11:33.042Z</time>
      </trkpt>
      <trkpt lat="45.910335" lon="9.280890">
        <ele>935.472</ele>
        <time>2024-05-12T10:12:20.042Z</time>
      </trkpt>
      <trkpt lat="45.909808" lon="9.280139">
        <ele>916.093</ele>
        <time>2024-05-12T10:13:27.043Z</time>
      </trkpt>
      <trkpt lat="45.909709" lon="9.280757">
        <ele>905.065</ele>
        <time>2024-05-12T10:14:01.043Z</time>
      </trkpt>
      <trkpt lat="45.910294" lon="9.281969">
        <ele>881.421</ele>
        <time>2024-05-12T10:15:36.044Z</time>
      </trkpt>
      <trkpt lat="45.909526" lon="9.281630">
        <ele>868.509</ele>
        <time>2024-05-12T10:16:27.044Z</time>
      </trkpt>
      <trkpt lat="45.908581" lon="9.280892">
        <ele>856.460</ele>
        <time>2024-05-12T10:17:30.045Z</time>
      </trkpt>
      <trkpt lat="45.907173" lon="9.280808">
        <ele>848.336</ele>
        <time>2024-05-12T10:19:08.046Z</time>
      </trkpt>
      <trkpt lat="45.906824" lon="9.280408">
        <ele>846.029</ele>
        <time>2024-05-12T10:19:37.046Z</time>
      </trkpt>
      <trkpt lat="45.906461" lon="9.280499">
        <ele>848.464</ele>
        <time>2024-05-12T10:20:02.046Z</time>
      </trkpt>
      <trkpt lat="45.902574" lon="9.282082">
        <ele>848.336</ele>
        <time>2024-05-12T10:24:20.048Z</time>
      </trkpt>
      <trkpt lat="45.900911" lon="9.282968">
        <ele>837.816</ele>
        <time>2024-05-12T10:25:40.049Z</time>
      </trkpt>
      <trkpt lat="45.900180" lon="9.283723">
        <ele>827.340</ele>
        <time>2024-05-12T10:26:19.049Z</time>
      </trkpt>
      <trkpt lat="45.899800" lon="9.283793">
        <ele>820.887</ele>
        <time>2024-05-12T10:26:38.049Z</time>
      </trkpt>
      <trkpt lat="45.899353" lon="9.283653">
        <ele>813.745</ele>
        <time>2024-05-12T10:27:03.049Z</time>
      </trkpt>
      <trkpt lat="45.899043" lon="9.283842">
        <ele>805.663</ele>
        <time>2024-05-12T10:27:20.050Z</time>
      </trkpt>
      <trkpt lat="45.898737" lon="9.284324">
        <ele>799.844</ele>
        <time>2024-05-12T10:27:43.050Z</time>
      </trkpt>
      <trkpt lat="45.898865" lon="9.284655">
        <ele>797.118</ele>
        <time>2024-05-12T10:28:04.050Z</time>
      </trkpt>
      <trkpt lat="45.898514" lon="9.286223">
        <ele>805.909</ele>
        <time>2024-05-12T10:29:58.051Z</time>
      </trkpt>
      <trkpt lat="45.898512" lon="9.287333">
        <ele>800.797</ele>
        <time>2024-05-12T10:30:41.051Z</time>
      </trkpt>
      <trkpt lat="45.898091" lon="9.288285">
        <ele>798.373</ele>
        <time>2024-05-12T10:31:22.051Z</time>
      </trkpt>
      <trkpt lat="45.897636" lon="9.290733">
        <ele>771.726</ele>
        <time>2024-05-12T10:32:59.052Z</time>
      </trkpt>
      <trkpt lat="45.896682" lon="9.291405">
        <ele>768.851</ele>
        <time>2024-05-12T10:33:58.053Z</time>
      </trkpt>
      <trkpt lat="45.895661" lon="9.292618">
        <ele>771.843</ele>
        <time>2024-05-12T10:35:52.054Z</time>
      </trkpt>
      <trkpt lat="45.895350" lon="9.293416">
        <ele>769.113</ele>
        <time>2024-05-12T10:36:36.054Z</time>
      </trkpt>
      <trkpt lat="45.895513" lon="9.294197">
        <ele>764.017</ele>
        <time>2024-05-12T10:37:13.054Z</time>
      </trkpt>
      <trkpt lat="45.895355" lon="9.295099">
        <ele>752.864</ele>
        <time>2024-05-12T10:37:54.055Z</time>
      </trkpt>
      <trkpt lat="45.894661" lon="9.295608">
        <ele>741.672</ele>
        <time>2024-05-12T10:38:32.055Z</time>
      </trkpt>
      <trkpt lat="45.894470" lon="9.296615">
        <ele>730.467</ele>
        <time>2024-05-12T10:39:15.055Z</time>
      </trkpt>
      <trkpt lat="45.893719" lon="9.297867">
        <ele>701.181</ele>
        <time>2024-05-12T10:40:32.056Z</time>
      </trkpt>
      <trkpt lat="45.893330" lon="9.298255">
        <ele>692.219</ele>
        <time>2024-05-12T10:41:03.056Z</time>
      </trkpt>
      <trkpt lat="45.892795" lon="9.298360">
        <ele>684.509</ele>
        <time>2024-05-12T10:41:31.056Z</time>
      </trkpt>
      <trkpt lat="45.892325" lon="9.299510">
        <ele>666.547</ele>
        <time>2024-05-12T10:42:37.057Z</time>
      </trkpt>
      <trkpt lat="45.892039" lon="9.299735">
        <ele>660.873</ele>
        <time>2024-05-12T10:42:56.057Z</time>
      </trkpt>
      <trkpt lat="45.891748" lon="9.300270">
        <ele>649.866</ele>
        <time>2024-05-12T10:43:27.057Z</time>
      </trkpt>
      <trkpt lat="45.891040" lon="9.300847">
        <ele>637.791</ele>
        <time>2024-05-12T10:44:16.058Z</time>
      </trkpt>
      <trkpt lat="45.890750" lon="9.301441">
        <ele>633.433</ele>
        <time>2024-05-12T10:44:46.058Z</time>
      </trkpt>
      <trkpt lat="45.890346" lon="9.301781">
        <ele>627.023</ele>
        <time>2024-05-12T10:45:12.058Z</time>
      </trkpt>
      <trkpt lat="45.890189" lon="9.301787">
        <ele>623.347</ele>
        <time>2024-05-12T10:45:23.058Z</time>
      </trkpt>
      <trkpt lat="45.889439" lon="9.301186">
        <ele>607.854</ele>
        <time>2024-05-12T10:46:13.059Z</time>
      </trkpt>
      <trkpt lat="45.889264" lon="9.301813">
        <ele>599.782</ele>
        <time>2024-05-12T10:46:42.059Z</time>
      </trkpt>
      <trkpt lat="45.888725" lon="9.301964">
        <ele>590.753</ele>
        <time>2024-05-12T10:47:20.059Z</time>
      </trkpt>
      <trkpt lat="45.887900" lon="9.300854">
        <ele>575.204</ele>
        <time>2024-05-12T10:48:31.060Z</time>
      </trkpt>
      <trkpt lat="45.886912" lon="9.300653">
        <ele>556.014</ele>
        <time>2024-05-12T10:49:41.060Z</time>
      </trkpt>
      <trkpt lat="45.886535" lon="9.300000">
        <ele>546.809</ele>
        <time>2024-05-12T10:50:19.060Z</time>
      </trkpt>
      <trkpt lat="45.886021" lon="9.300099">
        <ele>540.256</ele>
        <time>2024-05-12T10:50:54.061Z</time>
      </trkpt>
      <trkpt lat="45.884978" lon="9.300873">
        <ele>519.822</ele>
        <time>2024-05-12T10:52:08.061Z</time>
      </trkpt>
      <trkpt lat="45.884637" lon="9.300205">
        <ele>505.885</ele>
        <time>2024-05-12T10:52:51.062Z</time>
      </trkpt>
      <trkpt lat="45.883996" lon="9.299416">
        <ele>496.350</ele>
        <time>2024-05-12T10:53:47.062Z</time>
      </trkpt>
      <trkpt lat="45.883700" lon="9.299562">
        <ele>491.312</ele>
        <time>2024-05-12T10:54:12.062Z</time>
      </trkpt>
      <trkpt lat="45.883368" lon="9.300183">
        <ele>486.872</ele>
        <time>2024-05-12T10:54:48.063Z</time>
      </trkpt>
      <trkpt lat="45.883051" lon="9.301561">
        <ele>485.666</ele>
        <time>2024-05-12T10:55:51.063Z</time>
      </trkpt>
      <trkpt lat="45.882836" lon="9.301693">
        <ele>485.893</ele>
        <time>2024-05-12T10:56:08.063Z</time>
      </trkpt>
      <trkpt lat="45.881202" lon="9.300668">
        <ele>489.721</ele>
        <time>2024-05-12T11:04:33.064Z</time>
      </trkpt>
      <trkpt lat="45.880612" lon="9.299881">
        <ele>491.985</ele>
        <time>2024-05-12T11:05:29.064Z</time>
      </trkpt>
      <trkpt lat="45.879708" lon="9.299304">
        <ele>494.389</ele>
        <time>2024-05-12T11:06:38.064Z</time>
      </trkpt>
      <trkpt lat="45.879782" lon="9.299777">
        <ele>496.417</ele>
        <time>2024-05-12T11:07:04.064Z</time>
      </trkpt>
      <trkpt lat="45.880306" lon="9.300886">
        <ele>500.509</ele>
        <time>2024-05-12T11:08:14.064Z</time>
      </trkpt>
      <trkpt lat="45.879805" lon="9.301717">
        <ele>504.259</ele>
        <time>2024-05-12T11:09:19.064Z</time>
      </trkpt>
      <trkpt lat="45.879235" lon="9.302148">
        <ele>517.735</ele>
        <time>2024-05-12T11:10:41.064Z</time>
      </trkpt>
      <trkpt lat="45.878702" lon="9.304772">
        <ele>551.798</ele>
        <time>2024-05-12T11:14:57.064Z</time>
      </trkpt>
      <trkpt lat="45.878897" lon="9.306951">
        <ele>574.223</ele>
        <time>2024-05-12T11:18:11.064Z</time>
      </trkpt>
      <trkpt lat="45.879450" lon="9.308552">
        <ele>597.385</ele>
        <time>2024-05-12T11:21:03.064Z</time>
      </trkpt>
      <trkpt lat="45.879569" lon="9.309310">
        <ele>608.385</ele>
        <time>2024-05-12T11:22:33.064Z</time>
      </trkpt>
      <trkpt lat="45.879408" lon="9.309537">
        <ele>616.169</ele>
        <time>2024-05-12T11:23:15.064Z</time>
      </trkpt>
      <trkpt lat="45.879288" lon="9.310757">
        <ele>629.686</ele>
        <time>2024-05-12T11:24:54.064Z</time>
      </trkpt>
      <trkpt lat="45.878792" lon="9.311135">
        <ele>633.854</ele>
        <time>2024-05-12T11:25:42.064Z</time>
      </trkpt>
      <trkpt lat="45.877950" lon="9.311407">
        <ele>650.677</ele>
        <time>2024-05-12T11:27:27.064Z</time>
      </trkpt>
      <trkpt lat="45.877291" lon="9.313382">
        <ele>666.961</ele>
        <time>2024-05-12T11:30:14.064Z</time>
      </trkpt>
      <trkpt lat="45.876822" lon="9.313365">
        <ele>679.927</ele>
        <time>2024-05-12T11:31:46.064Z</time>
      </trkpt>
      <trkpt lat="45.876745" lon="9.313775">
        <ele>683.409</ele>
        <time>2024-05-12T11:32:13.064Z</time>
      </trkpt>
      <trkpt lat="45.876898" lon="9.314242">
        <ele>685.898</ele>
        <time>2024-05-12T11:32:43.064Z</time>
      </trkpt>
      <trkpt lat="45.876490" lon="9.315312">
        <ele>698.484</ele>
        <time>2024-05-12T11:34:32.063Z</time>
      </trkpt>
      <trkpt lat="45.877085" lon="9.315549">
        <ele>705.347</ele>
        <time>2024-05-12T11:35:42.063Z</time>
      </trkpt>
      <trkpt lat="45.876106" lon="9.316221">
        <ele>722.612</ele>
        <time>2024-05-12T11:37:50.063Z</time>
      </trkpt>
      <trkpt lat="45.875662" lon="9.316097">
        <ele>727.374</ele>
        <time>2024-05-12T11:38:38.063Z</time>
      </trkpt>
      <trkpt lat="45.873552" lon="9.314878">
        <ele>763.374</ele>
        <time>2024-05-12T11:43:51.063Z</time>
      </trkpt>
      <trkpt lat="45.873426" lon="9.314648">
        <ele>766.788</ele>
        <time>2024-05-12T11:44:16.063Z</time>
      </trkpt>
      <trkpt lat="45.872586" lon="9.314102">
        <ele>773.645</ele>
        <time>2024-05-12T11:46:14.063Z</time>
      </trkpt>
      <trkpt lat="45.872490" lon="9.313857">
        <ele>773.793</ele>
        <time>2024-05-12T11:46:36.063Z</time>
      </trkpt>
      <trkpt lat="45.871529" lon="9.312904">
        <ele>784.072</ele>
        <time>2024-05-12T11:48:21.063Z</time>
      </trkpt>
      <trkpt lat="45.871180" lon="9.312786">
        <ele>786.813</ele>
        <time>2024-05-12T11:48:55.063Z</time>
      </trkpt>
      <trkpt lat="45.870949" lon="9.312513">
        <ele>787.814</ele>
        <time>2024-05-12T11:49:18.063Z</time>
      </trkpt>
      <trkpt lat="45.870339" lon="9.312539">
        <ele>794.109</ele>
        <time>2024-05-12T11:50:20.063Z</time>
      </trkpt>
      <trkpt lat="45.869778" lon="9.312361">
        <ele>803.018</ele>
        <time>2024-05-12T11:51:10.063Z</time>
      </trkpt>
      <trkpt lat="45.868711" lon="9.312653">
        <ele>809.524</ele>
        <time>2024-05-12T11:52:45.063Z</time>
      </trkpt>
      <trkpt lat="45.868464" lon="9.314524">
        <ele>841.277</ele>
        <time>2024-05-12T11:56:41.063Z</time>
      </trkpt>
      <trkpt lat="45.868779" lon="9.315418">
        <ele>859.512</ele>
        <time>2024-05-12T11:58:57.063Z</time>
      </trkpt>
      <trkpt lat="45.868808" lon="9.316790">
        <ele>882.934</ele>
        <time>2024-05-12T12:02:18.063Z</time>
      </trkpt>
      <trkpt lat="45.868371" lon="9.319838">
        <ele>957.414</ele>
        <time>2024-05-12T12:10:42.063Z</time>
      </trkpt>
      <trkpt lat="45.867973" lon="9.320533">
        <ele>978.668</ele>
        <time>2024-05-12T12:13:57.063Z</time>
      </trkpt>
      <trkpt lat="45.867777" lon="9.320404">
        <ele>985.955</ele>
        <time>2024-05-12T12:15:12.063Z</time>
      </trkpt>
      <trkpt lat="45.867500" lon="9.319833">
        <ele>995.263</ele>
        <time>2024-05-12T12:16:21.063Z</time>
      </trkpt>
      <trkpt lat="45.867084" lon="9.320168">
        <ele>1018.659</ele>
        <time>2024-05-12T12:20:30.063Z</time>
      </trkpt>
      <trkpt lat="45.866941" lon="9.322614">
        <ele>1077.003</ele>
        <time>2024-05-12T12:28:08.063Z</time>
      </trkpt>
      <trkpt lat="45.866761" lon="9.322545">
        <ele>1082.423</ele>
        <time>2024-05-12T12:28:53.063Z</time>
      </trkpt>
      <trkpt lat="45.866804" lon="9.322903">
        <ele>1091.409</ele>
        <time>2024-05-12T12:29:56.063Z</time>
      </trkpt>
      <trkpt lat="45.866328" lon="9.323553">
        <ele>1109.786</ele>
        <time>2024-05-12T12:32:21.063Z</time>
      </trkpt>
      <trkpt lat="45.866617" lon="9.324549">
        <ele>1132.432</ele>
        <time>2024-05-12T12:35:24.063Z</time>
      </trkpt>
      <trkpt lat="45.866797" lon="9.324634">
        <ele>1139.285</ele>
        <time>2024-05-12T12:36:02.063Z</time>
      </trkpt>
      <trkpt lat="45.866327" lon="9.324985">
        <ele>1150.660</ele>
        <time>2024-05-12T12:37:38.063Z</time>
      </trkpt>
      <trkpt lat="45.865732" lon="9.325099">
        <ele>1166.112</ele>
        <time>2024-05-12T12:39:51.063Z</time>
      </trkpt>
      <trkpt lat="45.865427" lon="9.325506">
        <ele>1178.712</ele>
        <time>2024-05-12T12:41:45.063Z</time>
      </trkpt>
      <trkpt lat="45.865319" lon="9.326405">
        <ele>1192.376</ele>
        <time>2024-05-12T12:43:12.063Z</time>
      </trkpt>
      <trkpt lat="45.865057" lon="9.326706">
        <ele>1202.793</ele>
        <time>2024-05-12T12:43:56.063Z</time>
      </trkpt>
      <trkpt lat="45.864670" lon="9.327720">
        <ele>1216.591</ele>
        <time>2024-05-12T12:45:50.063Z</time>
      </trkpt>
      <trkpt lat="45.864821" lon="9.327908">
        <ele>1217.922</ele>
        <time>2024-05-12T12:54:21.063Z</time>
      </trkpt>
      <trkpt lat="45.864833" lon="9.328310">
        <ele>1207.062</ele>
        <time>2024-05-12T12:55:07.063Z</time>
      </trkpt>
      <trkpt lat="45.864248" lon="9.328710">
        <ele>1190.008</ele>
        <time>2024-05-12T12:56:15.063Z</time>
      </trkpt>
      <trkpt lat="45.863805" lon="9.329269">
        <ele>1175.609</ele>
        <time>2024-05-12T12:57:19.063Z</time>
      </trkpt>
      <trkpt lat="45.863525" lon="9.330172">
        <ele>1160.083</ele>
        <time>2024-05-12T12:58:45.063Z</time>
      </trkpt>
      <trkpt lat="45.863040" lon="9.330667">
        <ele>1151.139</ele>
        <time>2024-05-12T12:59:53.063Z</time>
      </trkpt>
      <trkpt lat="45.862802" lon="9.331496">
        <ele>1145.212</ele>
        <time>2024-05-12T13:01:21.063Z</time>
      </trkpt>
      <trkpt lat="45.862797" lon="9.332229">
        <ele>1136.787</ele>
        <time>2024-05-12T13:02:10.063Z</time>
      </trkpt>
      <trkpt lat="45.863135" lon="9.333211">
        <ele>1122.159</ele>
        <time>2024-05-12T13:03:41.063Z</time>
      </trkpt>
      <trkpt lat="45.863401" lon="9.333481">
        <ele>1113.859</ele>
        <time>2024-05-12T13:04:24.063Z</time>
      </trkpt>
      <trkpt lat="45.863327" lon="9.333820">
        <ele>1107.873</ele>
        <time>2024-05-12T13:04:53.063Z</time>
      </trkpt>
      <trkpt lat="45.862739" lon="9.333950">
        <ele>1082.350</ele>
        <time>2024-05-12T13:08:20.063Z</time>
      </trkpt>
      <trkpt lat="45.862604" lon="9.334439">
        <ele>1062.548</ele>
        <time>2024-05-12T13:09:39.063Z</time>
      </trkpt>
      <trkpt lat="45.862378" lon="9.334356">
        <ele>1055.311</ele>
        <time>2024-05-12T13:10:12.063Z</time>
      </trkpt>
      <trkpt lat="45.861797" lon="9.334524">
        <ele>1032.421</ele>
        <time>2024-05-12T13:11:48.063Z</time>
      </trkpt>
      <trkpt lat="45.861215" lon="9.335161">
        <ele>998.903</ele>
        <time>2024-05-12T13:14:02.064Z</time>
      </trkpt>
      <trkpt lat="45.860672" lon="9.335409">
        <ele>977.909</ele>
        <time>2024-05-12T13:15:45.065Z</time>
      </trkpt>
      <trkpt lat="45.860636" lon="9.335654">
        <ele>969.622</ele>
        <time>2024-05-12T13:16:27.065Z</time>
      </trkpt>
      <trkpt lat="45.860413" lon="9.335701">
        <ele>956.868</ele>
        <time>2024-05-12T13:17:08.065Z</time>
      </trkpt>
      <trkpt lat="45.860359" lon="9.336134">
        <ele>942.221</ele>
        <time>2024-05-12T13:18:11.066Z</time>
      </trkpt>
      <trkpt lat="45.860172" lon="9.336141">
        <ele>939.126</ele>
        <time>2024-05-12T13:18:34.066Z</time>
      </trkpt>
      <trkpt lat="45.860460" lon="9.336430">
        <ele>926.588</ele>
        <time>2024-05-12T13:20:20.066Z</time>
      </trkpt>
      <trkpt lat="45.860232" lon="9.336484">
        <ele>920.348</ele>
        <time>2024-05-12T13:20:48.066Z</time>
      </trkpt>
      <trkpt lat="45.860080" lon="9.336707">
        <ele>912.742</ele>
        <time>2024-05-12T13:21:24.066Z</time>
      </trkpt>
      <trkpt lat="45.860361" lon="9.337042">
        <ele>900.059</ele>
        <time>2024-05-12T13:22:15.067Z</time>
      </trkpt>
      <trkpt lat="45.860183" lon="9.337308">
        <ele>889.567</ele>
        <time>2024-05-12T13:22:58.067Z</time>
      </trkpt>
      <trkpt lat="45.860364" lon="9.337402">
        <ele>881.649</ele>
        <time>2024-05-12T13:23:19.067Z</time>
      </trkpt>
      <trkpt lat="45.860194" lon="9.337764">
        <ele>868.402</ele>
        <time>2024-05-12T13:24:12.068Z</time>
      </trkpt>
      <trkpt lat="45.860375" lon="9.337980">
        <ele>859.822</ele>
        <time>2024-05-12T13:24:45.068Z</time>
      </trkpt>
      <trkpt lat="45.859477" lon="9.339079">
        <ele>817.909</ele>
        <time>2024-05-12T13:27:23.069Z</time>
      </trkpt>
      <trkpt lat="45.858942" lon="9.340991">
        <ele>782.445</ele>
        <time>2024-05-12T13:29:29.070Z</time>
      </trkpt>
      <trkpt lat="45.858617" lon="9.341139">
        <ele>775.451</ele>
        <time>2024-05-12T13:30:05.071Z</time>
      </trkpt>
      <trkpt lat="45.858373" lon="9.341489">
        <ele>761.014</ele>
        <time>2024-05-12T13:31:00.071Z</time>
      </trkpt>
      <trkpt lat="45.857958" lon="9.341556">
        <ele>739.379</ele>
        <time>2024-05-12T13:31:37.071Z</time>
      </trkpt>
      <trkpt lat="45.856956" lon="9.342100">
        <ele>719.091</ele>
        <time>2024-05-12T13:33:14.072Z</time>
      </trkpt>
      <trkpt lat="45.854303" lon="9.341755">
        <ele>657.221</ele>
        <time>2024-05-12T13:38:13.074Z</time>
      </trkpt>
      <trkpt lat="45.853338" lon="9.342137">
        <ele>635.655</ele>
        <time>2024-05-12T13:40:12.075Z</time>
      </trkpt>
      <trkpt lat="45.852678" lon="9.341825">
        <ele>621.352</ele>
        <time>2024-05-12T13:41:24.076Z</time>
      </trkpt>
      <trkpt lat="45.852585" lon="9.342331">
        <ele>604.080</ele>
        <time>2024-05-12T13:42:40.077Z</time>
      </trkpt>
      <trkpt lat="45.852932" lon="9.343168">
        <ele>572.817</ele>
        <time>2024-05-12T13:44:48.078Z</time>
      </trkpt>
      <trkpt lat="45.852548" lon="9.343382">
        <ele>557.187</ele>
        <time>2024-05-12T13:46:09.078Z</time>
      </trkpt>
      <trkpt lat="45.852576" lon="9.343778">
        <ele>545.115</ele>
        <time>2024-05-12T13:46:57.079Z</time>
      </trkpt>
      <trkpt lat="45.852352" lon="9.343624">
        <ele>539.509</ele>
        <time>2024-05-12T13:47:19.079Z</time>
      </trkpt>
      <trkpt lat="45.852081" lon="9.342961">
        <ele>537.712</ele>
        <time>2024-05-12T13:47:55.079Z</time>
      </trkpt>
      <trkpt lat="45.851729" lon="9.342714">
        <ele>534.168</ele>
        <time>2024-05-12T13:48:27.079Z</time>
      </trkpt>
      <trkpt lat="45.851645" lon="9.342472">
        <ele>530.891</ele>
        <time>2024-05-12T13:48:50.079Z</time>
      </trkpt>
      <trkpt lat="45.851370" lon="9.342650">
        <ele>531.656</ele>
        <time>2024-05-12T13:49:30.079Z</time>
      </trkpt>
      <trkpt lat="45.850708" lon="9.343698">
        <ele>502.188</ele>
        <time>2024-05-12T13:51:07.079Z</time>
      </trkpt>
      <trkpt lat="45.850894" lon="9.345428">
        <ele>466.938</ele>
        <time>2024-05-12T13:53:49.078Z</time>
      </trkpt>
      <trkpt lat="45.850583" lon="9.345590">
        <ele>450.992</ele>
        <time>2024-05-12T13:54:58.078Z</time>
      </trkpt>
      <trkpt lat="45.850604" lon="9.345924">
        <ele>443.599</ele>
        <time>2024-05-12T13:55:29.078Z</time>
      </trkpt>
      <trkpt lat="45.851315" lon="9.346188">
        <ele>433.517</ele>
        <time>2024-05-12T13:56:31.078Z</time>
      </trkpt>
      <trkpt lat="45.851177" lon="9.347461">
        <ele>425.711</ele>
        <time>2024-05-12T13:57:44.078Z</time>
      </trkpt>
      <trkpt lat="45.851621" lon="9.348296">
        <ele>416.921</ele>
        <time>2024-05-12T13:58:39.078Z</time>
      </trkpt>
      <trkpt lat="45.851703" lon="9.349018">
        <ele>400.003</ele>
        <time>2024-05-12T13:59:17.078Z</time>
      </trkpt>
      <trkpt lat="45.852330" lon="9.349281">
        <ele>393.609</ele>
        <time>2024-05-12T14:00:00.078Z</time>
      </trkpt>
      <trkpt lat="45.852270" lon="9.350446">
        <ele>384.912</ele>
        <time>2024-05-12T14:00:59.078Z</time>
      </trkpt>
      <trkpt lat="45.852991" lon="9.351680">
        <ele>368.258</ele>
        <time>2024-05-12T14:02:18.078Z</time>
      </trkpt>
      <trkpt lat="45.853344" lon="9.354076">
        <ele>343.711</ele>
        <time>2024-05-12T14:05:18.078Z</time>
      </trkpt>
      <trkpt lat="45.853624" lon="9.354393">
        <ele>331.516</ele>
        <time>2024-05-12T14:06:21.078Z</time>
      </trkpt>
      <trkpt lat="45.853087" lon="9.354460">
        <ele>316.928</ele>
        <time>2024-05-12T14:07:24.078Z</time>
      </trkpt>
      <trkpt lat="45.852919" lon="9.354870">
        <ele>308.278</ele>
        <time>2024-05-12T14:08:14.078Z</time>
      </trkpt>
      <trkpt lat="45.853062" lon="9.355206">
        <ele>297.712</ele>
        <time>2024-05-12T14:08:57.078Z</time>
      </trkpt>
      <trkpt lat="45.852877" lon="9.355394">
        <ele>294.569</ele>
        <time>2024-05-12T14:09:15.078Z</time>
      </trkpt>
      <trkpt lat="45.852853" lon="9.355893">
        <ele>290.917</ele>
        <time>2024-05-12T14:09:44.078Z</time>
      </trkpt>
      <trkpt lat="45.851759" lon="9.356985">
        <ele>271.735</ele>
        <time>2024-05-12T14:11:24.078Z</time>
      </trkpt>
      <trkpt lat="45.851303" lon="9.357833">
        <ele>265.786</ele>
        <time>2024-05-12T14:12:09.078Z</time>
      </trkpt>
      <trkpt lat="45.851850" lon="9.358617">
        <ele>261.914</ele>
        <time>2024-05-12T14:13:03.078Z</time>
      </trkpt>
      <trkpt lat="45.851449" lon="9.359705">
        <ele>254.209</ele>
        <time>2024-05-12T14:14:01.078Z</time>
      </trkpt>
      <trkpt lat="45.851642" lon="9.359966">
        <ele>251.534</ele>
        <time>2024-05-12T14:14:21.078Z</time>
      </trkpt>
      <trkpt lat="45.853330" lon="9.360750">
        <ele>248.590</ele>
        <time>2024-05-12T14:16:17.078Z</time>
      </trkpt>
      <trkpt lat="45.853735" lon="9.361332">
        <ele>244.383</ele>
        <time>2024-05-12T14:16:56.078Z</time>
      </trkpt>
      <trkpt lat="45.853994" lon="9.363064">
        <ele>233.048</ele>
        <time>2024-05-12T14:18:14.078Z</time>
      </trkpt>
      <trkpt lat="45.853853" lon="9.364142">
        <ele>226.710</ele>
        <time>2024-05-12T14:19:03.078Z</time>
      </trkpt>
      <trkpt lat="45.853559" lon="9.364199">
        <ele>225.470</ele>
        <time>2024-05-12T14:19:26.078Z</time>
      </trkpt>
      <trkpt lat="45.854107" lon="9.365692">
        <ele>213.994</ele>
        <time>2024-05-12T14:20:57.078Z</time>
      </trkpt>
      <trkpt lat="45.854952" lon="9.366902">
        <ele>205.021</ele>
        <time>2024-05-12T14:22:15.078Z</time>
      </trkpt>
      <trkpt lat="45.854947" lon="9.367304">
        <ele>204.419</ele>
        <time>2024-05-12T14:22:35.078Z</time>
      </trkpt>
      <trkpt lat="45.854180" lon="9.368617">
        <ele>205.449</ele>
        <time>2024-05-12T14:24:02.078Z</time>
      </trkpt>
      <trkpt lat="45.854218" lon="9.369949">
        <ele>213.602</ele>
        <time>2024-05-12T14:25:30.078Z</time>
      </trkpt>
      <trkpt lat="45.854624" lon="9.370761">
        <ele>221.022</ele>
        <time>2024-05-12T14:26:38.078Z</time>
      </trkpt>
      <trkpt lat="45.854746" lon="9.371536">
        <ele>226.409</ele>
        <time>2024-05-12T14:27:24.078Z</time>
      </trkpt>
      <trkpt lat="45.854556" lon="9.373261">
        <ele>226.595</ele>
        <time>2024-05-12T14:29:02.078Z</time>
      </trkpt>
      <trkpt lat="45.853881" lon="9.373256">
        <ele>214.461</ele>
        <time>2024-05-12T14:30:05.078Z</time>
      </trkpt>
      <trkpt lat="45.853630" lon="9.374034">
        <ele>207.964</ele>
        <time>2024-05-12T14:30:51.078Z</time>
      </trkpt>
      <trkpt lat="45.852923" lon="9.374719">
        <ele>203.879</ele>
        <time>2024-05-12T14:31:53.078Z</time>
      </trkpt>
      <trkpt lat="45.852544" lon="9.374873">
        <ele>203.471</ele>
        <time>2024-05-12T14:32:20.078Z</time>
      </trkpt>
      <trkpt lat="45.852458" lon="9.375682">
        <ele>199.791</ele>
        <time>2024-05-12T14:33:11.078Z</time>
      </trkpt>
      <trkpt lat="45.851666" lon="9.377132">
        <ele>199.325</ele>
        <time>2024-05-12T14:34:30.078Z</time>
      </trkpt>
      <trkpt lat="45.851261" lon="9.378290">
        <ele>199.462</ele>
        <time>2024-05-12T14:35:24.078Z</time>
      </trkpt>
      <trkpt lat="45.851122" lon="9.378326">
        <ele>199.490</ele>
        <time>2024-05-12T14:35:39.078Z</time>
      </trkpt>
      <trkpt lat="45.850015" lon="9.380864">
        <ele>198.126</ele>
        <time>2024-05-12T14:38:01.078Z</time>
      </trkpt>
      <trkpt lat="45.848927" lon="9.383888">
        <ele>197.847</ele>
        <time>2024-05-12T14:40:36.078Z</time>
      </trkpt>
      <trkpt lat="45.848245" lon="9.387038">
        <ele>200.811</ele>
        <time>2024-05-12T14:43:09.078Z</time>
      </trkpt>
      <trkpt lat="45.848331" lon="9.387293">
        <ele>200.909</ele>
        <time>2024-05-12T14:43:23.078Z</time>
      </trkpt>
      <trkpt lat="45.849560" lon="9.387740">
        <ele>200.823</ele>
        <time>2024-05-12T14:44:47.078Z</time>
      </trkpt>
      <trkpt lat="45.850716" lon="9.387032">
        <ele>197.499</ele>
        <time>2024-05-12T14:46:12.078Z</time>
      </trkpt>
      <trkpt lat="45.851166" lon="9.387014">
        <ele>197.012</ele>
        <time>2024-05-12T14:46:43.078Z</time>
      </trkpt>
      <trkpt lat="45.851417" lon="9.387102">
        <ele>197.027</ele>
        <time>2024-05-12T14:47:02.078Z</time>
      </trkpt>
      <trkpt lat="45.851425" lon="9.387522">
        <ele>197.019</ele>
        <time>2024-05-12T14:47:24.078Z</time>
      </trkpt>
      <trkpt lat="45.851976" lon="9.387821">
        <ele>198.319</ele>
        <time>2024-05-12T14:48:06.078Z</time>
      </trkpt>
      <trkpt lat="45.852843" lon="9.387824">
        <ele>199.183</ele>
        <time>2024-05-12T14:48:55.078Z</time>
      </trkpt>
      <trkpt lat="45.852944" lon="9.387721">
        <ele>198.830</ele>
        <time>2024-05-12T14:49:00.078Z</time>
      </trkpt>
      <trkpt lat="45.853330" lon="9.388067">
        <ele>198.088</ele>
        <time>2024-05-12T14:49:17.078Z</time>
      </trkpt>
      <trkpt lat="45.853623" lon="9.387920">
        <ele>197.666</ele>
        <time>2024-05-12T14:49:29.078Z</time>
      </trkpt>
      <trkpt lat="45.853874" lon="9.388212">
        <ele>197.129</ele>
        <time>2024-05-12T14:52:13.078Z</time>
      </trkpt>
    </trkseg>
  </trk></gpx>