<?xml version="1.0" encoding="UTF-8"?><gpx creator="Wikiloc - https://www.wikiloc.com" version="1.1" xmlns="http://www.topografix.com/GPX/1/1" xmlns:xsi="http://www.w3.org/2001/XMLSchema-instance" xsi:schemaLocation="http://www.topografix.com/GPX/1/1 http://www.topografix.com/GPX/1/1/gpx.xsd"><metadata><name>Wikiloc - XTERRA Skyrace Comapedrosa (Provisonal)</name><author><name>OCISPORT RUN</name><link href="https://www.wikiloc.com/wikiloc/user.do?id=8828108"><text>OCISPORT RUN on Wikiloc</text></link></author><link href="https://www.wikiloc.com/trail-running-trails/skyrace-comapedrosa-2021-76996736"><text>XTERRA Skyrace Comapedrosa (Provisonal) on Wikiloc</text></link><time>2021-06-29T07:24:47.945Z</time></metadata><trk><name>XTERRA Skyrace Comapedrosa (Provisonal) - Wikiloc</name><cmt></cmt><desc></desc><trkseg><trkpt lat="42.572204" lon="1.483332"><ele>1467.212</ele><time>2021-06-29T07:15:55Z</time></trkpt><trkpt lat="42.572411" lon="1.483653"><ele>1468.032</ele><time>2021-06-29T07:16:36Z</time></trkpt><trkpt lat="42.572669" lon="1.483722"><ele>1470.305</ele><time>2021-06-29T07:17:12Z</time></trkpt><trkpt lat="42.572779" lon="1.483842"><ele>1472.508</ele><time>2021-06-29T07:17:30Z</time></trkpt><trkpt lat="42.573252" lon="1.483700"><ele>1476.458</ele><time>2021-06-29T07:18:35Z</time></trkpt><trkpt lat="42.573686" lon="1.482870"><ele>1478.277</ele><time>2021-06-29T07:20:15Z</time></trkpt><trkpt lat="42.574750" lon="1.481619"><ele>1494.240</ele><time>2021-06-29T07:23:23Z</time></trkpt><trkpt lat="42.575984" lon="1.481397"><ele>1508.870</ele><time>2021-06-29T07:26:09Z</time></trkpt><trkpt lat="42.577219" lon="1.480742"><ele>1528.057</ele><time>2021-06-29T07:29:06Z</time></trkpt><trkpt lat="42.578296" lon="1.479093"><ele>1547.478</ele><time>2021-06-29T07:32:42Z</time></trkpt><trkpt lat="42.578146" lon="1.478734"><ele>1548.034</ele><time>2021-06-29T07:33:23Z</time></trkpt><trkpt lat="42.578905" lon="1.476849"><ele>1566.887</ele><time>2021-06-29T07:36:54Z</time></trkpt><trkpt lat="42.579045" lon="1.476787"><ele>1565.828</ele><time>2021-06-29T07:37:14Z</time></trkpt><trkpt lat="42.579576" lon="1.477842"><ele>1566.289</ele><time>2021-06-29T07:39:19Z</time></trkpt><trkpt lat="42.579526" lon="1.478359"><ele>1569.017</ele><time>2021-06-29T07:40:10Z</time></trkpt><trkpt lat="42.579529" lon="1.478656"><ele>1571.908</ele><time>2021-06-29T07:40:40Z</time></trkpt><trkpt lat="42.579624" lon="1.478859"><ele>1575.139</ele><time>2021-06-29T07:41:03Z</time></trkpt><trkpt lat="42.579813" lon="1.478657"><ele>1580.798</ele><time>2021-06-29T07:41:35Z</time></trkpt><trkpt lat="42.579918" lon="1.478712"><ele>1583.921</ele><time>2021-06-29T07:41:50Z</time></trkpt><trkpt lat="42.580138" lon="1.479451"><ele>1596.171</ele><time>2021-06-29T07:43:09Z</time></trkpt><trkpt lat="42.580474" lon="1.479203"><ele>1608.878</ele><time>2021-06-29T07:44:00Z</time></trkpt><trkpt lat="42.580594" lon="1.478950"><ele>1612.589</ele><time>2021-06-29T07:44:29Z</time></trkpt><trkpt lat="42.580660" lon="1.479010"><ele>1618.565</ele><time>2021-06-29T07:44:40Z</time></trkpt><trkpt lat="42.580796" lon="1.478056"><ele>1621.698</ele><time>2021-06-29T07:46:15Z</time></trkpt><trkpt lat="42.581319" lon="1.477027"><ele>1644.353</ele><time>2021-06-29T07:48:18Z</time></trkpt><trkpt lat="42.581517" lon="1.475753"><ele>1661.904</ele><time>2021-06-29T07:50:26Z</time></trkpt><trkpt lat="42.581247" lon="1.474896"><ele>1663.914</ele><time>2021-06-29T07:51:58Z</time></trkpt><trkpt lat="42.581334" lon="1.473900"><ele>1671.508</ele><time>2021-06-29T07:53:36Z</time></trkpt><trkpt lat="42.581350" lon="1.472730"><ele>1689.692</ele><time>2021-06-29T07:55:31Z</time></trkpt><trkpt lat="42.581730" lon="1.471920"><ele>1697.791</ele><time>2021-06-29T07:57:06Z</time></trkpt><trkpt lat="42.582503" lon="1.471229"><ele>1725.314</ele><time>2021-06-29T07:59:09Z</time></trkpt><trkpt lat="42.583073" lon="1.470539"><ele>1734.954</ele><time>2021-06-29T08:00:51Z</time></trkpt><trkpt lat="42.583369" lon="1.469986"><ele>1744.181</ele><time>2021-06-29T08:01:58Z</time></trkpt><trkpt lat="42.583338" lon="1.470432"><ele>1749.712</ele><time>2021-06-29T08:02:42Z</time></trkpt><trkpt lat="42.583257" lon="1.470854"><ele>1756.438</ele><time>2021-06-29T08:03:25Z</time></trkpt><trkpt lat="42.583037" lon="1.471488"><ele>1765.491</ele><time>2021-06-29T08:04:34Z</time></trkpt><trkpt lat="42.582895" lon="1.472170"><ele>1773.642</ele><time>2021-06-29T08:05:43Z</time></trkpt><trkpt lat="42.583114" lon="1.471885"><ele>1778.922</ele><time>2021-06-29T08:06:24Z</time></trkpt><trkpt lat="42.583178" lon="1.472092"><ele>1787.014</ele><time>2021-06-29T08:06:46Z</time></trkpt><trkpt lat="42.583314" lon="1.471919"><ele>1790.408</ele><time>2021-06-29T08:07:11Z</time></trkpt><trkpt lat="42.583620" lon="1.471680"><ele>1798.831</ele><time>2021-06-29T08:07:58Z</time></trkpt><trkpt lat="42.583992" lon="1.471267"><ele>1810.930</ele><time>2021-06-29T08:09:02Z</time></trkpt><trkpt lat="42.584132" lon="1.471019"><ele>1815.933</ele><time>2021-06-29T08:09:33Z</time></trkpt><trkpt lat="42.584369" lon="1.470772"><ele>1819.563</ele><time>2021-06-29T08:10:13Z</time></trkpt><trkpt lat="42.584533" lon="1.470791"><ele>1823.880</ele><time>2021-06-29T08:10:35Z</time></trkpt><trkpt lat="42.584775" lon="1.470984"><ele>1833.911</ele><time>2021-06-29T08:11:12Z</time></trkpt><trkpt lat="42.584948" lon="1.470918"><ele>1837.567</ele><time>2021-06-29T08:11:36Z</time></trkpt><trkpt lat="42.585250" lon="1.470456"><ele>1840.550</ele><time>2021-06-29T08:12:37Z</time></trkpt><trkpt lat="42.585594" lon="1.470075"><ele>1847.025</ele><time>2021-06-29T08:13:36Z</time></trkpt><trkpt lat="42.585728" lon="1.469699"><ele>1850.026</ele><time>2021-06-29T08:14:17Z</time></trkpt><trkpt lat="42.585872" lon="1.469475"><ele>1855.708</ele><time>2021-06-29T08:14:46Z</time></trkpt><trkpt lat="42.585937" lon="1.469032"><ele>1859.508</ele><time>2021-06-29T08:15:30Z</time></trkpt><trkpt lat="42.586278" lon="1.468191"><ele>1877.499</ele><time>2021-06-29T08:17:05Z</time></trkpt><trkpt lat="42.586332" lon="1.467634"><ele>1883.128</ele><time>2021-06-29T08:18:00Z</time></trkpt><trkpt lat="42.586433" lon="1.467436"><ele>1886.091</ele><time>2021-06-29T08:18:24Z</time></trkpt><trkpt lat="42.586708" lon="1.467363"><ele>1891.441</ele><time>2021-06-29T08:19:01Z</time></trkpt><trkpt lat="42.586958" lon="1.466656"><ele>1909.578</ele><time>2021-06-29T08:20:18Z</time></trkpt><trkpt lat="42.587249" lon="1.464741"><ele>1959.489</ele><time>2021-06-29T08:23:30Z</time></trkpt><trkpt lat="42.588283" lon="1.463757"><ele>1972.145</ele><time>2021-06-29T08:26:19Z</time></trkpt><trkpt lat="42.589033" lon="1.463314"><ele>1986.928</ele><time>2021-06-29T08:28:08Z</time></trkpt><trkpt lat="42.589980" lon="1.462357"><ele>2011.127</ele><time>2021-06-29T08:30:45Z</time></trkpt><trkpt lat="42.590791" lon="1.462242"><ele>2013.168</ele><time>2021-06-29T08:32:34Z</time></trkpt><trkpt lat="42.591191" lon="1.462415"><ele>2017.414</ele><time>2021-06-29T08:33:30Z</time></trkpt><trkpt lat="42.591239" lon="1.462799"><ele>2022.808</ele><time>2021-06-29T08:34:08Z</time></trkpt><trkpt lat="42.590835" lon="1.464644"><ele>2051.929</ele><time>2021-06-29T08:37:17Z</time></trkpt><trkpt lat="42.590539" lon="1.465136"><ele>2057.578</ele><time>2021-06-29T08:38:20Z</time></trkpt><trkpt lat="42.590551" lon="1.465807"><ele>2064.641</ele><time>2021-06-29T08:39:26Z</time></trkpt><trkpt lat="42.590462" lon="1.466322"><ele>2063.161</ele><time>2021-06-29T08:40:18Z</time></trkpt><trkpt lat="42.590148" lon="1.467355"><ele>2062.668</ele><time>2021-06-29T08:42:08Z</time></trkpt><trkpt lat="42.589830" lon="1.468405"><ele>2069.519</ele><time>2021-06-29T08:43:59Z</time></trkpt><trkpt lat="42.589392" lon="1.469342"><ele>2085.265</ele><time>2021-06-29T08:45:48Z</time></trkpt><trkpt lat="42.589267" lon="1.469554"><ele>2091.528</ele><time>2021-06-29T08:46:15Z</time></trkpt><trkpt lat="42.589187" lon="1.469632"><ele>2091.353</ele><time>2021-06-29T08:46:28Z</time></trkpt><trkpt lat="42.589155" lon="1.469775"><ele>2097.804</ele><time>2021-06-29T08:46:43Z</time></trkpt><trkpt lat="42.589147" lon="1.469910"><ele>2106.114</ele><time>2021-06-29T08:46:56Z</time></trkpt><trkpt lat="42.588858" lon="1.470431"><ele>2114.008</ele><time>2021-06-29T08:48:00Z</time></trkpt><trkpt lat="42.588377" lon="1.471239"><ele>2090.072</ele><time>2021-06-29T08:49:42Z</time></trkpt><trkpt lat="42.588294" lon="1.471592"><ele>2090.291</ele><time>2021-06-29T08:50:19Z</time></trkpt><trkpt lat="42.588364" lon="1.471644"><ele>2095.674</ele><time>2021-06-29T08:50:29Z</time></trkpt><trkpt lat="42.587944" lon="1.472577"><ele>2082.574</ele><time>2021-06-29T08:52:17Z</time></trkpt><trkpt lat="42.587601" lon="1.473544"><ele>2071.431</ele><time>2021-06-29T08:54:02Z</time></trkpt><trkpt lat="42.587307" lon="1.473968"><ele>2070.612</ele><time>2021-06-29T08:54:59Z</time></trkpt><trkpt lat="42.586900" lon="1.474303"><ele>2075.318</ele><time>2021-06-29T08:56:03Z</time></trkpt><trkpt lat="42.586606" lon="1.474925"><ele>2069.671</ele><time>2021-06-29T08:57:15Z</time></trkpt><trkpt lat="42.586394" lon="1.475539"><ele>2053.421</ele><time>2021-06-29T08:58:22Z</time></trkpt><trkpt lat="42.586341" lon="1.476235"><ele>2054.541</ele><time>2021-06-29T08:59:31Z</time></trkpt><trkpt lat="42.586395" lon="1.476251"><ele>2058.505</ele><time>2021-06-29T08:59:38Z</time></trkpt><trkpt lat="42.586139" lon="1.477414"><ele>2064.408</ele><time>2021-06-29T09:01:38Z</time></trkpt><trkpt lat="42.586234" lon="1.478031"><ele>2077.969</ele><time>2021-06-29T09:02:39Z</time></trkpt><trkpt lat="42.586242" lon="1.478280"><ele>2076.548</ele><time>2021-06-29T09:03:04Z</time></trkpt><trkpt lat="42.586343" lon="1.478398"><ele>2080.281</ele><time>2021-06-29T09:03:22Z</time></trkpt><trkpt lat="42.586462" lon="1.478861"><ele>2074.721</ele><time>2021-06-29T09:04:10Z</time></trkpt><trkpt lat="42.586483" lon="1.479009"><ele>2072.248</ele><time>2021-06-29T09:04:25Z</time></trkpt><trkpt lat="42.586494" lon="1.479405"><ele>2065.149</ele><time>2021-06-29T09:05:04Z</time></trkpt><trkpt lat="42.586881" lon="1.480032"><ele>2074.535</ele><time>2021-06-29T09:06:24Z</time></trkpt><trkpt lat="42.587172" lon="1.480178"><ele>2082.468</ele><time>2021-06-29T09:07:05Z</time></trkpt><trkpt lat="42.587220" lon="1.480373"><ele>2080.564</ele><time>2021-06-29T09:07:26Z</time></trkpt><trkpt lat="42.587230" lon="1.480500"><ele>2077.606</ele><time>2021-06-29T09:07:38Z</time></trkpt><trkpt lat="42.587600" lon="1.481604"><ele>2067.216</ele><time>2021-06-29T09:09:37Z</time></trkpt><trkpt lat="42.587964" lon="1.482267"><ele>2056.608</ele><time>2021-06-29T09:10:59Z</time></trkpt><trkpt lat="42.588184" lon="1.483218"><ele>2037.683</ele><time>2021-06-29T09:12:36Z</time></trkpt><trkpt lat="42.588212" lon="1.483521"><ele>2035.312</ele><time>2021-06-29T09:13:07Z</time></trkpt><trkpt lat="42.588050" lon="1.483870"><ele>2033.565</ele><time>2021-06-29T09:13:47Z</time></trkpt><trkpt lat="42.587761" lon="1.484178"><ele>2034.865</ele><time>2021-06-29T09:14:36Z</time></trkpt><trkpt lat="42.587252" lon="1.484539"><ele>2035.362</ele><time>2021-06-29T09:15:53Z</time></trkpt><trkpt lat="42.586680" lon="1.484561"><ele>2028.493</ele><time>2021-06-29T09:17:09Z</time></trkpt><trkpt lat="42.586253" lon="1.484719"><ele>2026.589</ele><time>2021-06-29T09:18:08Z</time></trkpt><trkpt lat="42.585960" lon="1.484958"><ele>2023.492</ele><time>2021-06-29T09:18:54Z</time></trkpt><trkpt lat="42.585433" lon="1.485055"><ele>2018.729</ele><time>2021-06-29T09:20:05Z</time></trkpt><trkpt lat="42.585039" lon="1.485459"><ele>2016.100</ele><time>2021-06-29T09:21:11Z</time></trkpt><trkpt lat="42.584558" lon="1.486347"><ele>2007.720</ele><time>2021-06-29T09:22:59Z</time></trkpt><trkpt lat="42.584412" lon="1.486617"><ele>2003.908</ele><time>2021-06-29T09:23:32Z</time></trkpt><trkpt lat="42.583728" lon="1.486936"><ele>2000.279</ele><time>2021-06-29T09:25:08Z</time></trkpt><trkpt lat="42.583181" lon="1.487660"><ele>2006.478</ele><time>2021-06-29T09:26:50Z</time></trkpt><trkpt lat="42.582955" lon="1.487998"><ele>2009.511</ele><time>2021-06-29T09:27:35Z</time></trkpt><trkpt lat="42.582977" lon="1.488242"><ele>2012.691</ele><time>2021-06-29T09:27:59Z</time></trkpt><trkpt lat="42.583077" lon="1.488655"><ele>2017.398</ele><time>2021-06-29T09:28:42Z</time></trkpt><trkpt lat="42.583133" lon="1.489007"><ele>2021.079</ele><time>2021-06-29T09:29:17Z</time></trkpt><trkpt lat="42.583036" lon="1.489275"><ele>2027.015</ele><time>2021-06-29T09:29:47Z</time></trkpt><trkpt lat="42.582871" lon="1.489560"><ele>2030.288</ele><time>2021-06-29T09:30:22Z</time></trkpt><trkpt lat="42.582811" lon="1.489880"><ele>2032.966</ele><time>2021-06-29T09:30:55Z</time></trkpt><trkpt lat="42.582836" lon="1.490213"><ele>2038.029</ele><time>2021-06-29T09:31:28Z</time></trkpt><trkpt lat="42.582629" lon="1.491192"><ele>2038.021</ele><time>2021-06-29T09:33:08Z</time></trkpt><trkpt lat="42.582556" lon="1.491922"><ele>2049.508</ele><time>2021-06-29T09:34:20Z</time></trkpt><trkpt lat="42.582470" lon="1.492022"><ele>2049.673</ele><time>2021-06-29T09:34:35Z</time></trkpt><trkpt lat="42.581849" lon="1.492367"><ele>2056.652</ele><time>2021-06-29T09:36:05Z</time></trkpt><trkpt lat="42.581309" lon="1.492582"><ele>2068.165</ele><time>2021-06-29T09:37:20Z</time></trkpt><trkpt lat="42.581093" lon="1.492696"><ele>2074.585</ele><time>2021-06-29T09:37:51Z</time></trkpt><trkpt lat="42.580915" lon="1.493031"><ele>2079.612</ele><time>2021-06-29T09:38:31Z</time></trkpt><trkpt lat="42.580730" lon="1.493218"><ele>2074.353</ele><time>2021-06-29T09:39:02Z</time></trkpt><trkpt lat="42.580651" lon="1.493461"><ele>2075.929</ele><time>2021-06-29T09:39:28Z</time></trkpt><trkpt lat="42.580655" lon="1.494273"><ele>2094.032</ele><time>2021-06-29T09:40:48Z</time></trkpt><trkpt lat="42.580601" lon="1.495242"><ele>2119.459</ele><time>2021-06-29T09:42:23Z</time></trkpt><trkpt lat="42.580436" lon="1.495753"><ele>2131.803</ele><time>2021-06-29T09:43:18Z</time></trkpt><trkpt lat="42.580152" lon="1.496020"><ele>2132.523</ele><time>2021-06-29T09:44:04Z</time></trkpt><trkpt lat="42.579736" lon="1.496480"><ele>2146.408</ele><time>2021-06-29T09:45:16Z</time></trkpt><trkpt lat="42.579464" lon="1.496598"><ele>2148.752</ele><time>2021-06-29T09:45:54Z</time></trkpt><trkpt lat="42.579219" lon="1.496835"><ele>2149.661</ele><time>2021-06-29T09:46:34Z</time></trkpt><trkpt lat="42.579786" lon="1.497144"><ele>2162.174</ele><time>2021-06-29T09:47:56Z</time></trkpt><trkpt lat="42.580667" lon="1.497361"><ele>2184.874</ele><time>2021-06-29T09:49:55Z</time></trkpt><trkpt lat="42.581254" lon="1.497073"><ele>2210.011</ele><time>2021-06-29T09:51:18Z</time></trkpt><trkpt lat="42.581447" lon="1.497150"><ele>2222.572</ele><time>2021-06-29T09:51:45Z</time></trkpt><trkpt lat="42.581533" lon="1.497050"><ele>2223.938</ele><time>2021-06-29T09:52:00Z</time></trkpt><trkpt lat="42.581728" lon="1.497191"><ele>2235.761</ele><time>2021-06-29T09:52:30Z</time></trkpt><trkpt lat="42.582180" lon="1.497092"><ele>2252.633</ele><time>2021-06-29T09:53:31Z</time></trkpt><trkpt lat="42.582351" lon="1.496883"><ele>2261.723</ele><time>2021-06-29T09:54:02Z</time></trkpt><trkpt lat="42.582502" lon="1.496915"><ele>2267.115</ele><time>2021-06-29T09:54:22Z</time></trkpt><trkpt lat="42.582840" lon="1.496531"><ele>2278.908</ele><time>2021-06-29T09:55:21Z</time></trkpt><trkpt lat="42.583270" lon="1.496471"><ele>2295.650</ele><time>2021-06-29T09:56:18Z</time></trkpt><trkpt lat="42.583300" lon="1.496615"><ele>2296.779</ele><time>2021-06-29T09:56:33Z</time></trkpt><trkpt lat="42.583933" lon="1.496793"><ele>2310.992</ele><time>2021-06-29T09:57:59Z</time></trkpt><trkpt lat="42.584369" lon="1.496852"><ele>2327.212</ele><time>2021-06-29T09:58:58Z</time></trkpt><trkpt lat="42.584811" lon="1.496839"><ele>2345.359</ele><time>2021-06-29T09:59:57Z</time></trkpt><trkpt lat="42.584889" lon="1.496737"><ele>2347.160</ele><time>2021-06-29T10:00:11Z</time></trkpt><trkpt lat="42.585012" lon="1.496863"><ele>2352.316</ele><time>2021-06-29T10:00:32Z</time></trkpt><trkpt lat="42.585321" lon="1.496905"><ele>2364.489</ele><time>2021-06-29T10:01:13Z</time></trkpt><trkpt lat="42.585934" lon="1.496840"><ele>2384.015</ele><time>2021-06-29T10:02:35Z</time></trkpt><trkpt lat="42.586020" lon="1.496817"><ele>2386.665</ele><time>2021-06-29T10:02:47Z</time></trkpt><trkpt lat="42.586318" lon="1.496791"><ele>2396.811</ele><time>2021-06-29T10:03:27Z</time></trkpt><trkpt lat="42.586845" lon="1.496707"><ele>2418.008</ele><time>2021-06-29T10:04:38Z</time></trkpt><trkpt lat="42.587203" lon="1.496696"><ele>2431.768</ele><time>2021-06-29T10:05:26Z</time></trkpt><trkpt lat="42.587506" lon="1.496621"><ele>2445.137</ele><time>2021-06-29T10:06:07Z</time></trkpt><trkpt lat="42.587838" lon="1.496673"><ele>2459.460</ele><time>2021-06-29T10:06:51Z</time></trkpt><trkpt lat="42.588693" lon="1.496806"><ele>2480.750</ele><time>2021-06-29T10:08:46Z</time></trkpt><trkpt lat="42.589407" lon="1.496710"><ele>2488.687</ele><time>2021-06-29T10:10:22Z</time></trkpt><trkpt lat="42.589928" lon="1.496462"><ele>2485.148</ele><time>2021-06-29T10:11:35Z</time></trkpt><trkpt lat="42.590506" lon="1.496236"><ele>2479.784</ele><time>2021-06-29T10:12:56Z</time></trkpt><trkpt lat="42.591654" lon="1.496226"><ele>2485.677</ele><time>2021-06-29T10:15:29Z</time></trkpt><trkpt lat="42.593481" lon="1.496488"><ele>2553.851</ele><time>2021-06-29T10:19:34Z</time></trkpt><trkpt lat="42.594267" lon="1.496077"><ele>2576.701</ele><time>2021-06-29T10:21:26Z</time></trkpt><trkpt lat="42.595175" lon="1.495151"><ele>2573.111</ele><time>2021-06-29T10:23:58Z</time></trkpt><trkpt lat="42.595662" lon="1.494664"><ele>2564.508</ele><time>2021-06-29T10:25:19Z</time></trkpt><trkpt lat="42.596084" lon="1.494171"><ele>2558.972</ele><time>2021-06-29T10:26:33Z</time></trkpt><trkpt lat="42.596424" lon="1.494032"><ele>2560.881</ele><time>2021-06-29T10:27:20Z</time></trkpt><trkpt lat="42.596743" lon="1.493915"><ele>2565.414</ele><time>2021-06-29T10:28:04Z</time></trkpt><trkpt lat="42.596997" lon="1.493527"><ele>2567.854</ele><time>2021-06-29T10:28:55Z</time></trkpt><trkpt lat="42.597336" lon="1.493419"><ele>2579.751</ele><time>2021-06-29T10:29:42Z</time></trkpt><trkpt lat="42.597736" lon="1.492943"><ele>2592.442</ele><time>2021-06-29T10:30:53Z</time></trkpt><trkpt lat="42.597716" lon="1.491722"><ele>2584.888</ele><time>2021-06-29T10:32:53Z</time></trkpt><trkpt lat="42.597241" lon="1.490186"><ele>2580.441</ele><time>2021-06-29T10:35:36Z</time></trkpt><trkpt lat="42.597265" lon="1.488465"><ele>2619.862</ele><time>2021-06-29T10:38:25Z</time></trkpt><trkpt lat="42.597246" lon="1.488179"><ele>2622.583</ele><time>2021-06-29T10:38:54Z</time></trkpt><trkpt lat="42.597440" lon="1.488247"><ele>2630.011</ele><time>2021-06-29T10:39:20Z</time></trkpt><trkpt lat="42.597760" lon="1.487718"><ele>2640.808</ele><time>2021-06-29T10:40:27Z</time></trkpt><trkpt lat="42.598280" lon="1.486881"><ele>2644.613</ele><time>2021-06-29T10:42:15Z</time></trkpt><trkpt lat="42.598782" lon="1.485987"><ele>2641.872</ele><time>2021-06-29T10:44:05Z</time></trkpt><trkpt lat="42.598954" lon="1.485958"><ele>2645.635</ele><time>2021-06-29T10:44:29Z</time></trkpt><trkpt lat="42.599144" lon="1.485632"><ele>2651.665</ele><time>2021-06-29T10:45:10Z</time></trkpt><trkpt lat="42.599329" lon="1.484480"><ele>2639.092</ele><time>2021-06-29T10:47:05Z</time></trkpt><trkpt lat="42.600120" lon="1.482285"><ele>2661.973</ele><time>2021-06-29T10:51:05Z</time></trkpt><trkpt lat="42.600344" lon="1.482176"><ele>2669.739</ele><time>2021-06-29T10:51:37Z</time></trkpt><trkpt lat="42.601030" lon="1.480732"><ele>2695.952</ele><time>2021-06-29T10:54:26Z</time></trkpt><trkpt lat="42.601223" lon="1.478226"><ele>2742.595</ele><time>2021-06-29T10:58:33Z</time></trkpt><trkpt lat="42.601748" lon="1.477630"><ele>2726.149</ele><time>2021-06-29T11:00:05Z</time></trkpt><trkpt lat="42.602541" lon="1.477261"><ele>2700.223</ele><time>2021-06-29T11:01:56Z</time></trkpt><trkpt lat="42.603187" lon="1.476065"><ele>2666.308</ele><time>2021-06-29T11:04:22Z</time></trkpt><trkpt lat="42.603277" lon="1.475217"><ele>2653.176</ele><time>2021-06-29T11:05:46Z</time></trkpt><trkpt lat="42.603160" lon="1.475187"><ele>2649.715</ele><time>2021-06-29T11:06:02Z</time></trkpt><trkpt lat="42.602899" lon="1.474311"><ele>2614.018</ele><time>2021-06-29T11:07:35Z</time></trkpt><trkpt lat="42.602618" lon="1.474470"><ele>2599.078</ele><time>2021-06-29T11:08:16Z</time></trkpt><trkpt lat="42.602323" lon="1.474114"><ele>2577.625</ele><time>2021-06-29T11:09:08Z</time></trkpt><trkpt lat="42.602084" lon="1.473803"><ele>2565.196</ele><time>2021-06-29T11:09:53Z</time></trkpt><trkpt lat="42.601924" lon="1.473516"><ele>2556.522</ele><time>2021-06-29T11:10:28Z</time></trkpt><trkpt lat="42.601846" lon="1.472977"><ele>2538.715</ele><time>2021-06-29T11:11:22Z</time></trkpt><trkpt lat="42.601610" lon="1.472545"><ele>2526.491</ele><time>2021-06-29T11:12:15Z</time></trkpt><trkpt lat="42.601436" lon="1.472040"><ele>2520.381</ele><time>2021-06-29T11:13:09Z</time></trkpt><trkpt lat="42.601329" lon="1.471568"><ele>2503.319</ele><time>2021-06-29T11:13:58Z</time></trkpt><trkpt lat="42.601294" lon="1.471369"><ele>2495.808</ele><time>2021-06-29T11:14:18Z</time></trkpt><trkpt lat="42.600984" lon="1.471020"><ele>2475.076</ele><time>2021-06-29T11:15:12Z</time></trkpt><trkpt lat="42.600620" lon="1.470447"><ele>2458.295</ele><time>2021-06-29T11:16:26Z</time></trkpt><trkpt lat="42.600183" lon="1.469831"><ele>2443.018</ele><time>2021-06-29T11:17:50Z</time></trkpt><trkpt lat="42.599872" lon="1.469643"><ele>2435.568</ele><time>2021-06-29T11:18:36Z</time></trkpt><trkpt lat="42.599754" lon="1.469570"><ele>2432.445</ele><time>2021-06-29T11:18:53Z</time></trkpt><trkpt lat="42.599673" lon="1.470484"><ele>2415.456</ele><time>2021-06-29T11:20:23Z</time></trkpt><trkpt lat="42.599502" lon="1.470731"><ele>2408.522</ele><time>2021-06-29T11:20:57Z</time></trkpt><trkpt lat="42.599405" lon="1.470775"><ele>2406.715</ele><time>2021-06-29T11:21:10Z</time></trkpt><trkpt lat="42.599403" lon="1.470818"><ele>2406.326</ele><time>2021-06-29T11:21:15Z</time></trkpt><trkpt lat="42.599148" lon="1.470578"><ele>2402.247</ele><time>2021-06-29T11:21:56Z</time></trkpt><trkpt lat="42.599073" lon="1.470410"><ele>2401.011</ele><time>2021-06-29T11:22:15Z</time></trkpt><trkpt lat="42.598836" lon="1.470056"><ele>2392.208</ele><time>2021-06-29T11:23:02Z</time></trkpt><trkpt lat="42.598444" lon="1.469739"><ele>2378.289</ele><time>2021-06-29T11:24:03Z</time></trkpt><trkpt lat="42.598128" lon="1.469499"><ele>2364.798</ele><time>2021-06-29T11:24:51Z</time></trkpt><trkpt lat="42.597979" lon="1.469300"><ele>2354.541</ele><time>2021-06-29T11:25:19Z</time></trkpt><trkpt lat="42.597648" lon="1.469359"><ele>2347.061</ele><time>2021-06-29T11:26:04Z</time></trkpt><trkpt lat="42.597279" lon="1.469147"><ele>2338.228</ele><time>2021-06-29T11:26:57Z</time></trkpt><trkpt lat="42.596791" lon="1.468580"><ele>2328.239</ele><time>2021-06-29T11:28:23Z</time></trkpt><trkpt lat="42.596550" lon="1.467850"><ele>2320.235</ele><time>2021-06-29T11:29:42Z</time></trkpt><trkpt lat="42.596458" lon="1.467282"><ele>2303.638</ele><time>2021-06-29T11:30:39Z</time></trkpt><trkpt lat="42.596690" lon="1.466435"><ele>2277.869</ele><time>2021-06-29T11:32:08Z</time></trkpt><trkpt lat="42.596693" lon="1.465900"><ele>2265.204</ele><time>2021-06-29T11:33:00Z</time></trkpt><trkpt lat="42.596647" lon="1.465634"><ele>2257.824</ele><time>2021-06-29T11:33:27Z</time></trkpt><trkpt lat="42.596435" lon="1.465314"><ele>2257.408</ele><time>2021-06-29T11:34:09Z</time></trkpt><trkpt lat="42.596195" lon="1.465004"><ele>2253.823</ele><time>2021-06-29T11:34:53Z</time></trkpt><trkpt lat="42.595337" lon="1.464537"><ele>2220.512</ele><time>2021-06-29T11:36:57Z</time></trkpt><trkpt lat="42.595059" lon="1.464228"><ele>2208.265</ele><time>2021-06-29T11:37:45Z</time></trkpt><trkpt lat="42.595246" lon="1.464130"><ele>2198.735</ele><time>2021-06-29T11:38:11Z</time></trkpt><trkpt lat="42.595617" lon="1.464099"><ele>2193.562</ele><time>2021-06-29T11:39:01Z</time></trkpt><trkpt lat="42.596314" lon="1.464383"><ele>2196.283</ele><time>2021-06-29T11:40:38Z</time></trkpt><trkpt lat="42.596514" lon="1.464488"><ele>2205.989</ele><time>2021-06-29T11:41:07Z</time></trkpt><trkpt lat="42.596794" lon="1.464345"><ele>2210.462</ele><time>2021-06-29T11:41:47Z</time></trkpt><trkpt lat="42.596866" lon="1.464178"><ele>2206.958</ele><time>2021-06-29T11:42:06Z</time></trkpt><trkpt lat="42.596866" lon="1.464123"><ele>2203.852</ele><time>2021-06-29T11:42:11Z</time></trkpt><trkpt lat="42.596955" lon="1.464094"><ele>2205.117</ele><time>2021-06-29T11:42:23Z</time></trkpt><trkpt lat="42.596931" lon="1.464034"><ele>2200.508</ele><time>2021-06-29T11:42:30Z</time></trkpt><trkpt lat="42.596935" lon="1.463927"><ele>2194.192</ele><time>2021-06-29T11:42:41Z</time></trkpt><trkpt lat="42.597010" lon="1.463970"><ele>2199.831</ele><time>2021-06-29T11:42:51Z</time></trkpt><trkpt lat="42.596972" lon="1.463799"><ele>2186.474</ele><time>2021-06-29T11:43:09Z</time></trkpt><trkpt lat="42.597017" lon="1.463666"><ele>2177.994</ele><time>2021-06-29T11:43:23Z</time></trkpt><trkpt lat="42.597177" lon="1.463617"><ele>2178.351</ele><time>2021-06-29T11:43:45Z</time></trkpt><trkpt lat="42.597265" lon="1.463540"><ele>2179.172</ele><time>2021-06-29T11:43:59Z</time></trkpt><trkpt lat="42.597213" lon="1.463273"><ele>2170.298</ele><time>2021-06-29T11:44:26Z</time></trkpt><trkpt lat="42.597026" lon="1.462753"><ele>2157.831</ele><time>2021-06-29T11:45:23Z</time></trkpt><trkpt lat="42.596487" lon="1.462160"><ele>2134.442</ele><time>2021-06-29T11:46:56Z</time></trkpt><trkpt lat="42.596181" lon="1.461407"><ele>2119.822</ele><time>2021-06-29T11:48:20Z</time></trkpt><trkpt lat="42.595623" lon="1.461278"><ele>2098.914</ele><time>2021-06-29T11:49:36Z</time></trkpt><trkpt lat="42.595106" lon="1.461340"><ele>2084.608</ele><time>2021-06-29T11:50:45Z</time></trkpt><trkpt lat="42.594631" lon="1.461406"><ele>2071.441</ele><time>2021-06-29T11:51:49Z</time></trkpt><trkpt lat="42.593952" lon="1.460632"><ele>2049.430</ele><time>2021-06-29T11:53:47Z</time></trkpt><trkpt lat="42.593821" lon="1.460480"><ele>2048.643</ele><time>2021-06-29T11:54:10Z</time></trkpt><trkpt lat="42.593675" lon="1.460472"><ele>2047.193</ele><time>2021-06-29T11:54:30Z</time></trkpt><trkpt lat="42.593820" lon="1.459037"><ele>2110.050</ele><time>2021-06-29T11:56:52Z</time></trkpt><trkpt lat="42.593833" lon="1.458244"><ele>2163.591</ele><time>2021-06-29T11:58:10Z</time></trkpt><trkpt lat="42.593925" lon="1.457904"><ele>2184.817</ele><time>2021-06-29T11:58:45Z</time></trkpt><trkpt lat="42.594017" lon="1.456891"><ele>2242.830</ele><time>2021-06-29T12:00:26Z</time></trkpt><trkpt lat="42.594065" lon="1.456622"><ele>2260.431</ele><time>2021-06-29T12:00:53Z</time></trkpt><trkpt lat="42.593770" lon="1.455808"><ele>2287.461</ele><time>2021-06-29T12:02:22Z</time></trkpt><trkpt lat="42.593811" lon="1.455678"><ele>2291.207</ele><time>2021-06-29T12:02:36Z</time></trkpt><trkpt lat="42.593761" lon="1.455507"><ele>2296.708</ele><time>2021-06-29T12:02:54Z</time></trkpt><trkpt lat="42.593672" lon="1.455193"><ele>2306.160</ele><time>2021-06-29T12:03:27Z</time></trkpt><trkpt lat="42.593524" lon="1.455286"><ele>2309.259</ele><time>2021-06-29T12:03:49Z</time></trkpt><trkpt lat="42.593378" lon="1.455178"><ele>2316.152</ele><time>2021-06-29T12:04:11Z</time></trkpt><trkpt lat="42.593262" lon="1.454806"><ele>2327.032</ele><time>2021-06-29T12:04:50Z</time></trkpt><trkpt lat="42.593150" lon="1.454583"><ele>2333.879</ele><time>2021-06-29T12:05:17Z</time></trkpt><trkpt lat="42.593192" lon="1.454216"><ele>2342.260</ele><time>2021-06-29T12:05:53Z</time></trkpt><trkpt lat="42.593263" lon="1.453897"><ele>2351.366</ele><time>2021-06-29T12:06:26Z</time></trkpt><trkpt lat="42.593282" lon="1.453504"><ele>2366.699</ele><time>2021-06-29T12:07:05Z</time></trkpt><trkpt lat="42.593231" lon="1.453298"><ele>2375.168</ele><time>2021-06-29T12:07:26Z</time></trkpt><trkpt lat="42.593361" lon="1.452549"><ele>2403.242</ele><time>2021-06-29T12:08:42Z</time></trkpt><trkpt lat="42.593520" lon="1.451649"><ele>2440.426</ele><time>2021-06-29T12:10:13Z</time></trkpt><trkpt lat="42.593616" lon="1.451486"><ele>2446.108</ele><time>2021-06-29T12:10:33Z</time></trkpt><trkpt lat="42.593652" lon="1.451257"><ele>2454.223</ele><time>2021-06-29T12:10:56Z</time></trkpt><trkpt lat="42.594140" lon="1.450554"><ele>2482.412</ele><time>2021-06-29T12:12:31Z</time></trkpt><trkpt lat="42.594119" lon="1.450411"><ele>2490.895</ele><time>2021-06-29T12:12:46Z</time></trkpt><trkpt lat="42.594698" lon="1.449153"><ele>2554.855</ele><time>2021-06-29T12:15:11Z</time></trkpt><trkpt lat="42.594770" lon="1.448486"><ele>2576.542</ele><time>2021-06-29T12:16:18Z</time></trkpt><trkpt lat="42.594867" lon="1.447540"><ele>2603.883</ele><time>2021-06-29T12:17:51Z</time></trkpt><trkpt lat="42.595089" lon="1.445903"><ele>2642.989</ele><time>2021-06-29T12:20:35Z</time></trkpt><trkpt lat="42.595133" lon="1.444862"><ele>2675.242</ele><time>2021-06-29T12:22:17Z</time></trkpt><trkpt lat="42.595108" lon="1.444246"><ele>2686.571</ele><time>2021-06-29T12:23:18Z</time></trkpt><trkpt lat="42.594888" lon="1.443699"><ele>2698.941</ele><time>2021-06-29T12:24:19Z</time></trkpt><trkpt lat="42.594688" lon="1.443182"><ele>2713.515</ele><time>2021-06-29T12:25:17Z</time></trkpt><trkpt lat="42.594619" lon="1.443085"><ele>2719.008</ele><time>2021-06-29T12:25:30Z</time></trkpt><trkpt lat="42.594608" lon="1.442514"><ele>2724.784</ele><time>2021-06-29T12:26:26Z</time></trkpt><trkpt lat="42.594506" lon="1.442545"><ele>2729.613</ele><time>2021-06-29T12:26:40Z</time></trkpt><trkpt lat="42.594433" lon="1.442504"><ele>2733.966</ele><time>2021-06-29T12:26:50Z</time></trkpt><trkpt lat="42.594401" lon="1.442519"><ele>2736.386</ele><time>2021-06-29T12:26:55Z</time></trkpt><trkpt lat="42.594302" lon="1.442412"><ele>2745.263</ele><time>2021-06-29T12:27:12Z</time></trkpt><trkpt lat="42.594242" lon="1.442384"><ele>2749.964</ele><time>2021-06-29T12:27:20Z</time></trkpt><trkpt lat="42.594222" lon="1.442309"><ele>2751.970</ele><time>2021-06-29T12:27:28Z</time></trkpt><trkpt lat="42.594224" lon="1.442199"><ele>2752.843</ele><time>2021-06-29T12:27:39Z</time></trkpt><trkpt lat="42.594213" lon="1.442093"><ele>2755.949</ele><time>2021-06-29T12:27:49Z</time></trkpt><trkpt lat="42.594184" lon="1.442080"><ele>2758.002</ele><time>2021-06-29T12:27:53Z</time></trkpt><trkpt lat="42.594140" lon="1.441843"><ele>2767.922</ele><time>2021-06-29T12:28:17Z</time></trkpt><trkpt lat="42.594141" lon="1.441781"><ele>2770.208</ele><time>2021-06-29T12:28:24Z</time></trkpt><trkpt lat="42.594112" lon="1.441776"><ele>2772.481</ele><time>2021-06-29T12:28:27Z</time></trkpt><trkpt lat="42.594011" lon="1.441738"><ele>2780.630</ele><time>2021-06-29T12:28:42Z</time></trkpt><trkpt lat="42.594013" lon="1.441604"><ele>2787.633</ele><time>2021-06-29T12:28:55Z</time></trkpt><trkpt lat="42.593923" lon="1.441570"><ele>2794.893</ele><time>2021-06-29T12:29:07Z</time></trkpt><trkpt lat="42.593789" lon="1.441571"><ele>2804.020</ele><time>2021-06-29T12:29:25Z</time></trkpt><trkpt lat="42.593663" lon="1.441570"><ele>2813.611</ele><time>2021-06-29T12:29:42Z</time></trkpt><trkpt lat="42.593521" lon="1.441443"><ele>2824.697</ele><time>2021-06-29T12:30:04Z</time></trkpt><trkpt lat="42.593352" lon="1.441327"><ele>2824.850</ele><time>2021-06-29T12:30:30Z</time></trkpt><trkpt lat="42.593129" lon="1.441490"><ele>2831.528</ele><time>2021-06-29T12:31:04Z</time></trkpt><trkpt lat="42.593019" lon="1.441689"><ele>2843.589</ele><time>2021-06-29T12:31:28Z</time></trkpt><trkpt lat="42.592781" lon="1.441840"><ele>2853.217</ele><time>2021-06-29T12:32:03Z</time></trkpt><trkpt lat="42.592817" lon="1.441958"><ele>2860.808</ele><time>2021-06-29T12:32:16Z</time></trkpt><trkpt lat="42.592766" lon="1.442071"><ele>2867.449</ele><time>2021-06-29T12:32:29Z</time></trkpt><trkpt lat="42.592745" lon="1.442174"><ele>2873.618</ele><time>2021-06-29T12:32:39Z</time></trkpt><trkpt lat="42.592660" lon="1.442215"><ele>2877.221</ele><time>2021-06-29T12:32:51Z</time></trkpt><trkpt lat="42.592647" lon="1.442398"><ele>2884.791</ele><time>2021-06-29T12:33:09Z</time></trkpt><trkpt lat="42.592564" lon="1.442479"><ele>2891.758</ele><time>2021-06-29T12:33:23Z</time></trkpt><trkpt lat="42.592544" lon="1.442621"><ele>2895.769</ele><time>2021-06-29T12:33:37Z</time></trkpt><trkpt lat="42.592244" lon="1.443009"><ele>2916.855</ele><time>2021-06-29T12:34:32Z</time></trkpt><trkpt lat="42.592137" lon="1.443188"><ele>2921.028</ele><time>2021-06-29T12:34:55Z</time></trkpt><trkpt lat="42.591993" lon="1.443302"><ele>2927.083</ele><time>2021-06-29T12:35:17Z</time></trkpt><trkpt lat="42.591861" lon="1.443498"><ele>2930.925</ele><time>2021-06-29T12:35:43Z</time></trkpt><trkpt lat="42.591842" lon="1.443639"><ele>2932.417</ele><time>2021-06-29T12:35:57Z</time></trkpt><trkpt lat="42.591811" lon="1.443615"><ele>2932.908</ele><time>2021-06-29T12:36:02Z</time></trkpt><trkpt lat="42.591797" lon="1.443497"><ele>2930.225</ele><time>2021-06-29T12:36:14Z</time></trkpt><trkpt lat="42.591810" lon="1.443419"><ele>2928.624</ele><time>2021-06-29T12:36:22Z</time></trkpt><trkpt lat="42.591884" lon="1.443170"><ele>2920.627</ele><time>2021-06-29T12:36:48Z</time></trkpt><trkpt lat="42.591853" lon="1.443128"><ele>2917.677</ele><time>2021-06-29T12:36:54Z</time></trkpt><trkpt lat="42.591920" lon="1.442909"><ele>2907.844</ele><time>2021-06-29T12:37:17Z</time></trkpt><trkpt lat="42.591953" lon="1.442868"><ele>2906.485</ele><time>2021-06-29T12:37:23Z</time></trkpt><trkpt lat="42.591945" lon="1.442822"><ele>2903.621</ele><time>2021-06-29T12:37:28Z</time></trkpt><trkpt lat="42.591986" lon="1.442708"><ele>2897.994</ele><time>2021-06-29T12:37:40Z</time></trkpt><trkpt lat="42.592019" lon="1.442596"><ele>2892.056</ele><time>2021-06-29T12:37:52Z</time></trkpt><trkpt lat="42.592029" lon="1.442471"><ele>2884.759</ele><time>2021-06-29T12:38:04Z</time></trkpt><trkpt lat="42.592060" lon="1.442428"><ele>2882.914</ele><time>2021-06-29T12:38:10Z</time></trkpt><trkpt lat="42.592057" lon="1.442366"><ele>2879.008</ele><time>2021-06-29T12:38:16Z</time></trkpt><trkpt lat="42.592090" lon="1.442261"><ele>2873.682</ele><time>2021-06-29T12:38:28Z</time></trkpt><trkpt lat="42.592194" lon="1.441921"><ele>2853.991</ele><time>2021-06-29T12:39:04Z</time></trkpt><trkpt lat="42.592311" lon="1.441852"><ele>2851.144</ele><time>2021-06-29T12:39:21Z</time></trkpt><trkpt lat="42.592367" lon="1.441708"><ele>2841.964</ele><time>2021-06-29T12:39:37Z</time></trkpt><trkpt lat="42.592322" lon="1.441666"><ele>2838.771</ele><time>2021-06-29T12:39:44Z</time></trkpt><trkpt lat="42.592412" lon="1.441491"><ele>2828.662</ele><time>2021-06-29T12:40:05Z</time></trkpt><trkpt lat="42.592424" lon="1.441397"><ele>2822.978</ele><time>2021-06-29T12:40:15Z</time></trkpt><trkpt lat="42.592553" lon="1.441244"><ele>2814.651</ele><time>2021-06-29T12:40:38Z</time></trkpt><trkpt lat="42.592399" lon="1.441067"><ele>2803.388</ele><time>2021-06-29T12:41:05Z</time></trkpt><trkpt lat="42.592408" lon="1.440975"><ele>2798.324</ele><time>2021-06-29T12:41:14Z</time></trkpt><trkpt lat="42.592435" lon="1.440926"><ele>2795.826</ele><time>2021-06-29T12:41:20Z</time></trkpt><trkpt lat="42.592403" lon="1.440919"><ele>2795.308</ele><time>2021-06-29T12:41:24Z</time></trkpt><trkpt lat="42.592438" lon="1.440840"><ele>2791.175</ele><time>2021-06-29T12:41:33Z</time></trkpt><trkpt lat="42.592617" lon="1.440745"><ele>2788.424</ele><time>2021-06-29T12:41:59Z</time></trkpt><trkpt lat="42.592670" lon="1.440582"><ele>2782.277</ele><time>2021-06-29T12:42:16Z</time></trkpt><trkpt lat="42.592667" lon="1.440449"><ele>2778.587</ele><time>2021-06-29T12:42:29Z</time></trkpt><trkpt lat="42.592626" lon="1.440136"><ele>2772.334</ele><time>2021-06-29T12:43:01Z</time></trkpt><trkpt lat="42.592534" lon="1.439928"><ele>2769.615</ele><time>2021-06-29T12:43:24Z</time></trkpt><trkpt lat="42.592428" lon="1.439849"><ele>2766.721</ele><time>2021-06-29T12:43:41Z</time></trkpt><trkpt lat="42.592325" lon="1.439650"><ele>2763.274</ele><time>2021-06-29T12:44:04Z</time></trkpt><trkpt lat="42.592251" lon="1.439470"><ele>2760.179</ele><time>2021-06-29T12:44:25Z</time></trkpt><trkpt lat="42.592069" lon="1.439354"><ele>2754.005</ele><time>2021-06-29T12:44:51Z</time></trkpt><trkpt lat="42.591981" lon="1.439435"><ele>2750.425</ele><time>2021-06-29T12:45:06Z</time></trkpt><trkpt lat="42.591785" lon="1.439492"><ele>2742.208</ele><time>2021-06-29T12:45:32Z</time></trkpt><trkpt lat="42.591655" lon="1.439324"><ele>2736.164</ele><time>2021-06-29T12:45:56Z</time></trkpt><trkpt lat="42.591389" lon="1.439169"><ele>2723.053</ele><time>2021-06-29T12:46:35Z</time></trkpt><trkpt lat="42.591320" lon="1.439005"><ele>2719.956</ele><time>2021-06-29T12:46:53Z</time></trkpt><trkpt lat="42.591079" lon="1.438918"><ele>2713.616</ele><time>2021-06-29T12:47:27Z</time></trkpt><trkpt lat="42.590907" lon="1.438791"><ele>2706.663</ele><time>2021-06-29T12:47:53Z</time></trkpt><trkpt lat="42.590773" lon="1.438658"><ele>2701.064</ele><time>2021-06-29T12:48:15Z</time></trkpt><trkpt lat="42.590734" lon="1.438436"><ele>2695.850</ele><time>2021-06-29T12:48:37Z</time></trkpt><trkpt lat="42.590558" lon="1.438348"><ele>2688.443</ele><time>2021-06-29T12:49:02Z</time></trkpt><trkpt lat="42.590492" lon="1.438388"><ele>2687.486</ele><time>2021-06-29T12:49:12Z</time></trkpt><trkpt lat="42.590128" lon="1.438215"><ele>2674.060</ele><time>2021-06-29T12:50:04Z</time></trkpt><trkpt lat="42.589954" lon="1.438066"><ele>2666.526</ele><time>2021-06-29T12:50:31Z</time></trkpt><trkpt lat="42.589195" lon="1.437727"><ele>2645.808</ele><time>2021-06-29T12:52:18Z</time></trkpt><trkpt lat="42.588820" lon="1.437426"><ele>2634.125</ele><time>2021-06-29T12:53:16Z</time></trkpt><trkpt lat="42.588676" lon="1.437457"><ele>2634.224</ele><time>2021-06-29T12:53:35Z</time></trkpt><trkpt lat="42.588571" lon="1.437499"><ele>2634.327</ele><time>2021-06-29T12:53:50Z</time></trkpt><trkpt lat="42.588427" lon="1.437595"><ele>2635.557</ele><time>2021-06-29T12:54:11Z</time></trkpt><trkpt lat="42.588293" lon="1.437742"><ele>2636.824</ele><time>2021-06-29T12:54:34Z</time></trkpt><trkpt lat="42.588088" lon="1.437833"><ele>2632.835</ele><time>2021-06-29T12:55:03Z</time></trkpt><trkpt lat="42.587943" lon="1.438071"><ele>2634.251</ele><time>2021-06-29T12:55:33Z</time></trkpt><trkpt lat="42.587762" lon="1.438021"><ele>2632.414</ele><time>2021-06-29T12:55:58Z</time></trkpt><trkpt lat="42.587491" lon="1.437560"><ele>2632.693</ele><time>2021-06-29T12:56:56Z</time></trkpt><trkpt lat="42.587271" lon="1.437212"><ele>2633.865</ele><time>2021-06-29T12:57:41Z</time></trkpt><trkpt lat="42.587027" lon="1.436896"><ele>2633.221</ele><time>2021-06-29T12:58:26Z</time></trkpt><trkpt lat="42.586921" lon="1.436722"><ele>2632.908</ele><time>2021-06-29T12:58:48Z</time></trkpt><trkpt lat="42.586754" lon="1.436702"><ele>2634.316</ele><time>2021-06-29T12:59:11Z</time></trkpt><trkpt lat="42.586412" lon="1.436512"><ele>2632.565</ele><time>2021-06-29T13:00:00Z</time></trkpt><trkpt lat="42.585846" lon="1.436379"><ele>2620.478</ele><time>2021-06-29T13:01:17Z</time></trkpt><trkpt lat="42.585607" lon="1.436310"><ele>2615.698</ele><time>2021-06-29T13:01:49Z</time></trkpt><trkpt lat="42.585328" lon="1.436301"><ele>2608.255</ele><time>2021-06-29T13:02:26Z</time></trkpt><trkpt lat="42.585062" lon="1.436109"><ele>2596.476</ele><time>2021-06-29T13:03:07Z</time></trkpt><trkpt lat="42.584727" lon="1.436085"><ele>2593.012</ele><time>2021-06-29T13:03:51Z</time></trkpt><trkpt lat="42.584673" lon="1.435823"><ele>2593.425</ele><time>2021-06-29T13:04:18Z</time></trkpt><trkpt lat="42.584601" lon="1.435580"><ele>2593.737</ele><time>2021-06-29T13:04:44Z</time></trkpt><trkpt lat="42.584453" lon="1.435100"><ele>2589.649</ele><time>2021-06-29T13:05:35Z</time></trkpt><trkpt lat="42.584240" lon="1.434963"><ele>2584.113</ele><time>2021-06-29T13:06:06Z</time></trkpt><trkpt lat="42.584022" lon="1.434867"><ele>2578.608</ele><time>2021-06-29T13:06:37Z</time></trkpt><trkpt lat="42.583876" lon="1.434791"><ele>2574.120</ele><time>2021-06-29T13:06:58Z</time></trkpt><trkpt lat="42.583600" lon="1.434543"><ele>2568.959</ele><time>2021-06-29T13:07:42Z</time></trkpt><trkpt lat="42.583180" lon="1.434151"><ele>2554.532</ele><time>2021-06-29T13:08:50Z</time></trkpt><trkpt lat="42.583050" lon="1.434071"><ele>2547.882</ele><time>2021-06-29T13:09:09Z</time></trkpt><trkpt lat="42.582883" lon="1.433980"><ele>2539.149</ele><time>2021-06-29T13:09:33Z</time></trkpt><trkpt lat="42.582802" lon="1.433867"><ele>2533.720</ele><time>2021-06-29T13:09:49Z</time></trkpt><trkpt lat="42.582680" lon="1.433787"><ele>2528.786</ele><time>2021-06-29T13:10:07Z</time></trkpt><trkpt lat="42.582592" lon="1.433804"><ele>2525.559</ele><time>2021-06-29T13:10:19Z</time></trkpt><trkpt lat="42.582509" lon="1.433581"><ele>2520.628</ele><time>2021-06-29T13:10:43Z</time></trkpt><trkpt lat="42.582375" lon="1.433521"><ele>2514.089</ele><time>2021-06-29T13:11:02Z</time></trkpt><trkpt lat="42.582231" lon="1.433284"><ele>2504.817</ele><time>2021-06-29T13:11:32Z</time></trkpt><trkpt lat="42.582185" lon="1.433130"><ele>2499.908</ele><time>2021-06-29T13:11:48Z</time></trkpt><trkpt lat="42.581954" lon="1.432430"><ele>2481.589</ele><time>2021-06-29T13:13:04Z</time></trkpt><trkpt lat="42.581711" lon="1.432929"><ele>2466.058</ele><time>2021-06-29T13:14:03Z</time></trkpt><trkpt lat="42.581473" lon="1.433444"><ele>2453.261</ele><time>2021-06-29T13:15:02Z</time></trkpt><trkpt lat="42.581318" lon="1.433874"><ele>2441.571</ele><time>2021-06-29T13:15:49Z</time></trkpt><trkpt lat="42.581240" lon="1.433951"><ele>2436.728</ele><time>2021-06-29T13:16:02Z</time></trkpt><trkpt lat="42.581069" lon="1.433868"><ele>2431.189</ele><time>2021-06-29T13:16:26Z</time></trkpt><trkpt lat="42.580933" lon="1.434111"><ele>2425.395</ele><time>2021-06-29T13:16:57Z</time></trkpt><trkpt lat="42.580829" lon="1.434804"><ele>2405.168</ele><time>2021-06-29T13:18:06Z</time></trkpt><trkpt lat="42.580725" lon="1.436111"><ele>2377.883</ele><time>2021-06-29T13:20:15Z</time></trkpt><trkpt lat="42.580601" lon="1.436667"><ele>2362.325</ele><time>2021-06-29T13:21:12Z</time></trkpt><trkpt lat="42.580595" lon="1.436860"><ele>2354.817</ele><time>2021-06-29T13:21:31Z</time></trkpt><trkpt lat="42.580301" lon="1.437164"><ele>2341.208</ele><time>2021-06-29T13:22:21Z</time></trkpt><trkpt lat="42.580194" lon="1.437294"><ele>2336.035</ele><time>2021-06-29T13:22:40Z</time></trkpt><trkpt lat="42.580172" lon="1.437579"><ele>2326.664</ele><time>2021-06-29T13:23:08Z</time></trkpt><trkpt lat="42.580022" lon="1.437842"><ele>2317.667</ele><time>2021-06-29T13:23:41Z</time></trkpt><trkpt lat="42.579964" lon="1.438169"><ele>2308.517</ele><time>2021-06-29T13:24:14Z</time></trkpt><trkpt lat="42.579948" lon="1.438870"><ele>2288.484</ele><time>2021-06-29T13:25:23Z</time></trkpt><trkpt lat="42.579900" lon="1.439343"><ele>2279.045</ele><time>2021-06-29T13:26:09Z</time></trkpt><trkpt lat="42.580110" lon="1.440627"><ele>2265.191</ele><time>2021-06-29T13:28:19Z</time></trkpt><trkpt lat="42.580060" lon="1.441513"><ele>2257.574</ele><time>2021-06-29T13:29:46Z</time></trkpt><trkpt lat="42.580039" lon="1.441993"><ele>2254.545</ele><time>2021-06-29T13:30:33Z</time></trkpt><trkpt lat="42.580041" lon="1.442389"><ele>2252.647</ele><time>2021-06-29T13:31:12Z</time></trkpt><trkpt lat="42.580094" lon="1.442589"><ele>2251.111</ele><time>2021-06-29T13:31:33Z</time></trkpt><trkpt lat="42.580062" lon="1.443473"><ele>2244.508</ele><time>2021-06-29T13:33:00Z</time></trkpt><trkpt lat="42.580197" lon="1.444094"><ele>2235.511</ele><time>2021-06-29T13:34:04Z</time></trkpt><trkpt lat="42.580237" lon="1.444490"><ele>2228.490</ele><time>2021-06-29T13:34:43Z</time></trkpt><trkpt lat="42.580235" lon="1.444799"><ele>2224.513</ele><time>2021-06-29T13:35:13Z</time></trkpt><trkpt lat="42.580229" lon="1.445064"><ele>2222.013</ele><time>2021-06-29T13:35:39Z</time></trkpt><trkpt lat="42.580333" lon="1.445908"><ele>2213.020</ele><time>2021-06-29T13:37:03Z</time></trkpt><trkpt lat="42.580356" lon="1.446530"><ele>2210.091</ele><time>2021-06-29T13:38:05Z</time></trkpt><trkpt lat="42.580370" lon="1.447532"><ele>2208.797</ele><time>2021-06-29T13:39:43Z</time></trkpt><trkpt lat="42.580356" lon="1.447924"><ele>2210.610</ele><time>2021-06-29T13:40:22Z</time></trkpt><trkpt lat="42.580122" lon="1.448381"><ele>2219.672</ele><time>2021-06-29T13:41:16Z</time></trkpt><trkpt lat="42.580049" lon="1.448869"><ele>2226.413</ele><time>2021-06-29T13:42:05Z</time></trkpt><trkpt lat="42.580013" lon="1.449994"><ele>2205.914</ele><time>2021-06-29T13:43:56Z</time></trkpt><trkpt lat="42.579991" lon="1.450413"><ele>2194.008</ele><time>2021-06-29T13:44:37Z</time></trkpt><trkpt lat="42.579960" lon="1.450690"><ele>2184.454</ele><time>2021-06-29T13:45:05Z</time></trkpt><trkpt lat="42.579915" lon="1.450776"><ele>2179.813</ele><time>2021-06-29T13:45:15Z</time></trkpt><trkpt lat="42.579895" lon="1.451057"><ele>2168.786</ele><time>2021-06-29T13:45:43Z</time></trkpt><trkpt lat="42.579840" lon="1.451359"><ele>2155.576</ele><time>2021-06-29T13:46:13Z</time></trkpt><trkpt lat="42.579784" lon="1.451341"><ele>2153.563</ele><time>2021-06-29T13:46:21Z</time></trkpt><trkpt lat="42.579822" lon="1.451479"><ele>2150.374</ele><time>2021-06-29T13:46:35Z</time></trkpt><trkpt lat="42.579745" lon="1.451497"><ele>2146.490</ele><time>2021-06-29T13:46:46Z</time></trkpt><trkpt lat="42.579793" lon="1.451785"><ele>2140.613</ele><time>2021-06-29T13:47:15Z</time></trkpt><trkpt lat="42.579745" lon="1.451953"><ele>2138.134</ele><time>2021-06-29T13:47:33Z</time></trkpt><trkpt lat="42.579839" lon="1.452213"><ele>2137.155</ele><time>2021-06-29T13:48:01Z</time></trkpt><trkpt lat="42.580172" lon="1.452644"><ele>2131.010</ele><time>2021-06-29T13:49:02Z</time></trkpt><trkpt lat="42.580323" lon="1.453260"><ele>2116.008</ele><time>2021-06-29T13:50:06Z</time></trkpt><trkpt lat="42.580348" lon="1.453426"><ele>2110.220</ele><time>2021-06-29T13:50:23Z</time></trkpt><trkpt lat="42.580353" lon="1.453594"><ele>2104.029</ele><time>2021-06-29T13:50:39Z</time></trkpt><trkpt lat="42.580466" lon="1.453738"><ele>2092.832</ele><time>2021-06-29T13:51:00Z</time></trkpt><trkpt lat="42.580609" lon="1.453885"><ele>2081.262</ele><time>2021-06-29T13:51:24Z</time></trkpt><trkpt lat="42.580726" lon="1.454155"><ele>2070.849</ele><time>2021-06-29T13:51:55Z</time></trkpt><trkpt lat="42.580919" lon="1.454827"><ele>2052.060</ele><time>2021-06-29T13:53:06Z</time></trkpt><trkpt lat="42.580918" lon="1.455199"><ele>2048.436</ele><time>2021-06-29T13:53:42Z</time></trkpt><trkpt lat="42.581030" lon="1.455522"><ele>2043.759</ele><time>2021-06-29T13:54:17Z</time></trkpt><trkpt lat="42.581003" lon="1.455685"><ele>2043.531</ele><time>2021-06-29T13:54:34Z</time></trkpt><trkpt lat="42.581169" lon="1.455910"><ele>2036.761</ele><time>2021-06-29T13:55:05Z</time></trkpt><trkpt lat="42.581167" lon="1.456170"><ele>2033.307</ele><time>2021-06-29T13:55:31Z</time></trkpt><trkpt lat="42.581300" lon="1.456634"><ele>2021.308</ele><time>2021-06-29T13:56:20Z</time></trkpt><trkpt lat="42.581312" lon="1.457521"><ele>1994.490</ele><time>2021-06-29T13:57:47Z</time></trkpt><trkpt lat="42.581434" lon="1.457732"><ele>1985.099</ele><time>2021-06-29T13:58:13Z</time></trkpt><trkpt lat="42.581481" lon="1.457906"><ele>1981.892</ele><time>2021-06-29T13:58:31Z</time></trkpt><trkpt lat="42.581451" lon="1.458320"><ele>1977.752</ele><time>2021-06-29T13:59:12Z</time></trkpt><trkpt lat="42.581507" lon="1.458682"><ele>1969.899</ele><time>2021-06-29T13:59:49Z</time></trkpt><trkpt lat="42.581573" lon="1.458885"><ele>1962.540</ele><time>2021-06-29T14:00:10Z</time></trkpt><trkpt lat="42.581646" lon="1.459244"><ele>1952.316</ele><time>2021-06-29T14:00:47Z</time></trkpt><trkpt lat="42.581685" lon="1.459418"><ele>1948.969</ele><time>2021-06-29T14:01:05Z</time></trkpt><trkpt lat="42.581837" lon="1.460135"><ele>1931.716</ele><time>2021-06-29T14:02:18Z</time></trkpt><trkpt lat="42.581681" lon="1.460543"><ele>1926.776</ele><time>2021-06-29T14:03:03Z</time></trkpt><trkpt lat="42.581707" lon="1.461064"><ele>1922.613</ele><time>2021-06-29T14:03:55Z</time></trkpt><trkpt lat="42.581799" lon="1.461842"><ele>1923.708</ele><time>2021-06-29T14:05:12Z</time></trkpt><trkpt lat="42.581965" lon="1.462185"><ele>1918.158</ele><time>2021-06-29T14:05:52Z</time></trkpt><trkpt lat="42.582080" lon="1.462511"><ele>1914.877</ele><time>2021-06-29T14:06:28Z</time></trkpt><trkpt lat="42.582108" lon="1.462658"><ele>1913.490</ele><time>2021-06-29T14:06:43Z</time></trkpt><trkpt lat="42.582100" lon="1.463163"><ele>1908.570</ele><time>2021-06-29T14:07:32Z</time></trkpt><trkpt lat="42.581995" lon="1.463902"><ele>1885.847</ele><time>2021-06-29T14:08:46Z</time></trkpt><trkpt lat="42.581898" lon="1.464074"><ele>1885.058</ele><time>2021-06-29T14:09:08Z</time></trkpt><trkpt lat="42.581881" lon="1.464286"><ele>1877.994</ele><time>2021-06-29T14:09:29Z</time></trkpt><trkpt lat="42.581882" lon="1.464381"><ele>1874.517</ele><time>2021-06-29T14:09:38Z</time></trkpt><trkpt lat="42.581969" lon="1.464284"><ele>1872.214</ele><time>2021-06-29T14:09:53Z</time></trkpt><trkpt lat="42.582029" lon="1.464205"><ele>1871.254</ele><time>2021-06-29T14:10:04Z</time></trkpt><trkpt lat="42.582178" lon="1.464161"><ele>1863.109</ele><time>2021-06-29T14:10:24Z</time></trkpt><trkpt lat="42.582273" lon="1.464374"><ele>1849.408</ele><time>2021-06-29T14:10:49Z</time></trkpt><trkpt lat="42.582345" lon="1.464391"><ele>1843.548</ele><time>2021-06-29T14:10:59Z</time></trkpt><trkpt lat="42.582327" lon="1.464478"><ele>1842.167</ele><time>2021-06-29T14:11:07Z</time></trkpt><trkpt lat="42.582320" lon="1.464745"><ele>1835.230</ele><time>2021-06-29T14:11:34Z</time></trkpt><trkpt lat="42.582355" lon="1.464842"><ele>1831.080</ele><time>2021-06-29T14:11:44Z</time></trkpt><trkpt lat="42.582511" lon="1.464730"><ele>1823.257</ele><time>2021-06-29T14:12:08Z</time></trkpt><trkpt lat="42.582636" lon="1.464793"><ele>1815.068</ele><time>2021-06-29T14:12:26Z</time></trkpt><trkpt lat="42.582698" lon="1.464834"><ele>1810.924</ele><time>2021-06-29T14:12:35Z</time></trkpt><trkpt lat="42.582776" lon="1.464841"><ele>1806.417</ele><time>2021-06-29T14:12:45Z</time></trkpt><trkpt lat="42.582849" lon="1.464993"><ele>1800.812</ele><time>2021-06-29T14:13:03Z</time></trkpt><trkpt lat="42.582924" lon="1.465097"><ele>1796.132</ele><time>2021-06-29T14:13:17Z</time></trkpt><trkpt lat="42.582996" lon="1.465036"><ele>1793.405</ele><time>2021-06-29T14:13:29Z</time></trkpt><trkpt lat="42.583136" lon="1.464576"><ele>1796.108</ele><time>2021-06-29T14:14:18Z</time></trkpt><trkpt lat="42.583273" lon="1.464653"><ele>1791.218</ele><time>2021-06-29T14:14:37Z</time></trkpt><trkpt lat="42.583572" lon="1.464976"><ele>1784.467</ele><time>2021-06-29T14:15:28Z</time></trkpt><trkpt lat="42.583872" lon="1.465169"><ele>1786.650</ele><time>2021-06-29T14:16:13Z</time></trkpt><trkpt lat="42.583786" lon="1.465787"><ele>1779.440</ele><time>2021-06-29T14:17:14Z</time></trkpt><trkpt lat="42.583770" lon="1.466613"><ele>1761.517</ele><time>2021-06-29T14:18:36Z</time></trkpt><trkpt lat="42.583931" lon="1.467206"><ele>1749.088</ele><time>2021-06-29T14:19:38Z</time></trkpt><trkpt lat="42.584054" lon="1.467414"><ele>1751.834</ele><time>2021-06-29T14:20:04Z</time></trkpt><trkpt lat="42.583745" lon="1.467901"><ele>1728.587</ele><time>2021-06-29T14:21:07Z</time></trkpt><trkpt lat="42.583889" lon="1.468384"><ele>1731.778</ele><time>2021-06-29T14:21:58Z</time></trkpt><trkpt lat="42.583595" lon="1.469304"><ele>1736.033</ele><time>2021-06-29T14:23:37Z</time></trkpt><trkpt lat="42.583215" lon="1.470132"><ele>1737.126</ele><time>2021-06-29T14:25:13Z</time></trkpt><trkpt lat="42.582747" lon="1.470788"><ele>1722.908</ele><time>2021-06-29T14:26:42Z</time></trkpt><trkpt lat="42.581596" lon="1.471861"><ele>1688.124</ele><time>2021-06-29T14:29:49Z</time></trkpt><trkpt lat="42.581200" lon="1.472761"><ele>1682.233</ele><time>2021-06-29T14:31:32Z</time></trkpt><trkpt lat="42.581225" lon="1.473717"><ele>1664.596</ele><time>2021-06-29T14:33:06Z</time></trkpt><trkpt lat="42.581140" lon="1.475008"><ele>1655.716</ele><time>2021-06-29T14:35:13Z</time></trkpt><trkpt lat="42.581379" lon="1.476036"><ele>1646.173</ele><time>2021-06-29T14:36:59Z</time></trkpt><trkpt lat="42.581335" lon="1.476500"><ele>1639.534</ele><time>2021-06-29T14:37:45Z</time></trkpt><trkpt lat="42.581032" lon="1.477281"><ele>1627.280</ele><time>2021-06-29T14:39:12Z</time></trkpt><trkpt lat="42.580567" lon="1.478391"><ele>1610.023</ele><time>2021-06-29T14:41:17Z</time></trkpt><trkpt lat="42.580541" lon="1.478799"><ele>1608.769</ele><time>2021-06-29T14:41:57Z</time></trkpt><trkpt lat="42.580401" lon="1.479213"><ele>1605.204</ele><time>2021-06-29T14:42:42Z</time></trkpt><trkpt lat="42.580153" lon="1.479343"><ele>1595.424</ele><time>2021-06-29T14:43:18Z</time></trkpt><trkpt lat="42.579890" lon="1.478617"><ele>1582.808</ele><time>2021-06-29T14:44:37Z</time></trkpt><trkpt lat="42.579662" lon="1.478732"><ele>1576.113</ele><time>2021-06-29T14:45:10Z</time></trkpt><trkpt lat="42.579587" lon="1.478550"><ele>1572.882</ele><time>2021-06-29T14:45:30Z</time></trkpt><trkpt lat="42.579592" lon="1.478192"><ele>1568.975</ele><time>2021-06-29T14:46:05Z</time></trkpt><trkpt lat="42.579598" lon="1.477769"><ele>1566.295</ele><time>2021-06-29T14:46:47Z</time></trkpt><trkpt lat="42.578994" lon="1.476717"><ele>1567.852</ele><time>2021-06-29T14:48:58Z</time></trkpt><trkpt lat="42.578347" lon="1.478282"><ele>1553.213</ele><time>2021-06-29T14:51:54Z</time></trkpt><trkpt lat="42.578121" lon="1.478895"><ele>1543.949</ele><time>2021-06-29T14:53:02Z</time></trkpt><trkpt lat="42.578232" lon="1.479116"><ele>1545.712</ele><time>2021-06-29T14:53:28Z</time></trkpt><trkpt lat="42.577343" lon="1.480594"><ele>1529.386</ele><time>2021-06-29T14:56:35Z</time></trkpt><trkpt lat="42.576040" lon="1.481392"><ele>1509.760</ele><time>2021-06-29T14:59:46Z</time></trkpt><trkpt lat="42.575344" lon="1.481392"><ele>1500.726</ele><time>2021-06-29T15:01:19Z</time></trkpt><trkpt lat="42.575014" lon="1.481490"><ele>1496.508</ele><time>2021-06-29T15:02:04Z</time></trkpt><trkpt lat="42.574962" lon="1.481349"><ele>1497.845</ele><time>2021-06-29T15:02:20Z</time></trkpt><trkpt lat="42.574206" lon="1.481555"><ele>1497.554</ele><time>2021-06-29T15:04:03Z</time></trkpt><trkpt lat="42.573478" lon="1.481402"><ele>1501.237</ele><time>2021-06-29T15:05:41Z</time></trkpt><trkpt lat="42.572650" lon="1.481509"><ele>1495.187</ele><time>2021-06-29T15:07:32Z</time></trkpt><trkpt lat="42.572029" lon="1.481824"><ele>1488.664</ele><time>2021-06-29T15:09:00Z</time></trkpt><trkpt lat="42.571510" lon="1.482366"><ele>1486.825</ele><time>2021-06-29T15:10:28Z</time></trkpt><trkpt lat="42.571853" lon="1.483084"><ele>1472.281</ele><time>2021-06-29T15:11:52Z</time></trkpt><trkpt lat="42.572043" lon="1.483118"><ele>1470.034</ele><time>2021-06-29T15:12:17Z</time></trkpt></trkseg></trk></gpx>