<?xml version="1.0"?>
<gpx xmlns="http://www.topografix.com/GPX/1/1" xmlns:xsi="http://www.w3.org/2001/XMLSchema-instance" version="1.1" creator="AllTrails.com" xsi:schemaLocation="http://www.topografix.com/GPX/1/1 http://www.topografix.com/GPX/1/1/gpx.xsd">
  <metadata>
    <name><![CDATA[TrailRun_5giugno2022]]></name>
    <desc><![CDATA[Evento sportivo: TRAILRUN ALTA VALTELLINA (Val Viola) | 5 giugno 2022
Percorso della prova TrailRun, competitiva e riservata ai tesserati.]]></desc>
    <link href="http://www.alltrails.com">
      <text>AllTrails, LLC</text>
    </link>
    <bounds minlat="46.41862" minlon="10.15933" maxlat="46.46383" maxlon="10.2428"/>
  </metadata>
  <trk>
    <name><![CDATA[TrailRun_5giugno2022]]></name>
    <src>AllTrails</src>
    <trkseg>
      <trkpt lat="46.45846" lon="10.24076">
        <ele>1882.82</ele>
      </trkpt>
      <trkpt lat="46.45842" lon="10.24073">
        <ele>1883.46</ele>
      </trkpt>
      <trkpt lat="46.45796" lon="10.24038">
        <ele>1879.25</ele>
      </trkpt>
      <trkpt lat="46.45784" lon="10.24016">
        <ele>1879.67</ele>
      </trkpt>
      <trkpt lat="46.45764" lon="10.23978">
        <ele>1885.45</ele>
      </trkpt>
      <trkpt lat="46.4573" lon="10.23923">
        <ele>1890.01</ele>
      </trkpt>
      <trkpt lat="46.45703" lon="10.23876">
        <ele>1889.48</ele>
      </trkpt>
      <trkpt lat="46.45689" lon="10.23829">
        <ele>1889.12</ele>
      </trkpt>
      <trkpt lat="46.45651" lon="10.23768">
        <ele>1886.27</ele>
      </trkpt>
      <trkpt lat="46.45623" lon="10.2374">
        <ele>1883.58</ele>
      </trkpt>
      <trkpt lat="46.4561" lon="10.2371">
        <ele>1884.54</ele>
      </trkpt>
      <trkpt lat="46.45601" lon="10.23675">
        <ele>1883.09</ele>
      </trkpt>
      <trkpt lat="46.45598" lon="10.23613">
        <ele>1882.24</ele>
      </trkpt>
      <trkpt lat="46.4559" lon="10.2357">
        <ele>1883.67</ele>
      </trkpt>
      <trkpt lat="46.45564" lon="10.2353">
        <ele>1874.32</ele>
      </trkpt>
      <trkpt lat="46.45559" lon="10.235">
        <ele>1874.86</ele>
      </trkpt>
      <trkpt lat="46.45543" lon="10.23461">
        <ele>1875.05</ele>
      </trkpt>
      <trkpt lat="46.45536" lon="10.23418">
        <ele>1882.03</ele>
      </trkpt>
      <trkpt lat="46.45531" lon="10.23406">
        <ele>1883.62</ele>
      </trkpt>
      <trkpt lat="46.45517" lon="10.23386">
        <ele>1881.4</ele>
      </trkpt>
      <trkpt lat="46.4549" lon="10.23372">
        <ele>1872.46</ele>
      </trkpt>
      <trkpt lat="46.45474" lon="10.23357">
        <ele>1869.02</ele>
      </trkpt>
      <trkpt lat="46.45461" lon="10.23315">
        <ele>1875.64</ele>
      </trkpt>
      <trkpt lat="46.45445" lon="10.23292">
        <ele>1877.08</ele>
      </trkpt>
      <trkpt lat="46.45397" lon="10.23258">
        <ele>1878.74</ele>
      </trkpt>
      <trkpt lat="46.45377" lon="10.23252">
        <ele>1878.9</ele>
      </trkpt>
      <trkpt lat="46.45329" lon="10.23218">
        <ele>1881.18</ele>
      </trkpt>
      <trkpt lat="46.45321" lon="10.23169">
        <ele>1893.24</ele>
      </trkpt>
      <trkpt lat="46.45308" lon="10.23162">
        <ele>1891.3</ele>
      </trkpt>
      <trkpt lat="46.453" lon="10.23167">
        <ele>1887.06</ele>
      </trkpt>
      <trkpt lat="46.45271" lon="10.23155">
        <ele>1874.93</ele>
      </trkpt>
      <trkpt lat="46.45256" lon="10.23133">
        <ele>1880.05</ele>
      </trkpt>
      <trkpt lat="46.45188" lon="10.23094">
        <ele>1855.73</ele>
      </trkpt>
      <trkpt lat="46.45166" lon="10.23023">
        <ele>1868.57</ele>
      </trkpt>
      <trkpt lat="46.45152" lon="10.22992">
        <ele>1864.69</ele>
      </trkpt>
      <trkpt lat="46.45142" lon="10.22957">
        <ele>1857.8</ele>
      </trkpt>
      <trkpt lat="46.45142" lon="10.22926">
        <ele>1858.32</ele>
      </trkpt>
      <trkpt lat="46.45145" lon="10.22887">
        <ele>1863.64</ele>
      </trkpt>
      <trkpt lat="46.45149" lon="10.22853">
        <ele>1873.45</ele>
      </trkpt>
      <trkpt lat="46.45146" lon="10.22818">
        <ele>1878.71</ele>
      </trkpt>
      <trkpt lat="46.45134" lon="10.2277">
        <ele>1879.84</ele>
      </trkpt>
      <trkpt lat="46.45123" lon="10.22742">
        <ele>1880.07</ele>
      </trkpt>
      <trkpt lat="46.45103" lon="10.22725">
        <ele>1873.75</ele>
      </trkpt>
      <trkpt lat="46.45074" lon="10.22694">
        <ele>1869.05</ele>
      </trkpt>
      <trkpt lat="46.45048" lon="10.22672">
        <ele>1858.58</ele>
      </trkpt>
      <trkpt lat="46.45024" lon="10.22597">
        <ele>1871.23</ele>
      </trkpt>
      <trkpt lat="46.44996" lon="10.22538">
        <ele>1866.54</ele>
      </trkpt>
      <trkpt lat="46.44997" lon="10.22491">
        <ele>1874.09</ele>
      </trkpt>
      <trkpt lat="46.44993" lon="10.22476">
        <ele>1872.19</ele>
      </trkpt>
      <trkpt lat="46.44986" lon="10.2246">
        <ele>1870.14</ele>
      </trkpt>
      <trkpt lat="46.44988" lon="10.22429">
        <ele>1876.34</ele>
      </trkpt>
      <trkpt lat="46.44994" lon="10.22364">
        <ele>1889.38</ele>
      </trkpt>
      <trkpt lat="46.44991" lon="10.22351">
        <ele>1890.57</ele>
      </trkpt>
      <trkpt lat="46.44986" lon="10.2234">
        <ele>1891.15</ele>
      </trkpt>
      <trkpt lat="46.44938" lon="10.22309">
        <ele>1883.11</ele>
      </trkpt>
      <trkpt lat="46.44899" lon="10.22238">
        <ele>1880.17</ele>
      </trkpt>
      <trkpt lat="46.44879" lon="10.22181">
        <ele>1877.77</ele>
      </trkpt>
      <trkpt lat="46.44859" lon="10.2214">
        <ele>1877.93</ele>
      </trkpt>
      <trkpt lat="46.44838" lon="10.22116">
        <ele>1873.83</ele>
      </trkpt>
      <trkpt lat="46.44797" lon="10.221">
        <ele>1872.04</ele>
      </trkpt>
      <trkpt lat="46.44755" lon="10.22049">
        <ele>1880.95</ele>
      </trkpt>
      <trkpt lat="46.44726" lon="10.21995">
        <ele>1884.74</ele>
      </trkpt>
      <trkpt lat="46.44726" lon="10.21995">
        <ele>1884.74</ele>
      </trkpt>
      <trkpt lat="46.44726" lon="10.21995">
        <ele>1884.74</ele>
      </trkpt>
      <trkpt lat="46.44726" lon="10.21995">
        <ele>1884.74</ele>
      </trkpt>
      <trkpt lat="46.4472" lon="10.21983">
        <ele>1885.87</ele>
      </trkpt>
      <trkpt lat="46.44693" lon="10.21948">
        <ele>1886.0</ele>
      </trkpt>
      <trkpt lat="46.44664" lon="10.21909">
        <ele>1883.92</ele>
      </trkpt>
      <trkpt lat="46.44645" lon="10.21893">
        <ele>1879.58</ele>
      </trkpt>
      <trkpt lat="46.44637" lon="10.21859">
        <ele>1883.23</ele>
      </trkpt>
      <trkpt lat="46.44633" lon="10.21838">
        <ele>1885.0</ele>
      </trkpt>
      <trkpt lat="46.44627" lon="10.21817">
        <ele>1884.39</ele>
      </trkpt>
      <trkpt lat="46.44622" lon="10.21785">
        <ele>1883.56</ele>
      </trkpt>
      <trkpt lat="46.44618" lon="10.21758">
        <ele>1881.04</ele>
      </trkpt>
      <trkpt lat="46.44609" lon="10.21734">
        <ele>1877.47</ele>
      </trkpt>
      <trkpt lat="46.44601" lon="10.2172">
        <ele>1876.07</ele>
      </trkpt>
      <trkpt lat="46.44589" lon="10.21711">
        <ele>1873.77</ele>
      </trkpt>
      <trkpt lat="46.44576" lon="10.21706">
        <ele>1872.92</ele>
      </trkpt>
      <trkpt lat="46.44574" lon="10.21706">
        <ele>1872.92</ele>
      </trkpt>
      <trkpt lat="46.44564" lon="10.21666">
        <ele>1883.2</ele>
      </trkpt>
      <trkpt lat="46.44562" lon="10.21646">
        <ele>1885.08</ele>
      </trkpt>
      <trkpt lat="46.44557" lon="10.21633">
        <ele>1886.12</ele>
      </trkpt>
      <trkpt lat="46.44545" lon="10.21634">
        <ele>1887.09</ele>
      </trkpt>
      <trkpt lat="46.4453" lon="10.21639">
        <ele>1888.67</ele>
      </trkpt>
      <trkpt lat="46.44512" lon="10.21627">
        <ele>1893.91</ele>
      </trkpt>
      <trkpt lat="46.44472" lon="10.21511">
        <ele>1891.18</ele>
      </trkpt>
      <trkpt lat="46.44453" lon="10.21492">
        <ele>1891.39</ele>
      </trkpt>
      <trkpt lat="46.44429" lon="10.21473">
        <ele>1890.94</ele>
      </trkpt>
      <trkpt lat="46.44412" lon="10.2145">
        <ele>1887.06</ele>
      </trkpt>
      <trkpt lat="46.44414" lon="10.21442">
        <ele>1887.62</ele>
      </trkpt>
      <trkpt lat="46.44415" lon="10.2143">
        <ele>1888.25</ele>
      </trkpt>
      <trkpt lat="46.4443" lon="10.21379">
        <ele>1891.56</ele>
      </trkpt>
      <trkpt lat="46.44447" lon="10.2137">
        <ele>1891.46</ele>
      </trkpt>
      <trkpt lat="46.44476" lon="10.21369">
        <ele>1898.8</ele>
      </trkpt>
      <trkpt lat="46.44476" lon="10.21369">
        <ele>1898.8</ele>
      </trkpt>
      <trkpt lat="46.44476" lon="10.21369">
        <ele>1898.8</ele>
      </trkpt>
      <trkpt lat="46.44458" lon="10.21346">
        <ele>1896.65</ele>
      </trkpt>
      <trkpt lat="46.4444" lon="10.21278">
        <ele>1909.26</ele>
      </trkpt>
      <trkpt lat="46.44415" lon="10.21167">
        <ele>1921.9</ele>
      </trkpt>
      <trkpt lat="46.44389" lon="10.21091">
        <ele>1938.84</ele>
      </trkpt>
      <trkpt lat="46.44354" lon="10.21015">
        <ele>1934.65</ele>
      </trkpt>
      <trkpt lat="46.44325" lon="10.20924">
        <ele>1921.29</ele>
      </trkpt>
      <trkpt lat="46.44319" lon="10.20872">
        <ele>1933.9</ele>
      </trkpt>
      <trkpt lat="46.4428" lon="10.20843">
        <ele>1922.71</ele>
      </trkpt>
      <trkpt lat="46.44268" lon="10.20793">
        <ele>1925.1</ele>
      </trkpt>
      <trkpt lat="46.44237" lon="10.20688">
        <ele>1934.09</ele>
      </trkpt>
      <trkpt lat="46.44212" lon="10.20616">
        <ele>1935.95</ele>
      </trkpt>
      <trkpt lat="46.44199" lon="10.20532">
        <ele>1931.57</ele>
      </trkpt>
      <trkpt lat="46.44188" lon="10.20501">
        <ele>1932.54</ele>
      </trkpt>
      <trkpt lat="46.44171" lon="10.20451">
        <ele>1944.35</ele>
      </trkpt>
      <trkpt lat="46.44152" lon="10.20393">
        <ele>1952.17</ele>
      </trkpt>
      <trkpt lat="46.44134" lon="10.20333">
        <ele>1958.05</ele>
      </trkpt>
      <trkpt lat="46.44104" lon="10.20267">
        <ele>1966.43</ele>
      </trkpt>
      <trkpt lat="46.44104" lon="10.20267">
        <ele>1966.43</ele>
      </trkpt>
      <trkpt lat="46.44104" lon="10.20267">
        <ele>1966.43</ele>
      </trkpt>
      <trkpt lat="46.44097" lon="10.20262">
        <ele>1965.95</ele>
      </trkpt>
      <trkpt lat="46.44084" lon="10.20256">
        <ele>1964.47</ele>
      </trkpt>
      <trkpt lat="46.44081" lon="10.20252">
        <ele>1964.13</ele>
      </trkpt>
      <trkpt lat="46.4408" lon="10.20237">
        <ele>1965.03</ele>
      </trkpt>
      <trkpt lat="46.44077" lon="10.20207">
        <ele>1966.25</ele>
      </trkpt>
      <trkpt lat="46.44074" lon="10.20201">
        <ele>1965.66</ele>
      </trkpt>
      <trkpt lat="46.44064" lon="10.20196">
        <ele>1962.7</ele>
      </trkpt>
      <trkpt lat="46.44054" lon="10.20195">
        <ele>1960.28</ele>
      </trkpt>
      <trkpt lat="46.44043" lon="10.20198">
        <ele>1962.09</ele>
      </trkpt>
      <trkpt lat="46.44029" lon="10.20201">
        <ele>1964.1</ele>
      </trkpt>
      <trkpt lat="46.44006" lon="10.20203">
        <ele>1967.75</ele>
      </trkpt>
      <trkpt lat="46.43987" lon="10.202">
        <ele>1970.98</ele>
      </trkpt>
      <trkpt lat="46.43973" lon="10.20206">
        <ele>1972.87</ele>
      </trkpt>
      <trkpt lat="46.43961" lon="10.20209">
        <ele>1972.92</ele>
      </trkpt>
      <trkpt lat="46.43926" lon="10.20211">
        <ele>1973.56</ele>
      </trkpt>
      <trkpt lat="46.43906" lon="10.20207">
        <ele>1977.44</ele>
      </trkpt>
      <trkpt lat="46.43893" lon="10.20199">
        <ele>1981.52</ele>
      </trkpt>
      <trkpt lat="46.43854" lon="10.20177">
        <ele>1985.72</ele>
      </trkpt>
      <trkpt lat="46.43832" lon="10.20141">
        <ele>1985.31</ele>
      </trkpt>
      <trkpt lat="46.43755" lon="10.20106">
        <ele>1983.66</ele>
      </trkpt>
      <trkpt lat="46.43693" lon="10.20064">
        <ele>1983.28</ele>
      </trkpt>
      <trkpt lat="46.43678" lon="10.20049">
        <ele>1980.6</ele>
      </trkpt>
      <trkpt lat="46.43655" lon="10.20049">
        <ele>1971.75</ele>
      </trkpt>
      <trkpt lat="46.43638" lon="10.20034">
        <ele>1970.63</ele>
      </trkpt>
      <trkpt lat="46.43601" lon="10.20026">
        <ele>1973.89</ele>
      </trkpt>
      <trkpt lat="46.43601" lon="10.20026">
        <ele>1973.89</ele>
      </trkpt>
      <trkpt lat="46.43601" lon="10.20026">
        <ele>1973.89</ele>
      </trkpt>
      <trkpt lat="46.43582" lon="10.20008">
        <ele>1981.01</ele>
      </trkpt>
      <trkpt lat="46.4356" lon="10.19968">
        <ele>1989.41</ele>
      </trkpt>
      <trkpt lat="46.43517" lon="10.19933">
        <ele>2000.17</ele>
      </trkpt>
      <trkpt lat="46.43495" lon="10.19902">
        <ele>1994.12</ele>
      </trkpt>
      <trkpt lat="46.4346" lon="10.19859">
        <ele>1994.33</ele>
      </trkpt>
      <trkpt lat="46.43434" lon="10.19831">
        <ele>1989.56</ele>
      </trkpt>
      <trkpt lat="46.4342" lon="10.19803">
        <ele>1987.36</ele>
      </trkpt>
      <trkpt lat="46.43386" lon="10.19775">
        <ele>1983.1</ele>
      </trkpt>
      <trkpt lat="46.43371" lon="10.19773">
        <ele>1981.87</ele>
      </trkpt>
      <trkpt lat="46.43342" lon="10.19779">
        <ele>1979.19</ele>
      </trkpt>
      <trkpt lat="46.43288" lon="10.1977">
        <ele>1980.28</ele>
      </trkpt>
      <trkpt lat="46.43258" lon="10.1977">
        <ele>1987.93</ele>
      </trkpt>
      <trkpt lat="46.43186" lon="10.19738">
        <ele>2002.48</ele>
      </trkpt>
      <trkpt lat="46.43146" lon="10.19723">
        <ele>2008.39</ele>
      </trkpt>
      <trkpt lat="46.43115" lon="10.19703">
        <ele>2002.42</ele>
      </trkpt>
      <trkpt lat="46.43091" lon="10.19677">
        <ele>2003.87</ele>
      </trkpt>
      <trkpt lat="46.43077" lon="10.1967">
        <ele>2003.46</ele>
      </trkpt>
      <trkpt lat="46.43036" lon="10.19654">
        <ele>2004.42</ele>
      </trkpt>
      <trkpt lat="46.43036" lon="10.19654">
        <ele>2004.42</ele>
      </trkpt>
      <trkpt lat="46.43036" lon="10.19654">
        <ele>2004.42</ele>
      </trkpt>
      <trkpt lat="46.43027" lon="10.19652">
        <ele>2003.89</ele>
      </trkpt>
      <trkpt lat="46.43015" lon="10.19657">
        <ele>2004.61</ele>
      </trkpt>
      <trkpt lat="46.43001" lon="10.19646">
        <ele>2003.02</ele>
      </trkpt>
      <trkpt lat="46.42986" lon="10.19629">
        <ele>2001.11</ele>
      </trkpt>
      <trkpt lat="46.42968" lon="10.1963">
        <ele>2002.67</ele>
      </trkpt>
      <trkpt lat="46.4295" lon="10.19633">
        <ele>2008.02</ele>
      </trkpt>
      <trkpt lat="46.42936" lon="10.19628">
        <ele>2011.33</ele>
      </trkpt>
      <trkpt lat="46.42917" lon="10.19617">
        <ele>2015.89</ele>
      </trkpt>
      <trkpt lat="46.42907" lon="10.19622">
        <ele>2017.26</ele>
      </trkpt>
      <trkpt lat="46.42899" lon="10.19631">
        <ele>2017.69</ele>
      </trkpt>
      <trkpt lat="46.42886" lon="10.19648">
        <ele>2017.2</ele>
      </trkpt>
      <trkpt lat="46.42871" lon="10.19664">
        <ele>2019.13</ele>
      </trkpt>
      <trkpt lat="46.4285" lon="10.19666">
        <ele>2025.03</ele>
      </trkpt>
      <trkpt lat="46.42837" lon="10.19667">
        <ele>2027.29</ele>
      </trkpt>
      <trkpt lat="46.42825" lon="10.19664">
        <ele>2026.56</ele>
      </trkpt>
      <trkpt lat="46.42821" lon="10.19652">
        <ele>2026.25</ele>
      </trkpt>
      <trkpt lat="46.42806" lon="10.19645">
        <ele>2024.62</ele>
      </trkpt>
      <trkpt lat="46.4279" lon="10.19631">
        <ele>2023.73</ele>
      </trkpt>
      <trkpt lat="46.42784" lon="10.19613">
        <ele>2023.81</ele>
      </trkpt>
      <trkpt lat="46.42784" lon="10.19613">
        <ele>2023.81</ele>
      </trkpt>
      <trkpt lat="46.42782" lon="10.19608">
        <ele>2024.21</ele>
      </trkpt>
      <trkpt lat="46.42773" lon="10.19585">
        <ele>2029.55</ele>
      </trkpt>
      <trkpt lat="46.42776" lon="10.19567">
        <ele>2032.89</ele>
      </trkpt>
      <trkpt lat="46.42789" lon="10.19546">
        <ele>2036.33</ele>
      </trkpt>
      <trkpt lat="46.42794" lon="10.19535">
        <ele>2038.18</ele>
      </trkpt>
      <trkpt lat="46.42791" lon="10.19529">
        <ele>2040.36</ele>
      </trkpt>
      <trkpt lat="46.42784" lon="10.19527">
        <ele>2042.63</ele>
      </trkpt>
      <trkpt lat="46.42773" lon="10.19526">
        <ele>2045.56</ele>
      </trkpt>
      <trkpt lat="46.42765" lon="10.19533">
        <ele>2045.07</ele>
      </trkpt>
      <trkpt lat="46.42762" lon="10.19528">
        <ele>2047.34</ele>
      </trkpt>
      <trkpt lat="46.42762" lon="10.19519">
        <ele>2050.12</ele>
      </trkpt>
      <trkpt lat="46.4276" lon="10.19515">
        <ele>2051.81</ele>
      </trkpt>
      <trkpt lat="46.42751" lon="10.1952">
        <ele>2052.29</ele>
      </trkpt>
      <trkpt lat="46.42737" lon="10.1953">
        <ele>2050.8</ele>
      </trkpt>
      <trkpt lat="46.42727" lon="10.19531">
        <ele>2051.73</ele>
      </trkpt>
      <trkpt lat="46.4272" lon="10.19528">
        <ele>2053.51</ele>
      </trkpt>
      <trkpt lat="46.42718" lon="10.1952">
        <ele>2056.69</ele>
      </trkpt>
      <trkpt lat="46.42723" lon="10.19509">
        <ele>2059.66</ele>
      </trkpt>
      <trkpt lat="46.42725" lon="10.19497">
        <ele>2063.24</ele>
      </trkpt>
      <trkpt lat="46.42719" lon="10.19493">
        <ele>2064.86</ele>
      </trkpt>
      <trkpt lat="46.42712" lon="10.19499">
        <ele>2064.32</ele>
      </trkpt>
      <trkpt lat="46.42704" lon="10.19505">
        <ele>2063.64</ele>
      </trkpt>
      <trkpt lat="46.42701" lon="10.19502">
        <ele>2064.79</ele>
      </trkpt>
      <trkpt lat="46.427" lon="10.19492">
        <ele>2067.13</ele>
      </trkpt>
      <trkpt lat="46.42699" lon="10.19475">
        <ele>2070.91</ele>
      </trkpt>
      <trkpt lat="46.42694" lon="10.19471">
        <ele>2072.19</ele>
      </trkpt>
      <trkpt lat="46.42687" lon="10.19477">
        <ele>2073.38</ele>
      </trkpt>
      <trkpt lat="46.42676" lon="10.1949">
        <ele>2074.14</ele>
      </trkpt>
      <trkpt lat="46.42668" lon="10.19493">
        <ele>2076.08</ele>
      </trkpt>
      <trkpt lat="46.42657" lon="10.19497">
        <ele>2079.09</ele>
      </trkpt>
      <trkpt lat="46.42653" lon="10.19492">
        <ele>2081.51</ele>
      </trkpt>
      <trkpt lat="46.42646" lon="10.19469">
        <ele>2088.25</ele>
      </trkpt>
      <trkpt lat="46.42638" lon="10.19449">
        <ele>2094.37</ele>
      </trkpt>
      <trkpt lat="46.42619" lon="10.19431">
        <ele>2097.47</ele>
      </trkpt>
      <trkpt lat="46.42608" lon="10.19418">
        <ele>2096.43</ele>
      </trkpt>
      <trkpt lat="46.42587" lon="10.19413">
        <ele>2097.15</ele>
      </trkpt>
      <trkpt lat="46.4257" lon="10.19419">
        <ele>2099.9</ele>
      </trkpt>
      <trkpt lat="46.42516" lon="10.19463">
        <ele>2110.75</ele>
      </trkpt>
      <trkpt lat="46.42503" lon="10.1948">
        <ele>2112.74</ele>
      </trkpt>
      <trkpt lat="46.42473" lon="10.19507">
        <ele>2115.92</ele>
      </trkpt>
      <trkpt lat="46.42427" lon="10.1954">
        <ele>2127.62</ele>
      </trkpt>
      <trkpt lat="46.42341" lon="10.19609">
        <ele>2119.66</ele>
      </trkpt>
      <trkpt lat="46.42265" lon="10.19674">
        <ele>2119.41</ele>
      </trkpt>
      <trkpt lat="46.42234" lon="10.19683">
        <ele>2116.8</ele>
      </trkpt>
      <trkpt lat="46.42227" lon="10.19688">
        <ele>2116.63</ele>
      </trkpt>
      <trkpt lat="46.42178" lon="10.19766">
        <ele>2126.5</ele>
      </trkpt>
      <trkpt lat="46.42136" lon="10.19764">
        <ele>2126.45</ele>
      </trkpt>
      <trkpt lat="46.42136" lon="10.19764">
        <ele>2126.45</ele>
      </trkpt>
      <trkpt lat="46.42136" lon="10.19764">
        <ele>2126.45</ele>
      </trkpt>
      <trkpt lat="46.42136" lon="10.19764">
        <ele>2126.45</ele>
      </trkpt>
      <trkpt lat="46.42119" lon="10.19758">
        <ele>2121.94</ele>
      </trkpt>
      <trkpt lat="46.42086" lon="10.19776">
        <ele>2120.12</ele>
      </trkpt>
      <trkpt lat="46.42051" lon="10.19776">
        <ele>2121.84</ele>
      </trkpt>
      <trkpt lat="46.42041" lon="10.19778">
        <ele>2122.56</ele>
      </trkpt>
      <trkpt lat="46.42007" lon="10.19767">
        <ele>2120.72</ele>
      </trkpt>
      <trkpt lat="46.41989" lon="10.1976">
        <ele>2119.43</ele>
      </trkpt>
      <trkpt lat="46.41973" lon="10.19742">
        <ele>2117.21</ele>
      </trkpt>
      <trkpt lat="46.41967" lon="10.1974">
        <ele>2116.68</ele>
      </trkpt>
      <trkpt lat="46.41939" lon="10.19746">
        <ele>2116.64</ele>
      </trkpt>
      <trkpt lat="46.41936" lon="10.19743">
        <ele>2116.96</ele>
      </trkpt>
      <trkpt lat="46.41936" lon="10.19735">
        <ele>2116.68</ele>
      </trkpt>
      <trkpt lat="46.41931" lon="10.19718">
        <ele>2117.7</ele>
      </trkpt>
      <trkpt lat="46.41932" lon="10.19709">
        <ele>2119.22</ele>
      </trkpt>
      <trkpt lat="46.41943" lon="10.19702">
        <ele>2119.5</ele>
      </trkpt>
      <trkpt lat="46.41939" lon="10.19687">
        <ele>2123.91</ele>
      </trkpt>
      <trkpt lat="46.41928" lon="10.19676">
        <ele>2127.64</ele>
      </trkpt>
      <trkpt lat="46.41917" lon="10.19667">
        <ele>2129.93</ele>
      </trkpt>
      <trkpt lat="46.41891" lon="10.19641">
        <ele>2133.91</ele>
      </trkpt>
      <trkpt lat="46.41865" lon="10.19627">
        <ele>2139.52</ele>
      </trkpt>
      <trkpt lat="46.41865" lon="10.19627">
        <ele>2139.52</ele>
      </trkpt>
      <trkpt lat="46.41865" lon="10.19627">
        <ele>2139.52</ele>
      </trkpt>
      <trkpt lat="46.42006" lon="10.19499">
        <ele>2130.36</ele>
      </trkpt>
      <trkpt lat="46.4206" lon="10.19479">
        <ele>2127.32</ele>
      </trkpt>
      <trkpt lat="46.42077" lon="10.19426">
        <ele>2131.98</ele>
      </trkpt>
      <trkpt lat="46.42084" lon="10.19367">
        <ele>2131.42</ele>
      </trkpt>
      <trkpt lat="46.42122" lon="10.19329">
        <ele>2128.81</ele>
      </trkpt>
      <trkpt lat="46.4214" lon="10.19321">
        <ele>2127.13</ele>
      </trkpt>
      <trkpt lat="46.42156" lon="10.19295">
        <ele>2127.0</ele>
      </trkpt>
      <trkpt lat="46.42158" lon="10.19278">
        <ele>2127.68</ele>
      </trkpt>
      <trkpt lat="46.42158" lon="10.19278">
        <ele>2127.68</ele>
      </trkpt>
      <trkpt lat="46.42158" lon="10.19278">
        <ele>2127.68</ele>
      </trkpt>
      <trkpt lat="46.42145" lon="10.19263">
        <ele>2126.92</ele>
      </trkpt>
      <trkpt lat="46.42119" lon="10.19201">
        <ele>2131.45</ele>
      </trkpt>
      <trkpt lat="46.42107" lon="10.19153">
        <ele>2143.28</ele>
      </trkpt>
      <trkpt lat="46.421" lon="10.19129">
        <ele>2148.28</ele>
      </trkpt>
      <trkpt lat="46.42095" lon="10.19094">
        <ele>2152.03</ele>
      </trkpt>
      <trkpt lat="46.42107" lon="10.1902">
        <ele>2151.37</ele>
      </trkpt>
      <trkpt lat="46.42105" lon="10.18961">
        <ele>2159.71</ele>
      </trkpt>
      <trkpt lat="46.42096" lon="10.18914">
        <ele>2166.34</ele>
      </trkpt>
      <trkpt lat="46.421" lon="10.18877">
        <ele>2164.97</ele>
      </trkpt>
      <trkpt lat="46.42092" lon="10.18839">
        <ele>2167.17</ele>
      </trkpt>
      <trkpt lat="46.42082" lon="10.18823">
        <ele>2169.9</ele>
      </trkpt>
      <trkpt lat="46.42072" lon="10.188">
        <ele>2174.81</ele>
      </trkpt>
      <trkpt lat="46.42069" lon="10.18783">
        <ele>2176.88</ele>
      </trkpt>
      <trkpt lat="46.42071" lon="10.18764">
        <ele>2176.88</ele>
      </trkpt>
      <trkpt lat="46.42058" lon="10.18735">
        <ele>2184.12</ele>
      </trkpt>
      <trkpt lat="46.42048" lon="10.18718">
        <ele>2189.4</ele>
      </trkpt>
      <trkpt lat="46.42044" lon="10.18699">
        <ele>2191.27</ele>
      </trkpt>
      <trkpt lat="46.42052" lon="10.18656">
        <ele>2189.08</ele>
      </trkpt>
      <trkpt lat="46.42057" lon="10.18625">
        <ele>2190.37</ele>
      </trkpt>
      <trkpt lat="46.42059" lon="10.18605">
        <ele>2190.96</ele>
      </trkpt>
      <trkpt lat="46.42056" lon="10.18582">
        <ele>2191.08</ele>
      </trkpt>
      <trkpt lat="46.42055" lon="10.18559">
        <ele>2192.0</ele>
      </trkpt>
      <trkpt lat="46.42068" lon="10.18532">
        <ele>2193.28</ele>
      </trkpt>
      <trkpt lat="46.42074" lon="10.18523">
        <ele>2194.22</ele>
      </trkpt>
      <trkpt lat="46.42082" lon="10.1852">
        <ele>2195.15</ele>
      </trkpt>
      <trkpt lat="46.42089" lon="10.18517">
        <ele>2196.36</ele>
      </trkpt>
      <trkpt lat="46.42094" lon="10.18515">
        <ele>2197.35</ele>
      </trkpt>
      <trkpt lat="46.42095" lon="10.18506">
        <ele>2198.12</ele>
      </trkpt>
      <trkpt lat="46.4209" lon="10.18488">
        <ele>2198.86</ele>
      </trkpt>
      <trkpt lat="46.42091" lon="10.18479">
        <ele>2200.05</ele>
      </trkpt>
      <trkpt lat="46.42094" lon="10.1847">
        <ele>2201.39</ele>
      </trkpt>
      <trkpt lat="46.42092" lon="10.18462">
        <ele>2202.04</ele>
      </trkpt>
      <trkpt lat="46.42086" lon="10.18452">
        <ele>2202.47</ele>
      </trkpt>
      <trkpt lat="46.42082" lon="10.18446">
        <ele>2202.83</ele>
      </trkpt>
      <trkpt lat="46.42078" lon="10.18438">
        <ele>2204.53</ele>
      </trkpt>
      <trkpt lat="46.42073" lon="10.18433">
        <ele>2205.58</ele>
      </trkpt>
      <trkpt lat="46.42076" lon="10.18423">
        <ele>2208.0</ele>
      </trkpt>
      <trkpt lat="46.42073" lon="10.18415">
        <ele>2209.44</ele>
      </trkpt>
      <trkpt lat="46.42075" lon="10.18405">
        <ele>2210.66</ele>
      </trkpt>
      <trkpt lat="46.42073" lon="10.18393">
        <ele>2211.81</ele>
      </trkpt>
      <trkpt lat="46.42069" lon="10.18377">
        <ele>2213.67</ele>
      </trkpt>
      <trkpt lat="46.42063" lon="10.18358">
        <ele>2215.27</ele>
      </trkpt>
      <trkpt lat="46.42063" lon="10.18348">
        <ele>2215.92</ele>
      </trkpt>
      <trkpt lat="46.42065" lon="10.18336">
        <ele>2217.19</ele>
      </trkpt>
      <trkpt lat="46.42063" lon="10.18326">
        <ele>2217.33</ele>
      </trkpt>
      <trkpt lat="46.42061" lon="10.18317">
        <ele>2217.43</ele>
      </trkpt>
      <trkpt lat="46.4206" lon="10.1831">
        <ele>2217.67</ele>
      </trkpt>
      <trkpt lat="46.42059" lon="10.183">
        <ele>2218.32</ele>
      </trkpt>
      <trkpt lat="46.42059" lon="10.18288">
        <ele>2219.56</ele>
      </trkpt>
      <trkpt lat="46.42059" lon="10.18274">
        <ele>2221.39</ele>
      </trkpt>
      <trkpt lat="46.42064" lon="10.18261">
        <ele>2224.59</ele>
      </trkpt>
      <trkpt lat="46.42063" lon="10.18252">
        <ele>2226.16</ele>
      </trkpt>
      <trkpt lat="46.42061" lon="10.1824">
        <ele>2228.19</ele>
      </trkpt>
      <trkpt lat="46.42059" lon="10.18231">
        <ele>2229.67</ele>
      </trkpt>
      <trkpt lat="46.42055" lon="10.18218">
        <ele>2231.51</ele>
      </trkpt>
      <trkpt lat="46.42049" lon="10.18201">
        <ele>2232.88</ele>
      </trkpt>
      <trkpt lat="46.42047" lon="10.18186">
        <ele>2233.95</ele>
      </trkpt>
      <trkpt lat="46.42045" lon="10.18174">
        <ele>2234.4</ele>
      </trkpt>
      <trkpt lat="46.4204" lon="10.18161">
        <ele>2234.79</ele>
      </trkpt>
      <trkpt lat="46.42043" lon="10.18151">
        <ele>2236.14</ele>
      </trkpt>
      <trkpt lat="46.42039" lon="10.18143">
        <ele>2236.1</ele>
      </trkpt>
      <trkpt lat="46.42038" lon="10.18132">
        <ele>2236.36</ele>
      </trkpt>
      <trkpt lat="46.42044" lon="10.18122">
        <ele>2237.76</ele>
      </trkpt>
      <trkpt lat="46.42046" lon="10.18108">
        <ele>2238.1</ele>
      </trkpt>
      <trkpt lat="46.4205" lon="10.18096">
        <ele>2237.8</ele>
      </trkpt>
      <trkpt lat="46.42054" lon="10.1808">
        <ele>2236.94</ele>
      </trkpt>
      <trkpt lat="46.42059" lon="10.18066">
        <ele>2237.76</ele>
      </trkpt>
      <trkpt lat="46.42064" lon="10.18056">
        <ele>2239.41</ele>
      </trkpt>
      <trkpt lat="46.42067" lon="10.18047">
        <ele>2240.62</ele>
      </trkpt>
      <trkpt lat="46.42067" lon="10.18038">
        <ele>2240.97</ele>
      </trkpt>
      <trkpt lat="46.42067" lon="10.18038">
        <ele>2240.97</ele>
      </trkpt>
      <trkpt lat="46.42067" lon="10.18038">
        <ele>2240.97</ele>
      </trkpt>
      <trkpt lat="46.42067" lon="10.18034">
        <ele>2241.12</ele>
      </trkpt>
      <trkpt lat="46.42062" lon="10.18023">
        <ele>2239.39</ele>
      </trkpt>
      <trkpt lat="46.42053" lon="10.18017">
        <ele>2236.08</ele>
      </trkpt>
      <trkpt lat="46.42049" lon="10.18009">
        <ele>2235.81</ele>
      </trkpt>
      <trkpt lat="46.42049" lon="10.17985">
        <ele>2238.09</ele>
      </trkpt>
      <trkpt lat="46.42043" lon="10.17952">
        <ele>2242.38</ele>
      </trkpt>
      <trkpt lat="46.42038" lon="10.17923">
        <ele>2245.64</ele>
      </trkpt>
      <trkpt lat="46.42033" lon="10.17906">
        <ele>2246.98</ele>
      </trkpt>
      <trkpt lat="46.42017" lon="10.17882">
        <ele>2248.46</ele>
      </trkpt>
      <trkpt lat="46.4201" lon="10.17862">
        <ele>2249.05</ele>
      </trkpt>
      <trkpt lat="46.42014" lon="10.17839">
        <ele>2250.71</ele>
      </trkpt>
      <trkpt lat="46.42024" lon="10.17813">
        <ele>2251.72</ele>
      </trkpt>
      <trkpt lat="46.42029" lon="10.17795">
        <ele>2252.67</ele>
      </trkpt>
      <trkpt lat="46.4203" lon="10.17775">
        <ele>2253.76</ele>
      </trkpt>
      <trkpt lat="46.42023" lon="10.17752">
        <ele>2254.43</ele>
      </trkpt>
      <trkpt lat="46.42018" lon="10.17729">
        <ele>2253.98</ele>
      </trkpt>
      <trkpt lat="46.4201" lon="10.17701">
        <ele>2252.31</ele>
      </trkpt>
      <trkpt lat="46.42008" lon="10.17691">
        <ele>2251.82</ele>
      </trkpt>
      <trkpt lat="46.42007" lon="10.17677">
        <ele>2251.98</ele>
      </trkpt>
      <trkpt lat="46.42001" lon="10.17663">
        <ele>2251.3</ele>
      </trkpt>
      <trkpt lat="46.42" lon="10.17645">
        <ele>2251.78</ele>
      </trkpt>
      <trkpt lat="46.42004" lon="10.17628">
        <ele>2251.98</ele>
      </trkpt>
      <trkpt lat="46.42008" lon="10.17611">
        <ele>2251.57</ele>
      </trkpt>
      <trkpt lat="46.42013" lon="10.17601">
        <ele>2251.77</ele>
      </trkpt>
      <trkpt lat="46.42015" lon="10.17588">
        <ele>2251.63</ele>
      </trkpt>
      <trkpt lat="46.42012" lon="10.17573">
        <ele>2251.96</ele>
      </trkpt>
      <trkpt lat="46.42007" lon="10.17561">
        <ele>2252.26</ele>
      </trkpt>
      <trkpt lat="46.42005" lon="10.17549">
        <ele>2251.97</ele>
      </trkpt>
      <trkpt lat="46.42004" lon="10.17538">
        <ele>2251.21</ele>
      </trkpt>
      <trkpt lat="46.42" lon="10.17528">
        <ele>2250.02</ele>
      </trkpt>
      <trkpt lat="46.41991" lon="10.17514">
        <ele>2249.68</ele>
      </trkpt>
      <trkpt lat="46.41987" lon="10.17501">
        <ele>2249.53</ele>
      </trkpt>
      <trkpt lat="46.41983" lon="10.17488">
        <ele>2249.92</ele>
      </trkpt>
      <trkpt lat="46.41986" lon="10.17477">
        <ele>2250.33</ele>
      </trkpt>
      <trkpt lat="46.41985" lon="10.17468">
        <ele>2250.77</ele>
      </trkpt>
      <trkpt lat="46.41982" lon="10.17456">
        <ele>2251.61</ele>
      </trkpt>
      <trkpt lat="46.41984" lon="10.17427">
        <ele>2252.51</ele>
      </trkpt>
      <trkpt lat="46.41985" lon="10.17406">
        <ele>2253.74</ele>
      </trkpt>
      <trkpt lat="46.41988" lon="10.17395">
        <ele>2254.74</ele>
      </trkpt>
      <trkpt lat="46.41989" lon="10.17382">
        <ele>2256.0</ele>
      </trkpt>
      <trkpt lat="46.41979" lon="10.17372">
        <ele>2256.35</ele>
      </trkpt>
      <trkpt lat="46.41979" lon="10.17364">
        <ele>2256.63</ele>
      </trkpt>
      <trkpt lat="46.4197" lon="10.17353">
        <ele>2256.33</ele>
      </trkpt>
      <trkpt lat="46.41969" lon="10.17335">
        <ele>2256.25</ele>
      </trkpt>
      <trkpt lat="46.41973" lon="10.17324">
        <ele>2256.51</ele>
      </trkpt>
      <trkpt lat="46.41971" lon="10.1731">
        <ele>2257.0</ele>
      </trkpt>
      <trkpt lat="46.41977" lon="10.17295">
        <ele>2258.58</ele>
      </trkpt>
      <trkpt lat="46.4198" lon="10.17267">
        <ele>2260.69</ele>
      </trkpt>
      <trkpt lat="46.41994" lon="10.17235">
        <ele>2263.28</ele>
      </trkpt>
      <trkpt lat="46.42004" lon="10.17208">
        <ele>2263.86</ele>
      </trkpt>
      <trkpt lat="46.42012" lon="10.17192">
        <ele>2265.69</ele>
      </trkpt>
      <trkpt lat="46.42022" lon="10.17187">
        <ele>2267.86</ele>
      </trkpt>
      <trkpt lat="46.4203" lon="10.17175">
        <ele>2269.14</ele>
      </trkpt>
      <trkpt lat="46.42038" lon="10.17169">
        <ele>2269.71</ele>
      </trkpt>
      <trkpt lat="46.42047" lon="10.1716">
        <ele>2271.34</ele>
      </trkpt>
      <trkpt lat="46.42046" lon="10.17149">
        <ele>2272.86</ele>
      </trkpt>
      <trkpt lat="46.42042" lon="10.17135">
        <ele>2274.72</ele>
      </trkpt>
      <trkpt lat="46.42037" lon="10.17116">
        <ele>2277.78</ele>
      </trkpt>
      <trkpt lat="46.42029" lon="10.17099">
        <ele>2280.63</ele>
      </trkpt>
      <trkpt lat="46.42009" lon="10.17062">
        <ele>2283.94</ele>
      </trkpt>
      <trkpt lat="46.41999" lon="10.1703">
        <ele>2285.8</ele>
      </trkpt>
      <trkpt lat="46.41994" lon="10.17018">
        <ele>2286.41</ele>
      </trkpt>
      <trkpt lat="46.41995" lon="10.17008">
        <ele>2287.12</ele>
      </trkpt>
      <trkpt lat="46.41989" lon="10.16993">
        <ele>2287.56</ele>
      </trkpt>
      <trkpt lat="46.41984" lon="10.16981">
        <ele>2287.93</ele>
      </trkpt>
      <trkpt lat="46.4198" lon="10.16958">
        <ele>2290.18</ele>
      </trkpt>
      <trkpt lat="46.41975" lon="10.16926">
        <ele>2293.13</ele>
      </trkpt>
      <trkpt lat="46.41967" lon="10.1691">
        <ele>2293.91</ele>
      </trkpt>
      <trkpt lat="46.41959" lon="10.16879">
        <ele>2294.69</ele>
      </trkpt>
      <trkpt lat="46.41958" lon="10.16841">
        <ele>2295.72</ele>
      </trkpt>
      <trkpt lat="46.41966" lon="10.16781">
        <ele>2297.75</ele>
      </trkpt>
      <trkpt lat="46.4196" lon="10.16757">
        <ele>2299.71</ele>
      </trkpt>
      <trkpt lat="46.41942" lon="10.1671">
        <ele>2303.44</ele>
      </trkpt>
      <trkpt lat="46.41916" lon="10.16661">
        <ele>2305.69</ele>
      </trkpt>
      <trkpt lat="46.41901" lon="10.16623">
        <ele>2310.51</ele>
      </trkpt>
      <trkpt lat="46.41891" lon="10.16607">
        <ele>2311.94</ele>
      </trkpt>
      <trkpt lat="46.41885" lon="10.16593">
        <ele>2312.65</ele>
      </trkpt>
      <trkpt lat="46.41869" lon="10.16549">
        <ele>2311.29</ele>
      </trkpt>
      <trkpt lat="46.41862" lon="10.16527">
        <ele>2310.07</ele>
      </trkpt>
      <trkpt lat="46.41863" lon="10.16499">
        <ele>2309.03</ele>
      </trkpt>
      <trkpt lat="46.41869" lon="10.16462">
        <ele>2306.38</ele>
      </trkpt>
      <trkpt lat="46.41871" lon="10.16442">
        <ele>2305.42</ele>
      </trkpt>
      <trkpt lat="46.41882" lon="10.16413">
        <ele>2302.69</ele>
      </trkpt>
      <trkpt lat="46.41894" lon="10.16395">
        <ele>2302.77</ele>
      </trkpt>
      <trkpt lat="46.41908" lon="10.16376">
        <ele>2303.57</ele>
      </trkpt>
      <trkpt lat="46.41918" lon="10.16355">
        <ele>2304.1</ele>
      </trkpt>
      <trkpt lat="46.41923" lon="10.16341">
        <ele>2306.71</ele>
      </trkpt>
      <trkpt lat="46.41934" lon="10.16332">
        <ele>2308.98</ele>
      </trkpt>
      <trkpt lat="46.41947" lon="10.16326">
        <ele>2311.09</ele>
      </trkpt>
      <trkpt lat="46.41953" lon="10.16316">
        <ele>2312.53</ele>
      </trkpt>
      <trkpt lat="46.41953" lon="10.16316">
        <ele>2312.53</ele>
      </trkpt>
      <trkpt lat="46.41953" lon="10.16316">
        <ele>2312.53</ele>
      </trkpt>
      <trkpt lat="46.41942" lon="10.16287">
        <ele>2315.11</ele>
      </trkpt>
      <trkpt lat="46.4193" lon="10.16265">
        <ele>2314.56</ele>
      </trkpt>
      <trkpt lat="46.41917" lon="10.16249">
        <ele>2315.09</ele>
      </trkpt>
      <trkpt lat="46.4191" lon="10.16232">
        <ele>2315.39</ele>
      </trkpt>
      <trkpt lat="46.4191" lon="10.16218">
        <ele>2316.59</ele>
      </trkpt>
      <trkpt lat="46.41915" lon="10.16195">
        <ele>2317.0</ele>
      </trkpt>
      <trkpt lat="46.4192" lon="10.16184">
        <ele>2316.59</ele>
      </trkpt>
      <trkpt lat="46.41936" lon="10.16175">
        <ele>2314.42</ele>
      </trkpt>
      <trkpt lat="46.41933" lon="10.16155">
        <ele>2314.72</ele>
      </trkpt>
      <trkpt lat="46.41931" lon="10.16143">
        <ele>2314.96</ele>
      </trkpt>
      <trkpt lat="46.41929" lon="10.16119">
        <ele>2315.11</ele>
      </trkpt>
      <trkpt lat="46.41955" lon="10.16067">
        <ele>2312.85</ele>
      </trkpt>
      <trkpt lat="46.41937" lon="10.16041">
        <ele>2315.58</ele>
      </trkpt>
      <trkpt lat="46.41933" lon="10.16007">
        <ele>2314.92</ele>
      </trkpt>
      <trkpt lat="46.41934" lon="10.15996">
        <ele>2313.77</ele>
      </trkpt>
      <trkpt lat="46.41966" lon="10.15969">
        <ele>2310.57</ele>
      </trkpt>
      <trkpt lat="46.41986" lon="10.15952">
        <ele>2308.78</ele>
      </trkpt>
      <trkpt lat="46.42002" lon="10.15933">
        <ele>2308.8</ele>
      </trkpt>
      <trkpt lat="46.42014" lon="10.15935">
        <ele>2309.53</ele>
      </trkpt>
      <trkpt lat="46.4202" lon="10.15938">
        <ele>2309.75</ele>
      </trkpt>
      <trkpt lat="46.42023" lon="10.15949">
        <ele>2309.92</ele>
      </trkpt>
      <trkpt lat="46.42023" lon="10.15949">
        <ele>2309.92</ele>
      </trkpt>
      <trkpt lat="46.42023" lon="10.15949">
        <ele>2309.92</ele>
      </trkpt>
      <trkpt lat="46.42025" lon="10.15968">
        <ele>2312.07</ele>
      </trkpt>
      <trkpt lat="46.42047" lon="10.16095">
        <ele>2316.75</ele>
      </trkpt>
      <trkpt lat="46.42066" lon="10.16143">
        <ele>2318.3</ele>
      </trkpt>
      <trkpt lat="46.42093" lon="10.16185">
        <ele>2317.75</ele>
      </trkpt>
      <trkpt lat="46.42148" lon="10.16253">
        <ele>2315.98</ele>
      </trkpt>
      <trkpt lat="46.42159" lon="10.16286">
        <ele>2315.64</ele>
      </trkpt>
      <trkpt lat="46.4219" lon="10.16354">
        <ele>2312.68</ele>
      </trkpt>
      <trkpt lat="46.42203" lon="10.16364">
        <ele>2313.1</ele>
      </trkpt>
      <trkpt lat="46.4222" lon="10.16426">
        <ele>2309.64</ele>
      </trkpt>
      <trkpt lat="46.42241" lon="10.16475">
        <ele>2310.27</ele>
      </trkpt>
      <trkpt lat="46.42241" lon="10.16475">
        <ele>2310.27</ele>
      </trkpt>
      <trkpt lat="46.42241" lon="10.16475">
        <ele>2310.27</ele>
      </trkpt>
      <trkpt lat="46.42266" lon="10.16531">
        <ele>2309.27</ele>
      </trkpt>
      <trkpt lat="46.4229" lon="10.16587">
        <ele>2306.98</ele>
      </trkpt>
      <trkpt lat="46.42304" lon="10.16596">
        <ele>2308.38</ele>
      </trkpt>
      <trkpt lat="46.42311" lon="10.16607">
        <ele>2308.42</ele>
      </trkpt>
      <trkpt lat="46.42322" lon="10.16668">
        <ele>2306.31</ele>
      </trkpt>
      <trkpt lat="46.42356" lon="10.16743">
        <ele>2308.85</ele>
      </trkpt>
      <trkpt lat="46.42364" lon="10.16781">
        <ele>2309.48</ele>
      </trkpt>
      <trkpt lat="46.42374" lon="10.16849">
        <ele>2306.22</ele>
      </trkpt>
      <trkpt lat="46.42384" lon="10.16916">
        <ele>2305.36</ele>
      </trkpt>
      <trkpt lat="46.42393" lon="10.16984">
        <ele>2297.44</ele>
      </trkpt>
      <trkpt lat="46.42403" lon="10.17052">
        <ele>2294.68</ele>
      </trkpt>
      <trkpt lat="46.42413" lon="10.1712">
        <ele>2296.53</ele>
      </trkpt>
      <trkpt lat="46.42423" lon="10.17187">
        <ele>2298.19</ele>
      </trkpt>
      <trkpt lat="46.42433" lon="10.17255">
        <ele>2300.06</ele>
      </trkpt>
      <trkpt lat="46.42442" lon="10.17323">
        <ele>2297.43</ele>
      </trkpt>
      <trkpt lat="46.42452" lon="10.1739">
        <ele>2287.43</ele>
      </trkpt>
      <trkpt lat="46.42462" lon="10.17458">
        <ele>2291.54</ele>
      </trkpt>
      <trkpt lat="46.42466" lon="10.17545">
        <ele>2288.83</ele>
      </trkpt>
      <trkpt lat="46.42466" lon="10.17545">
        <ele>2288.83</ele>
      </trkpt>
      <trkpt lat="46.42466" lon="10.17545">
        <ele>2288.83</ele>
      </trkpt>
      <trkpt lat="46.42469" lon="10.17612">
        <ele>2289.04</ele>
      </trkpt>
      <trkpt lat="46.42472" lon="10.17678">
        <ele>2282.76</ele>
      </trkpt>
      <trkpt lat="46.42475" lon="10.17745">
        <ele>2279.51</ele>
      </trkpt>
      <trkpt lat="46.42478" lon="10.17812">
        <ele>2276.26</ele>
      </trkpt>
      <trkpt lat="46.42481" lon="10.17878">
        <ele>2279.38</ele>
      </trkpt>
      <trkpt lat="46.42484" lon="10.17945">
        <ele>2278.12</ele>
      </trkpt>
      <trkpt lat="46.42478" lon="10.1802">
        <ele>2279.25</ele>
      </trkpt>
      <trkpt lat="46.42483" lon="10.18043">
        <ele>2278.68</ele>
      </trkpt>
      <trkpt lat="46.42483" lon="10.18043">
        <ele>2278.68</ele>
      </trkpt>
      <trkpt lat="46.42483" lon="10.18043">
        <ele>2278.68</ele>
      </trkpt>
      <trkpt lat="46.42483" lon="10.18074">
        <ele>2274.46</ele>
      </trkpt>
      <trkpt lat="46.4249" lon="10.18099">
        <ele>2269.9</ele>
      </trkpt>
      <trkpt lat="46.42496" lon="10.18115">
        <ele>2266.51</ele>
      </trkpt>
      <trkpt lat="46.42521" lon="10.18128">
        <ele>2264.8</ele>
      </trkpt>
      <trkpt lat="46.42538" lon="10.18154">
        <ele>2260.27</ele>
      </trkpt>
      <trkpt lat="46.42539" lon="10.18181">
        <ele>2253.03</ele>
      </trkpt>
      <trkpt lat="46.42543" lon="10.18227">
        <ele>2242.15</ele>
      </trkpt>
      <trkpt lat="46.42546" lon="10.18263">
        <ele>2236.72</ele>
      </trkpt>
      <trkpt lat="46.42552" lon="10.18288">
        <ele>2233.79</ele>
      </trkpt>
      <trkpt lat="46.42558" lon="10.18302">
        <ele>2231.83</ele>
      </trkpt>
      <trkpt lat="46.42573" lon="10.18323">
        <ele>2230.3</ele>
      </trkpt>
      <trkpt lat="46.42573" lon="10.18363">
        <ele>2225.12</ele>
      </trkpt>
      <trkpt lat="46.4258" lon="10.18397">
        <ele>2222.1</ele>
      </trkpt>
      <trkpt lat="46.42591" lon="10.18437">
        <ele>2220.8</ele>
      </trkpt>
      <trkpt lat="46.42598" lon="10.18451">
        <ele>2220.91</ele>
      </trkpt>
      <trkpt lat="46.42606" lon="10.18475">
        <ele>2218.52</ele>
      </trkpt>
      <trkpt lat="46.42624" lon="10.18511">
        <ele>2217.53</ele>
      </trkpt>
      <trkpt lat="46.42638" lon="10.18531">
        <ele>2214.44</ele>
      </trkpt>
      <trkpt lat="46.42658" lon="10.1858">
        <ele>2200.51</ele>
      </trkpt>
      <trkpt lat="46.42661" lon="10.18603">
        <ele>2192.36</ele>
      </trkpt>
      <trkpt lat="46.42673" lon="10.18621">
        <ele>2189.37</ele>
      </trkpt>
      <trkpt lat="46.42682" lon="10.18645">
        <ele>2182.87</ele>
      </trkpt>
      <trkpt lat="46.42711" lon="10.1869">
        <ele>2180.8</ele>
      </trkpt>
      <trkpt lat="46.42741" lon="10.18728">
        <ele>2178.24</ele>
      </trkpt>
      <trkpt lat="46.42761" lon="10.18765">
        <ele>2173.74</ele>
      </trkpt>
      <trkpt lat="46.42761" lon="10.18765">
        <ele>2173.74</ele>
      </trkpt>
      <trkpt lat="46.42761" lon="10.18765">
        <ele>2173.74</ele>
      </trkpt>
      <trkpt lat="46.42783" lon="10.1879">
        <ele>2170.56</ele>
      </trkpt>
      <trkpt lat="46.42806" lon="10.18823">
        <ele>2164.27</ele>
      </trkpt>
      <trkpt lat="46.42824" lon="10.18839">
        <ele>2161.98</ele>
      </trkpt>
      <trkpt lat="46.42845" lon="10.18877">
        <ele>2160.33</ele>
      </trkpt>
      <trkpt lat="46.42856" lon="10.18891">
        <ele>2158.85</ele>
      </trkpt>
      <trkpt lat="46.42867" lon="10.18891">
        <ele>2159.45</ele>
      </trkpt>
      <trkpt lat="46.42906" lon="10.18922">
        <ele>2156.64</ele>
      </trkpt>
      <trkpt lat="46.42931" lon="10.18934">
        <ele>2150.45</ele>
      </trkpt>
      <trkpt lat="46.42949" lon="10.18942">
        <ele>2146.99</ele>
      </trkpt>
      <trkpt lat="46.42973" lon="10.18963">
        <ele>2143.59</ele>
      </trkpt>
      <trkpt lat="46.43003" lon="10.18997">
        <ele>2144.51</ele>
      </trkpt>
      <trkpt lat="46.43018" lon="10.1902">
        <ele>2141.1</ele>
      </trkpt>
      <trkpt lat="46.4304" lon="10.19046">
        <ele>2135.93</ele>
      </trkpt>
      <trkpt lat="46.43059" lon="10.19057">
        <ele>2135.53</ele>
      </trkpt>
      <trkpt lat="46.43079" lon="10.19064">
        <ele>2133.69</ele>
      </trkpt>
      <trkpt lat="46.43104" lon="10.19085">
        <ele>2129.47</ele>
      </trkpt>
      <trkpt lat="46.43118" lon="10.19101">
        <ele>2127.1</ele>
      </trkpt>
      <trkpt lat="46.43139" lon="10.19131">
        <ele>2124.59</ele>
      </trkpt>
      <trkpt lat="46.43175" lon="10.19154">
        <ele>2125.79</ele>
      </trkpt>
      <trkpt lat="46.43192" lon="10.1917">
        <ele>2122.7</ele>
      </trkpt>
      <trkpt lat="46.43207" lon="10.19186">
        <ele>2121.25</ele>
      </trkpt>
      <trkpt lat="46.43221" lon="10.19201">
        <ele>2119.68</ele>
      </trkpt>
      <trkpt lat="46.43233" lon="10.19212">
        <ele>2119.07</ele>
      </trkpt>
      <trkpt lat="46.43248" lon="10.19225">
        <ele>2117.0</ele>
      </trkpt>
      <trkpt lat="46.43259" lon="10.19241">
        <ele>2110.45</ele>
      </trkpt>
      <trkpt lat="46.43264" lon="10.19256">
        <ele>2104.37</ele>
      </trkpt>
      <trkpt lat="46.43272" lon="10.19267">
        <ele>2102.42</ele>
      </trkpt>
      <trkpt lat="46.4331" lon="10.19297">
        <ele>2106.61</ele>
      </trkpt>
      <trkpt lat="46.43324" lon="10.19307">
        <ele>2109.96</ele>
      </trkpt>
      <trkpt lat="46.43343" lon="10.19319">
        <ele>2112.17</ele>
      </trkpt>
      <trkpt lat="46.43355" lon="10.19328">
        <ele>2112.09</ele>
      </trkpt>
      <trkpt lat="46.43368" lon="10.19338">
        <ele>2109.29</ele>
      </trkpt>
      <trkpt lat="46.43384" lon="10.19349">
        <ele>2103.27</ele>
      </trkpt>
      <trkpt lat="46.43397" lon="10.19351">
        <ele>2102.89</ele>
      </trkpt>
      <trkpt lat="46.43403" lon="10.19352">
        <ele>2103.31</ele>
      </trkpt>
      <trkpt lat="46.43403" lon="10.19352">
        <ele>2103.31</ele>
      </trkpt>
      <trkpt lat="46.43403" lon="10.19352">
        <ele>2103.31</ele>
      </trkpt>
      <trkpt lat="46.4341" lon="10.19353">
        <ele>2103.84</ele>
      </trkpt>
      <trkpt lat="46.4342" lon="10.19348">
        <ele>2107.5</ele>
      </trkpt>
      <trkpt lat="46.43431" lon="10.19347">
        <ele>2111.99</ele>
      </trkpt>
      <trkpt lat="46.43438" lon="10.1935">
        <ele>2113.59</ele>
      </trkpt>
      <trkpt lat="46.43446" lon="10.19361">
        <ele>2112.32</ele>
      </trkpt>
      <trkpt lat="46.43455" lon="10.19365">
        <ele>2113.06</ele>
      </trkpt>
      <trkpt lat="46.43463" lon="10.19368">
        <ele>2113.85</ele>
      </trkpt>
      <trkpt lat="46.43469" lon="10.1937">
        <ele>2114.5</ele>
      </trkpt>
      <trkpt lat="46.43485" lon="10.19375">
        <ele>2114.46</ele>
      </trkpt>
      <trkpt lat="46.43485" lon="10.19375">
        <ele>2114.46</ele>
      </trkpt>
      <trkpt lat="46.43485" lon="10.19375">
        <ele>2114.46</ele>
      </trkpt>
      <trkpt lat="46.43487" lon="10.19376">
        <ele>2114.39</ele>
      </trkpt>
      <trkpt lat="46.43503" lon="10.19398">
        <ele>2113.99</ele>
      </trkpt>
      <trkpt lat="46.43524" lon="10.19418">
        <ele>2118.53</ele>
      </trkpt>
      <trkpt lat="46.4354" lon="10.19441">
        <ele>2119.97</ele>
      </trkpt>
      <trkpt lat="46.43563" lon="10.19473">
        <ele>2117.8</ele>
      </trkpt>
      <trkpt lat="46.43573" lon="10.19497">
        <ele>2113.85</ele>
      </trkpt>
      <trkpt lat="46.43586" lon="10.1952">
        <ele>2111.69</ele>
      </trkpt>
      <trkpt lat="46.43608" lon="10.19554">
        <ele>2108.01</ele>
      </trkpt>
      <trkpt lat="46.43625" lon="10.19572">
        <ele>2106.78</ele>
      </trkpt>
      <trkpt lat="46.4364" lon="10.196">
        <ele>2098.69</ele>
      </trkpt>
      <trkpt lat="46.43655" lon="10.19622">
        <ele>2090.66</ele>
      </trkpt>
      <trkpt lat="46.43676" lon="10.19648">
        <ele>2085.05</ele>
      </trkpt>
      <trkpt lat="46.43687" lon="10.19688">
        <ele>2080.97</ele>
      </trkpt>
      <trkpt lat="46.43703" lon="10.19737">
        <ele>2082.18</ele>
      </trkpt>
      <trkpt lat="46.4372" lon="10.19767">
        <ele>2083.22</ele>
      </trkpt>
      <trkpt lat="46.4372" lon="10.19767">
        <ele>2083.22</ele>
      </trkpt>
      <trkpt lat="46.4372" lon="10.19767">
        <ele>2083.22</ele>
      </trkpt>
      <trkpt lat="46.43736" lon="10.19793">
        <ele>2082.68</ele>
      </trkpt>
      <trkpt lat="46.43769" lon="10.19833">
        <ele>2069.02</ele>
      </trkpt>
      <trkpt lat="46.4383" lon="10.19853">
        <ele>2076.22</ele>
      </trkpt>
      <trkpt lat="46.43841" lon="10.1987">
        <ele>2073.23</ele>
      </trkpt>
      <trkpt lat="46.43843" lon="10.19873">
        <ele>2072.86</ele>
      </trkpt>
      <trkpt lat="46.43851" lon="10.19892">
        <ele>2069.49</ele>
      </trkpt>
      <trkpt lat="46.43866" lon="10.19906">
        <ele>2071.34</ele>
      </trkpt>
      <trkpt lat="46.43888" lon="10.19931">
        <ele>2069.73</ele>
      </trkpt>
      <trkpt lat="46.43888" lon="10.19931">
        <ele>2069.73</ele>
      </trkpt>
      <trkpt lat="46.439" lon="10.19894">
        <ele>2080.51</ele>
      </trkpt>
      <trkpt lat="46.439" lon="10.19894">
        <ele>2080.51</ele>
      </trkpt>
      <trkpt lat="46.43896" lon="10.19849">
        <ele>2090.73</ele>
      </trkpt>
      <trkpt lat="46.43896" lon="10.19849">
        <ele>2090.73</ele>
      </trkpt>
      <trkpt lat="46.43909" lon="10.19838">
        <ele>2092.8</ele>
      </trkpt>
      <trkpt lat="46.43909" lon="10.19838">
        <ele>2092.8</ele>
      </trkpt>
      <trkpt lat="46.43907" lon="10.19804">
        <ele>2106.62</ele>
      </trkpt>
      <trkpt lat="46.43907" lon="10.19804">
        <ele>2106.62</ele>
      </trkpt>
      <trkpt lat="46.43912" lon="10.19772">
        <ele>2122.54</ele>
      </trkpt>
      <trkpt lat="46.43912" lon="10.19772">
        <ele>2122.54</ele>
      </trkpt>
      <trkpt lat="46.43925" lon="10.19753">
        <ele>2126.83</ele>
      </trkpt>
      <trkpt lat="46.43925" lon="10.19753">
        <ele>2126.83</ele>
      </trkpt>
      <trkpt lat="46.43923" lon="10.19721">
        <ele>2137.34</ele>
      </trkpt>
      <trkpt lat="46.43923" lon="10.19721">
        <ele>2137.34</ele>
      </trkpt>
      <trkpt lat="46.43923" lon="10.19694">
        <ele>2142.89</ele>
      </trkpt>
      <trkpt lat="46.43923" lon="10.19694">
        <ele>2142.89</ele>
      </trkpt>
      <trkpt lat="46.43938" lon="10.19663">
        <ele>2151.56</ele>
      </trkpt>
      <trkpt lat="46.43938" lon="10.19663">
        <ele>2151.56</ele>
      </trkpt>
      <trkpt lat="46.43938" lon="10.19664">
        <ele>2151.34</ele>
      </trkpt>
      <trkpt lat="46.43963" lon="10.19687">
        <ele>2143.08</ele>
      </trkpt>
      <trkpt lat="46.43985" lon="10.19701">
        <ele>2139.64</ele>
      </trkpt>
      <trkpt lat="46.44008" lon="10.19727">
        <ele>2134.91</ele>
      </trkpt>
      <trkpt lat="46.4402" lon="10.19734">
        <ele>2135.39</ele>
      </trkpt>
      <trkpt lat="46.4404" lon="10.19738">
        <ele>2136.15</ele>
      </trkpt>
      <trkpt lat="46.44058" lon="10.19741">
        <ele>2135.48</ele>
      </trkpt>
      <trkpt lat="46.44086" lon="10.19748">
        <ele>2135.36</ele>
      </trkpt>
      <trkpt lat="46.44102" lon="10.19754">
        <ele>2141.49</ele>
      </trkpt>
      <trkpt lat="46.44138" lon="10.19756">
        <ele>2150.19</ele>
      </trkpt>
      <trkpt lat="46.44145" lon="10.19753">
        <ele>2154.32</ele>
      </trkpt>
      <trkpt lat="46.44145" lon="10.19742">
        <ele>2159.4</ele>
      </trkpt>
      <trkpt lat="46.44154" lon="10.19739">
        <ele>2163.03</ele>
      </trkpt>
      <trkpt lat="46.44165" lon="10.19736">
        <ele>2167.99</ele>
      </trkpt>
      <trkpt lat="46.44176" lon="10.19735">
        <ele>2168.53</ele>
      </trkpt>
      <trkpt lat="46.44187" lon="10.19736">
        <ele>2167.45</ele>
      </trkpt>
      <trkpt lat="46.44197" lon="10.1974">
        <ele>2166.18</ele>
      </trkpt>
      <trkpt lat="46.44207" lon="10.19739">
        <ele>2168.77</ele>
      </trkpt>
      <trkpt lat="46.44219" lon="10.19735">
        <ele>2172.63</ele>
      </trkpt>
      <trkpt lat="46.44233" lon="10.1973">
        <ele>2175.09</ele>
      </trkpt>
      <trkpt lat="46.44241" lon="10.19726">
        <ele>2176.19</ele>
      </trkpt>
      <trkpt lat="46.4425" lon="10.19719">
        <ele>2178.16</ele>
      </trkpt>
      <trkpt lat="46.44258" lon="10.19709">
        <ele>2180.76</ele>
      </trkpt>
      <trkpt lat="46.4427" lon="10.19706">
        <ele>2180.26</ele>
      </trkpt>
      <trkpt lat="46.44278" lon="10.19703">
        <ele>2180.2</ele>
      </trkpt>
      <trkpt lat="46.44284" lon="10.19702">
        <ele>2179.84</ele>
      </trkpt>
      <trkpt lat="46.44284" lon="10.19702">
        <ele>2179.84</ele>
      </trkpt>
      <trkpt lat="46.44284" lon="10.19702">
        <ele>2179.84</ele>
      </trkpt>
      <trkpt lat="46.44288" lon="10.19701">
        <ele>2179.66</ele>
      </trkpt>
      <trkpt lat="46.44291" lon="10.19703">
        <ele>2178.76</ele>
      </trkpt>
      <trkpt lat="46.44298" lon="10.19706">
        <ele>2177.25</ele>
      </trkpt>
      <trkpt lat="46.44311" lon="10.19714">
        <ele>2175.93</ele>
      </trkpt>
      <trkpt lat="46.44318" lon="10.19725">
        <ele>2175.8</ele>
      </trkpt>
      <trkpt lat="46.44324" lon="10.19733">
        <ele>2178.39</ele>
      </trkpt>
      <trkpt lat="46.4433" lon="10.19739">
        <ele>2180.49</ele>
      </trkpt>
      <trkpt lat="46.44339" lon="10.19746">
        <ele>2184.09</ele>
      </trkpt>
      <trkpt lat="46.44349" lon="10.19751">
        <ele>2187.37</ele>
      </trkpt>
      <trkpt lat="46.44365" lon="10.19752">
        <ele>2191.57</ele>
      </trkpt>
      <trkpt lat="46.44365" lon="10.19752">
        <ele>2191.57</ele>
      </trkpt>
      <trkpt lat="46.44365" lon="10.19752">
        <ele>2191.57</ele>
      </trkpt>
      <trkpt lat="46.44374" lon="10.19708">
        <ele>2196.46</ele>
      </trkpt>
      <trkpt lat="46.44381" lon="10.19687">
        <ele>2200.06</ele>
      </trkpt>
      <trkpt lat="46.44419" lon="10.19648">
        <ele>2203.23</ele>
      </trkpt>
      <trkpt lat="46.44437" lon="10.19626">
        <ele>2203.68</ele>
      </trkpt>
      <trkpt lat="46.44447" lon="10.1961">
        <ele>2205.25</ele>
      </trkpt>
      <trkpt lat="46.44456" lon="10.19599">
        <ele>2206.98</ele>
      </trkpt>
      <trkpt lat="46.44468" lon="10.19584">
        <ele>2208.92</ele>
      </trkpt>
      <trkpt lat="46.44476" lon="10.19575">
        <ele>2210.74</ele>
      </trkpt>
      <trkpt lat="46.44488" lon="10.19569">
        <ele>2213.34</ele>
      </trkpt>
      <trkpt lat="46.44497" lon="10.19566">
        <ele>2215.06</ele>
      </trkpt>
      <trkpt lat="46.44505" lon="10.19563">
        <ele>2216.66</ele>
      </trkpt>
      <trkpt lat="46.44516" lon="10.19566">
        <ele>2218.09</ele>
      </trkpt>
      <trkpt lat="46.44521" lon="10.19576">
        <ele>2218.55</ele>
      </trkpt>
      <trkpt lat="46.44527" lon="10.19598">
        <ele>2219.29</ele>
      </trkpt>
      <trkpt lat="46.44529" lon="10.19626">
        <ele>2214.88</ele>
      </trkpt>
      <trkpt lat="46.4453" lon="10.19652">
        <ele>2211.79</ele>
      </trkpt>
      <trkpt lat="46.44533" lon="10.19665">
        <ele>2213.21</ele>
      </trkpt>
      <trkpt lat="46.44556" lon="10.19695">
        <ele>2225.03</ele>
      </trkpt>
      <trkpt lat="46.44556" lon="10.19698">
        <ele>2224.92</ele>
      </trkpt>
      <trkpt lat="46.44556" lon="10.19698">
        <ele>2224.92</ele>
      </trkpt>
      <trkpt lat="46.44556" lon="10.19698">
        <ele>2224.92</ele>
      </trkpt>
      <trkpt lat="46.44556" lon="10.19701">
        <ele>2224.81</ele>
      </trkpt>
      <trkpt lat="46.44554" lon="10.19712">
        <ele>2223.94</ele>
      </trkpt>
      <trkpt lat="46.44546" lon="10.19729">
        <ele>2222.69</ele>
      </trkpt>
      <trkpt lat="46.44543" lon="10.19746">
        <ele>2223.37</ele>
      </trkpt>
      <trkpt lat="46.44546" lon="10.19787">
        <ele>2225.85</ele>
      </trkpt>
      <trkpt lat="46.44548" lon="10.19838">
        <ele>2225.42</ele>
      </trkpt>
      <trkpt lat="46.44552" lon="10.19864">
        <ele>2228.5</ele>
      </trkpt>
      <trkpt lat="46.44562" lon="10.19885">
        <ele>2230.7</ele>
      </trkpt>
      <trkpt lat="46.44567" lon="10.19926">
        <ele>2228.23</ele>
      </trkpt>
      <trkpt lat="46.44572" lon="10.19935">
        <ele>2227.8</ele>
      </trkpt>
      <trkpt lat="46.44582" lon="10.19949">
        <ele>2227.2</ele>
      </trkpt>
      <trkpt lat="46.4461" lon="10.19958">
        <ele>2224.6</ele>
      </trkpt>
      <trkpt lat="46.44609" lon="10.19962">
        <ele>2224.21</ele>
      </trkpt>
      <trkpt lat="46.44616" lon="10.19976">
        <ele>2223.09</ele>
      </trkpt>
      <trkpt lat="46.44616" lon="10.19976">
        <ele>2223.09</ele>
      </trkpt>
      <trkpt lat="46.44616" lon="10.19976">
        <ele>2223.09</ele>
      </trkpt>
      <trkpt lat="46.44614" lon="10.19986">
        <ele>2222.71</ele>
      </trkpt>
      <trkpt lat="46.44603" lon="10.19995">
        <ele>2221.75</ele>
      </trkpt>
      <trkpt lat="46.44578" lon="10.20021">
        <ele>2220.42</ele>
      </trkpt>
      <trkpt lat="46.44561" lon="10.20046">
        <ele>2223.71</ele>
      </trkpt>
      <trkpt lat="46.44542" lon="10.20056">
        <ele>2218.79</ele>
      </trkpt>
      <trkpt lat="46.44526" lon="10.20076">
        <ele>2215.27</ele>
      </trkpt>
      <trkpt lat="46.4452" lon="10.2009">
        <ele>2213.37</ele>
      </trkpt>
      <trkpt lat="46.44504" lon="10.20097">
        <ele>2199.75</ele>
      </trkpt>
      <trkpt lat="46.44494" lon="10.20119">
        <ele>2193.13</ele>
      </trkpt>
      <trkpt lat="46.44481" lon="10.20143">
        <ele>2188.96</ele>
      </trkpt>
      <trkpt lat="46.44461" lon="10.20183">
        <ele>2180.65</ele>
      </trkpt>
      <trkpt lat="46.44456" lon="10.20203">
        <ele>2180.76</ele>
      </trkpt>
      <trkpt lat="46.44457" lon="10.2025">
        <ele>2187.07</ele>
      </trkpt>
      <trkpt lat="46.44456" lon="10.20288">
        <ele>2184.05</ele>
      </trkpt>
      <trkpt lat="46.44472" lon="10.20325">
        <ele>2178.52</ele>
      </trkpt>
      <trkpt lat="46.44481" lon="10.20337">
        <ele>2176.33</ele>
      </trkpt>
      <trkpt lat="46.44499" lon="10.20369">
        <ele>2175.7</ele>
      </trkpt>
      <trkpt lat="46.44499" lon="10.20369">
        <ele>2175.7</ele>
      </trkpt>
      <trkpt lat="46.44499" lon="10.20369">
        <ele>2175.7</ele>
      </trkpt>
      <trkpt lat="46.44526" lon="10.2041">
        <ele>2179.38</ele>
      </trkpt>
      <trkpt lat="46.44549" lon="10.20432">
        <ele>2184.01</ele>
      </trkpt>
      <trkpt lat="46.44574" lon="10.20443">
        <ele>2188.62</ele>
      </trkpt>
      <trkpt lat="46.44593" lon="10.20454">
        <ele>2190.46</ele>
      </trkpt>
      <trkpt lat="46.44607" lon="10.20459">
        <ele>2192.53</ele>
      </trkpt>
      <trkpt lat="46.44619" lon="10.20463">
        <ele>2193.75</ele>
      </trkpt>
      <trkpt lat="46.44619" lon="10.20463">
        <ele>2193.75</ele>
      </trkpt>
      <trkpt lat="46.44659" lon="10.20507">
        <ele>2189.44</ele>
      </trkpt>
      <trkpt lat="46.44659" lon="10.20507">
        <ele>2189.44</ele>
      </trkpt>
      <trkpt lat="46.44703" lon="10.20534">
        <ele>2176.18</ele>
      </trkpt>
      <trkpt lat="46.44703" lon="10.20534">
        <ele>2176.18</ele>
      </trkpt>
      <trkpt lat="46.44744" lon="10.20541">
        <ele>2180.48</ele>
      </trkpt>
      <trkpt lat="46.44744" lon="10.20541">
        <ele>2180.48</ele>
      </trkpt>
      <trkpt lat="46.44795" lon="10.20563">
        <ele>2187.02</ele>
      </trkpt>
      <trkpt lat="46.44795" lon="10.20563">
        <ele>2187.02</ele>
      </trkpt>
      <trkpt lat="46.44841" lon="10.20592">
        <ele>2200.41</ele>
      </trkpt>
      <trkpt lat="46.44841" lon="10.20592">
        <ele>2200.41</ele>
      </trkpt>
      <trkpt lat="46.44841" lon="10.20593">
        <ele>2200.32</ele>
      </trkpt>
      <trkpt lat="46.44865" lon="10.20602">
        <ele>2205.94</ele>
      </trkpt>
      <trkpt lat="46.4489" lon="10.20617">
        <ele>2213.68</ele>
      </trkpt>
      <trkpt lat="46.44895" lon="10.20624">
        <ele>2215.11</ele>
      </trkpt>
      <trkpt lat="46.449" lon="10.20643">
        <ele>2215.33</ele>
      </trkpt>
      <trkpt lat="46.44908" lon="10.20661">
        <ele>2218.89</ele>
      </trkpt>
      <trkpt lat="46.44915" lon="10.20685">
        <ele>2223.4</ele>
      </trkpt>
      <trkpt lat="46.44919" lon="10.20695">
        <ele>2225.44</ele>
      </trkpt>
      <trkpt lat="46.44926" lon="10.20714">
        <ele>2222.9</ele>
      </trkpt>
      <trkpt lat="46.44937" lon="10.20729">
        <ele>2224.61</ele>
      </trkpt>
      <trkpt lat="46.44941" lon="10.20749">
        <ele>2223.3</ele>
      </trkpt>
      <trkpt lat="46.44946" lon="10.20784">
        <ele>2219.44</ele>
      </trkpt>
      <trkpt lat="46.44959" lon="10.20813">
        <ele>2222.93</ele>
      </trkpt>
      <trkpt lat="46.44979" lon="10.20865">
        <ele>2233.89</ele>
      </trkpt>
      <trkpt lat="46.45003" lon="10.20909">
        <ele>2247.43</ele>
      </trkpt>
      <trkpt lat="46.45022" lon="10.20929">
        <ele>2250.86</ele>
      </trkpt>
      <trkpt lat="46.45027" lon="10.20937">
        <ele>2250.42</ele>
      </trkpt>
      <trkpt lat="46.45029" lon="10.2094">
        <ele>2250.21</ele>
      </trkpt>
      <trkpt lat="46.45032" lon="10.20942">
        <ele>2250.41</ele>
      </trkpt>
      <trkpt lat="46.45035" lon="10.2094">
        <ele>2251.44</ele>
      </trkpt>
      <trkpt lat="46.45035" lon="10.20938">
        <ele>2251.83</ele>
      </trkpt>
      <trkpt lat="46.45035" lon="10.20938">
        <ele>2251.83</ele>
      </trkpt>
      <trkpt lat="46.45035" lon="10.20938">
        <ele>2251.83</ele>
      </trkpt>
      <trkpt lat="46.45035" lon="10.20936">
        <ele>2252.23</ele>
      </trkpt>
      <trkpt lat="46.45035" lon="10.20895">
        <ele>2257.19</ele>
      </trkpt>
      <trkpt lat="46.45032" lon="10.20854">
        <ele>2258.05</ele>
      </trkpt>
      <trkpt lat="46.45033" lon="10.20838">
        <ele>2259.54</ele>
      </trkpt>
      <trkpt lat="46.45033" lon="10.20838">
        <ele>2259.54</ele>
      </trkpt>
      <trkpt lat="46.45033" lon="10.20838">
        <ele>2259.54</ele>
      </trkpt>
      <trkpt lat="46.45041" lon="10.2088">
        <ele>2258.1</ele>
      </trkpt>
      <trkpt lat="46.45061" lon="10.20964">
        <ele>2252.66</ele>
      </trkpt>
      <trkpt lat="46.45064" lon="10.20974">
        <ele>2251.61</ele>
      </trkpt>
      <trkpt lat="46.4507" lon="10.20991">
        <ele>2250.74</ele>
      </trkpt>
      <trkpt lat="46.45084" lon="10.21013">
        <ele>2250.21</ele>
      </trkpt>
      <trkpt lat="46.45097" lon="10.21028">
        <ele>2249.92</ele>
      </trkpt>
      <trkpt lat="46.45108" lon="10.21047">
        <ele>2248.01</ele>
      </trkpt>
      <trkpt lat="46.45115" lon="10.21057">
        <ele>2246.88</ele>
      </trkpt>
      <trkpt lat="46.45125" lon="10.21064">
        <ele>2245.87</ele>
      </trkpt>
      <trkpt lat="46.45135" lon="10.21073">
        <ele>2244.78</ele>
      </trkpt>
      <trkpt lat="46.45138" lon="10.21085">
        <ele>2242.45</ele>
      </trkpt>
      <trkpt lat="46.4515" lon="10.21114">
        <ele>2239.29</ele>
      </trkpt>
      <trkpt lat="46.45152" lon="10.21148">
        <ele>2236.09</ele>
      </trkpt>
      <trkpt lat="46.45164" lon="10.21169">
        <ele>2237.7</ele>
      </trkpt>
      <trkpt lat="46.45178" lon="10.21233">
        <ele>2225.88</ele>
      </trkpt>
      <trkpt lat="46.45205" lon="10.21286">
        <ele>2220.11</ele>
      </trkpt>
      <trkpt lat="46.45215" lon="10.21349">
        <ele>2212.72</ele>
      </trkpt>
      <trkpt lat="46.45225" lon="10.21384">
        <ele>2213.99</ele>
      </trkpt>
      <trkpt lat="46.45224" lon="10.21407">
        <ele>2212.71</ele>
      </trkpt>
      <trkpt lat="46.45231" lon="10.21434">
        <ele>2213.07</ele>
      </trkpt>
      <trkpt lat="46.4523" lon="10.21455">
        <ele>2211.69</ele>
      </trkpt>
      <trkpt lat="46.45235" lon="10.2147">
        <ele>2212.23</ele>
      </trkpt>
      <trkpt lat="46.45237" lon="10.21496">
        <ele>2208.91</ele>
      </trkpt>
      <trkpt lat="46.45233" lon="10.21522">
        <ele>2203.81</ele>
      </trkpt>
      <trkpt lat="46.45243" lon="10.21548">
        <ele>2201.1</ele>
      </trkpt>
      <trkpt lat="46.45243" lon="10.21559">
        <ele>2198.87</ele>
      </trkpt>
      <trkpt lat="46.45232" lon="10.21552">
        <ele>2198.4</ele>
      </trkpt>
      <trkpt lat="46.45225" lon="10.21557">
        <ele>2196.27</ele>
      </trkpt>
      <trkpt lat="46.45225" lon="10.21557">
        <ele>2196.27</ele>
      </trkpt>
      <trkpt lat="46.45225" lon="10.21557">
        <ele>2196.27</ele>
      </trkpt>
      <trkpt lat="46.45232" lon="10.21571">
        <ele>2194.75</ele>
      </trkpt>
      <trkpt lat="46.45264" lon="10.21603">
        <ele>2187.84</ele>
      </trkpt>
      <trkpt lat="46.45276" lon="10.21611">
        <ele>2185.97</ele>
      </trkpt>
      <trkpt lat="46.4528" lon="10.21619">
        <ele>2184.84</ele>
      </trkpt>
      <trkpt lat="46.45282" lon="10.21628">
        <ele>2183.51</ele>
      </trkpt>
      <trkpt lat="46.45288" lon="10.21643">
        <ele>2181.97</ele>
      </trkpt>
      <trkpt lat="46.45292" lon="10.21654">
        <ele>2181.14</ele>
      </trkpt>
      <trkpt lat="46.45294" lon="10.2167">
        <ele>2179.36</ele>
      </trkpt>
      <trkpt lat="46.45293" lon="10.21681">
        <ele>2177.91</ele>
      </trkpt>
      <trkpt lat="46.45336" lon="10.21714">
        <ele>2184.97</ele>
      </trkpt>
      <trkpt lat="46.45383" lon="10.21741">
        <ele>2197.55</ele>
      </trkpt>
      <trkpt lat="46.45421" lon="10.21778">
        <ele>2194.73</ele>
      </trkpt>
      <trkpt lat="46.45453" lon="10.21823">
        <ele>2182.13</ele>
      </trkpt>
      <trkpt lat="46.45478" lon="10.21834">
        <ele>2182.67</ele>
      </trkpt>
      <trkpt lat="46.45517" lon="10.21862">
        <ele>2183.59</ele>
      </trkpt>
      <trkpt lat="46.45572" lon="10.21898">
        <ele>2186.48</ele>
      </trkpt>
      <trkpt lat="46.45586" lon="10.21927">
        <ele>2183.2</ele>
      </trkpt>
      <trkpt lat="46.45612" lon="10.21958">
        <ele>2186.85</ele>
      </trkpt>
      <trkpt lat="46.4564" lon="10.22004">
        <ele>2186.25</ele>
      </trkpt>
      <trkpt lat="46.45644" lon="10.22094">
        <ele>2203.52</ele>
      </trkpt>
      <trkpt lat="46.45657" lon="10.22126">
        <ele>2211.43</ele>
      </trkpt>
      <trkpt lat="46.45675" lon="10.22148">
        <ele>2217.31</ele>
      </trkpt>
      <trkpt lat="46.45705" lon="10.22165">
        <ele>2217.3</ele>
      </trkpt>
      <trkpt lat="46.45739" lon="10.2219">
        <ele>2215.96</ele>
      </trkpt>
      <trkpt lat="46.45784" lon="10.22253">
        <ele>2218.46</ele>
      </trkpt>
      <trkpt lat="46.45824" lon="10.22349">
        <ele>2214.42</ele>
      </trkpt>
      <trkpt lat="46.45832" lon="10.22378">
        <ele>2213.13</ele>
      </trkpt>
      <trkpt lat="46.45829" lon="10.22416">
        <ele>2203.6</ele>
      </trkpt>
      <trkpt lat="46.45834" lon="10.22454">
        <ele>2204.18</ele>
      </trkpt>
      <trkpt lat="46.45835" lon="10.22479">
        <ele>2203.17</ele>
      </trkpt>
      <trkpt lat="46.45844" lon="10.22503">
        <ele>2205.44</ele>
      </trkpt>
      <trkpt lat="46.45862" lon="10.22539">
        <ele>2202.99</ele>
      </trkpt>
      <trkpt lat="46.45864" lon="10.22562">
        <ele>2198.5</ele>
      </trkpt>
      <trkpt lat="46.45871" lon="10.22578">
        <ele>2192.47</ele>
      </trkpt>
      <trkpt lat="46.45888" lon="10.22592">
        <ele>2191.94</ele>
      </trkpt>
      <trkpt lat="46.45909" lon="10.22628">
        <ele>2191.2</ele>
      </trkpt>
      <trkpt lat="46.45916" lon="10.22653">
        <ele>2191.67</ele>
      </trkpt>
      <trkpt lat="46.45928" lon="10.22679">
        <ele>2194.25</ele>
      </trkpt>
      <trkpt lat="46.45938" lon="10.22698">
        <ele>2194.96</ele>
      </trkpt>
      <trkpt lat="46.45938" lon="10.22717">
        <ele>2193.11</ele>
      </trkpt>
      <trkpt lat="46.45943" lon="10.2275">
        <ele>2188.48</ele>
      </trkpt>
      <trkpt lat="46.45945" lon="10.22772">
        <ele>2183.58</ele>
      </trkpt>
      <trkpt lat="46.45956" lon="10.22799">
        <ele>2174.91</ele>
      </trkpt>
      <trkpt lat="46.45965" lon="10.22842">
        <ele>2165.34</ele>
      </trkpt>
      <trkpt lat="46.45966" lon="10.22867">
        <ele>2161.1</ele>
      </trkpt>
      <trkpt lat="46.45962" lon="10.22902">
        <ele>2157.34</ele>
      </trkpt>
      <trkpt lat="46.45971" lon="10.22931">
        <ele>2158.39</ele>
      </trkpt>
      <trkpt lat="46.45995" lon="10.22981">
        <ele>2158.92</ele>
      </trkpt>
      <trkpt lat="46.46015" lon="10.23021">
        <ele>2159.05</ele>
      </trkpt>
      <trkpt lat="46.46023" lon="10.23086">
        <ele>2152.67</ele>
      </trkpt>
      <trkpt lat="46.46026" lon="10.23108">
        <ele>2146.34</ele>
      </trkpt>
      <trkpt lat="46.46037" lon="10.23132">
        <ele>2138.97</ele>
      </trkpt>
      <trkpt lat="46.46064" lon="10.23167">
        <ele>2135.23</ele>
      </trkpt>
      <trkpt lat="46.46079" lon="10.23181">
        <ele>2133.1</ele>
      </trkpt>
      <trkpt lat="46.46105" lon="10.23216">
        <ele>2126.26</ele>
      </trkpt>
      <trkpt lat="46.46111" lon="10.23236">
        <ele>2123.01</ele>
      </trkpt>
      <trkpt lat="46.46122" lon="10.23259">
        <ele>2121.66</ele>
      </trkpt>
      <trkpt lat="46.46135" lon="10.23292">
        <ele>2115.92</ele>
      </trkpt>
      <trkpt lat="46.46139" lon="10.23344">
        <ele>2106.28</ele>
      </trkpt>
      <trkpt lat="46.46145" lon="10.23367">
        <ele>2106.05</ele>
      </trkpt>
      <trkpt lat="46.46149" lon="10.23386">
        <ele>2102.98</ele>
      </trkpt>
      <trkpt lat="46.46158" lon="10.23411">
        <ele>2105.05</ele>
      </trkpt>
      <trkpt lat="46.46156" lon="10.23442">
        <ele>2098.95</ele>
      </trkpt>
      <trkpt lat="46.46162" lon="10.23477">
        <ele>2096.71</ele>
      </trkpt>
      <trkpt lat="46.46179" lon="10.23534">
        <ele>2088.97</ele>
      </trkpt>
      <trkpt lat="46.46196" lon="10.23592">
        <ele>2081.22</ele>
      </trkpt>
      <trkpt lat="46.46208" lon="10.23617">
        <ele>2082.84</ele>
      </trkpt>
      <trkpt lat="46.46207" lon="10.23632">
        <ele>2082.4</ele>
      </trkpt>
      <trkpt lat="46.46205" lon="10.23695">
        <ele>2076.14</ele>
      </trkpt>
      <trkpt lat="46.4621" lon="10.23725">
        <ele>2069.5</ele>
      </trkpt>
      <trkpt lat="46.46209" lon="10.23756">
        <ele>2059.91</ele>
      </trkpt>
      <trkpt lat="46.46216" lon="10.23782">
        <ele>2054.8</ele>
      </trkpt>
      <trkpt lat="46.46224" lon="10.23808">
        <ele>2050.05</ele>
      </trkpt>
      <trkpt lat="46.46231" lon="10.2383">
        <ele>2047.56</ele>
      </trkpt>
      <trkpt lat="46.46239" lon="10.2386">
        <ele>2043.88</ele>
      </trkpt>
      <trkpt lat="46.46243" lon="10.23897">
        <ele>2035.67</ele>
      </trkpt>
      <trkpt lat="46.46241" lon="10.23906">
        <ele>2032.09</ele>
      </trkpt>
      <trkpt lat="46.46242" lon="10.23918">
        <ele>2028.7</ele>
      </trkpt>
      <trkpt lat="46.46256" lon="10.23955">
        <ele>2025.01</ele>
      </trkpt>
      <trkpt lat="46.46273" lon="10.2399">
        <ele>2025.52</ele>
      </trkpt>
      <trkpt lat="46.46283" lon="10.24017">
        <ele>2021.66</ele>
      </trkpt>
      <trkpt lat="46.46293" lon="10.24045">
        <ele>2015.5</ele>
      </trkpt>
      <trkpt lat="46.46303" lon="10.24071">
        <ele>2010.57</ele>
      </trkpt>
      <trkpt lat="46.46304" lon="10.24088">
        <ele>2007.04</ele>
      </trkpt>
      <trkpt lat="46.46306" lon="10.24104">
        <ele>2005.08</ele>
      </trkpt>
      <trkpt lat="46.46313" lon="10.24124">
        <ele>2003.34</ele>
      </trkpt>
      <trkpt lat="46.46332" lon="10.24167">
        <ele>1999.56</ele>
      </trkpt>
      <trkpt lat="46.46351" lon="10.24202">
        <ele>1992.27</ele>
      </trkpt>
      <trkpt lat="46.46381" lon="10.24242">
        <ele>1985.38</ele>
      </trkpt>
      <trkpt lat="46.46383" lon="10.24247">
        <ele>1984.0</ele>
      </trkpt>
      <trkpt lat="46.46383" lon="10.24248">
        <ele>1983.64</ele>
      </trkpt>
      <trkpt lat="46.46383" lon="10.24248">
        <ele>1983.64</ele>
      </trkpt>
      <trkpt lat="46.46383" lon="10.24248">
        <ele>1983.64</ele>
      </trkpt>
      <trkpt lat="46.46381" lon="10.24252">
        <ele>1982.04</ele>
      </trkpt>
      <trkpt lat="46.46377" lon="10.24256">
        <ele>1980.32</ele>
      </trkpt>
      <trkpt lat="46.46339" lon="10.24271">
        <ele>1973.09</ele>
      </trkpt>
      <trkpt lat="46.46307" lon="10.2428">
        <ele>1965.77</ele>
      </trkpt>
      <trkpt lat="46.46288" lon="10.24277">
        <ele>1959.77</ele>
      </trkpt>
      <trkpt lat="46.46259" lon="10.24266">
        <ele>1953.9</ele>
      </trkpt>
      <trkpt lat="46.46234" lon="10.24252">
        <ele>1956.45</ele>
      </trkpt>
      <trkpt lat="46.46219" lon="10.24241">
        <ele>1956.55</ele>
      </trkpt>
      <trkpt lat="46.46199" lon="10.24234">
        <ele>1950.64</ele>
      </trkpt>
      <trkpt lat="46.46182" lon="10.24208">
        <ele>1955.78</ele>
      </trkpt>
      <trkpt lat="46.46157" lon="10.24191">
        <ele>1954.41</ele>
      </trkpt>
      <trkpt lat="46.46106" lon="10.24133">
        <ele>1950.66</ele>
      </trkpt>
      <trkpt lat="46.46099" lon="10.24129">
        <ele>1948.82</ele>
      </trkpt>
      <trkpt lat="46.46086" lon="10.24085">
        <ele>1953.71</ele>
      </trkpt>
      <trkpt lat="46.46067" lon="10.24039">
        <ele>1955.06</ele>
      </trkpt>
      <trkpt lat="46.46066" lon="10.2403">
        <ele>1955.93</ele>
      </trkpt>
      <trkpt lat="46.4607" lon="10.24024">
        <ele>1958.83</ele>
      </trkpt>
      <trkpt lat="46.46061" lon="10.24027">
        <ele>1953.84</ele>
      </trkpt>
      <trkpt lat="46.46041" lon="10.24034">
        <ele>1944.62</ele>
      </trkpt>
      <trkpt lat="46.46012" lon="10.2402">
        <ele>1941.02</ele>
      </trkpt>
      <trkpt lat="46.45987" lon="10.23994">
        <ele>1942.22</ele>
      </trkpt>
      <trkpt lat="46.45961" lon="10.23967">
        <ele>1941.22</ele>
      </trkpt>
      <trkpt lat="46.45944" lon="10.23933">
        <ele>1941.32</ele>
      </trkpt>
      <trkpt lat="46.45912" lon="10.23876">
        <ele>1932.44</ele>
      </trkpt>
      <trkpt lat="46.45891" lon="10.23847">
        <ele>1934.03</ele>
      </trkpt>
      <trkpt lat="46.4588" lon="10.23838">
        <ele>1934.31</ele>
      </trkpt>
      <trkpt lat="46.45867" lon="10.23836">
        <ele>1933.18</ele>
      </trkpt>
      <trkpt lat="46.45853" lon="10.23839">
        <ele>1931.51</ele>
      </trkpt>
      <trkpt lat="46.45847" lon="10.23859">
        <ele>1926.46</ele>
      </trkpt>
      <trkpt lat="46.45847" lon="10.23859">
        <ele>1926.46</ele>
      </trkpt>
      <trkpt lat="46.45847" lon="10.23859">
        <ele>1926.46</ele>
      </trkpt>
      <trkpt lat="46.45841" lon="10.239">
        <ele>1917.39</ele>
      </trkpt>
      <trkpt lat="46.45835" lon="10.23922">
        <ele>1913.22</ele>
      </trkpt>
      <trkpt lat="46.45828" lon="10.23953">
        <ele>1906.59</ele>
      </trkpt>
      <trkpt lat="46.45818" lon="10.23964">
        <ele>1902.51</ele>
      </trkpt>
      <trkpt lat="46.45802" lon="10.23964">
        <ele>1899.81</ele>
      </trkpt>
      <trkpt lat="46.45776" lon="10.23946">
        <ele>1899.93</ele>
      </trkpt>
      <trkpt lat="46.45776" lon="10.23946">
        <ele>1899.93</ele>
      </trkpt>
      <trkpt lat="46.45776" lon="10.23946">
        <ele>1899.93</ele>
      </trkpt>
      <trkpt lat="46.45798" lon="10.24005">
        <ele>1887.37</ele>
      </trkpt>
      <trkpt lat="46.45832" lon="10.24034">
        <ele>1892.02</ele>
      </trkpt>
      <trkpt lat="46.45836" lon="10.24041">
        <ele>1890.81</ele>
      </trkpt>
      <trkpt lat="46.45836" lon="10.24041">
        <ele>1890.81</ele>
      </trkpt>
      <trkpt lat="46.45839" lon="10.24061">
        <ele>1886.15</ele>
      </trkpt>
      <trkpt lat="46.45839" lon="10.24061">
        <ele>1886.15</ele>
      </trkpt>
      <trkpt lat="46.45839" lon="10.2407">
        <ele>1884.08</ele>
      </trkpt>
      <trkpt lat="46.45839" lon="10.2407">
        <ele>1884.08</ele>
      </trkpt>
      <trkpt lat="46.45839" lon="10.2407">
        <ele>1884.08</ele>
      </trkpt>
      <trkpt lat="46.45842" lon="10.24073">
        <ele>1883.46</ele>
      </trkpt>
      <trkpt lat="46.45844" lon="10.24074">
        <ele>1883.27</ele>
      </trkpt>
    </trkseg>
  </trk>
</gpx>
